{
  "type": "FeatureCollection",
  "features": [
    {
      "type": "Feature",
      "geometry": {
        "type": "Point",
        "coordinates": [
          -122.80443,
          42.27574
        ]
      },
      "properties": {
        "name": "Phoenix Water Tank",
        "aliases": [],
        "cameraHeightFt": 25.0,
        "alertWestLive": true,
        "provider": "alertwest",
        "viewshedStatus": "pending"
      }
    },
    {
      "type": "Feature",
      "geometry": {
        "type": "Point",
        "coordinates": [
          -121.722655,
          45.648648
        ]
      },
      "properties": {
        "name": "Mt Defiance",
        "provider": "alertwest",
        "aliases": [
          "Axis-MountDefiance",
          "Axis-MountDefiance2"
        ],
        "alertwestSiteIds": [
          23607,
          23608
        ],
        "cameraHeightFt": 95.0,
        "viewshedId": "mt-defiance",
        "locationSource": "digitized",
        "digitizedId": "digitized-camera-43",
        "source": "data/digitized-camera-sources.geojson",
        "alertWestLive": false,
        "viewshedStatus": "pending"
      }
    },
    {
      "type": "Feature",
      "geometry": {
        "type": "Point",
        "coordinates": [
          -117.088277,
          44.859994
        ]
      },
      "properties": {
        "name": "Halfway",
        "provider": "alertwest",
        "aliases": [
          "Axis-Halfway1",
          "Axis-Halfway2"
        ],
        "alertwestSiteIds": [
          18030,
          18031
        ],
        "locationNote": "Digitized lookout preferred by user; archived ALERTWest point is about 5.1 km away.",
        "alternateCoordinates": [
          -117.0316,
          44.8814
        ],
        "cameraHeightFt": 56.75,
        "viewshedId": "halfway",
        "locationSource": "digitized",
        "digitizedId": "digitized-camera-53",
        "source": "data/digitized-camera-sources.geojson",
        "alertWestLive": false,
        "viewshedStatus": "pending"
      }
    },
    {
      "type": "Feature",
      "geometry": {
        "type": "Point",
        "coordinates": [
          -116.93533,
          45.93598
        ]
      },
      "properties": {
        "name": "Jim Creek Butte",
        "provider": "alertwest",
        "aliases": [
          "Axis-jimcreekbutte"
        ],
        "locationSource": "archived-alertwest-api",
        "source": "Camera Locations/Internal camera review prototype/public/cameras.json",
        "sourceDate": "2026-08-21T00:16:05Z",
        "alertwestSiteIds": [
          23681
        ],
        "cameraHeightFt": 32.8,
        "viewshedId": "jim-creek-butte",
        "alertWestLive": false,
        "viewshedStatus": "pending"
      }
    },
    {
      "type": "Feature",
      "geometry": {
        "type": "Point",
        "coordinates": [
          -120.753469,
          46.257481
        ]
      },
      "properties": {
        "name": "Satus",
        "provider": "alertwest",
        "aliases": [
          "Axis-SatusPeak"
        ],
        "locationSource": "archived-alertwest-api",
        "source": "Camera Locations/Internal camera review prototype/public/cameras.json",
        "sourceDate": "2026-08-21T00:16:05Z",
        "alertwestSiteIds": [
          16187
        ],
        "cameraHeightFt": 32.8,
        "viewshedId": "satus",
        "alertWestLive": false,
        "viewshedStatus": "pending"
      }
    },
    {
      "type": "Feature",
      "geometry": {
        "type": "Point",
        "coordinates": [
          -120.335462,
          46.522181
        ]
      },
      "properties": {
        "name": "Elephant",
        "provider": "alertwest",
        "aliases": [
          "Axis-Elephant"
        ],
        "locationSource": "archived-alertwest-api",
        "source": "Camera Locations/Internal camera review prototype/public/cameras.json",
        "sourceDate": "2026-06-16T18:54:14Z",
        "alertwestSiteIds": [
          17909
        ],
        "cameraHeightFt": 10.0,
        "viewshedId": "elephant",
        "alertWestLive": false,
        "viewshedStatus": "pending"
      }
    },
    {
      "type": "Feature",
      "geometry": {
        "type": "Point",
        "coordinates": [
          -120.84488,
          47.841117
        ]
      },
      "properties": {
        "name": "Two Rivers",
        "provider": "alertwest",
        "aliases": [
          "Axis-TwoRivers"
        ],
        "locationSource": "archived-alertwest-api",
        "source": "Camera Locations/Internal camera review prototype/public/cameras.json",
        "sourceDate": "2026-08-21T00:15:40Z",
        "alertwestSiteIds": [
          16405
        ],
        "cameraHeightFt": 130.0,
        "viewshedId": "two-rivers",
        "alertWestLive": false,
        "viewshedStatus": "pending"
      }
    },
    {
      "type": "Feature",
      "geometry": {
        "type": "Point",
        "coordinates": [
          -120.81022,
          47.785531
        ]
      },
      "properties": {
        "name": "Round Mountain Chelan",
        "provider": "alertwest",
        "aliases": [
          "Axis-RoundMtnChelan"
        ],
        "locationSource": "archived-alertwest-api",
        "source": "Camera Locations/Internal camera review prototype/public/cameras.json",
        "sourceDate": "2026-08-21T00:15:46Z",
        "alertwestSiteIds": [
          8604
        ],
        "cameraHeightFt": 80.0,
        "viewshedId": "round-mountain-chelan",
        "alertWestLive": false,
        "viewshedStatus": "pending"
      }
    }
  ]
}
