{
  "type": "FeatureCollection",
  "features": [
    {
      "type": "Feature",
      "geometry": {
        "type": "Point",
        "coordinates": [
          -124.364986,
          42.396385
        ]
      },
      "properties": {
        "id": "digitized-camera-1",
        "name": "Grizzly Mountain",
        "operator": "EnviroVision Solutions",
        "status": "Operational",
        "pointSource": "ODF_sites_points",
        "pointSourceName": "Grizzly CFPA",
        "mapSource": "Oregon Wildfire Detection Network Map - PDF",
        "digitizedBy": "Mason Weybright",
        "digitizedDate": "2026-09-23",
        "siteType": "Ground",
        "altPointSource": "standing-lookouts",
        "altPointSourceName": "Grizzly Mountain",
        "cameraHeightFeet": null,
        "notes": "name mismatch"
      }
    },
    {
      "type": "Feature",
      "geometry": {
        "type": "Point",
        "coordinates": [
          -123.493986,
          42.198245
        ]
      },
      "properties": {
        "id": "digitized-camera-2",
        "name": "Little Grayback",
        "operator": "EnviroVision Solutions",
        "status": "Operational",
        "pointSource": "ODF_sites_points",
        "pointSourceName": "Little Grayback",
        "mapSource": "Oregon Wildfire Detection Network Map - PDF",
        "digitizedBy": "Mason Weybright",
        "digitizedDate": "2026-09-23",
        "siteType": "2 Story cab",
        "altPointSource": "standing-lookouts",
        "altPointSourceName": "Little Grayback",
        "cameraHeightFeet": null,
        "notes": null
      }
    },
    {
      "type": "Feature",
      "geometry": {
        "type": "Point",
        "coordinates": [
          -122.478986,
          42.064775
        ]
      },
      "properties": {
        "id": "digitized-camera-3",
        "name": "Soda Mountain",
        "operator": "EnviroVision Solutions",
        "status": "Operational",
        "pointSource": "ODF_sites_points",
        "pointSourceName": "Soda Mountain",
        "mapSource": "Oregon Wildfire Detection Network Map - PDF",
        "digitizedBy": "Mason Weybright",
        "digitizedDate": "2026-09-23",
        "siteType": "Tower",
        "altPointSource": "standing-lookouts",
        "altPointSourceName": "Soda Mountain",
        "cameraHeightFeet": null,
        "notes": null
      }
    },
    {
      "type": "Feature",
      "geometry": {
        "type": "Point",
        "coordinates": [
          -122.27889,
          42.105339
        ]
      },
      "properties": {
        "id": "digitized-camera-4",
        "name": "Parker Mountain",
        "operator": "EnviroVision Solutions",
        "status": "Operational",
        "pointSource": "ODF_sites_points",
        "pointSourceName": "Parker Mountain",
        "mapSource": "Oregon Wildfire Detection Network Map - PDF",
        "digitizedBy": "Mason Weybright",
        "digitizedDate": "2026-09-23",
        "siteType": "Tower",
        "altPointSource": "standing-lookouts",
        "altPointSourceName": "Parker Mountain",
        "cameraHeightFeet": null,
        "notes": "pt adjusted to imagery"
      }
    },
    {
      "type": "Feature",
      "geometry": {
        "type": "Point",
        "coordinates": [
          -121.993986,
          42.094605
        ]
      },
      "properties": {
        "id": "digitized-camera-5",
        "name": "Chase Mountain",
        "operator": "EnviroVision Solutions",
        "status": "Operational",
        "pointSource": "ODF_sites_points",
        "pointSourceName": "Chase",
        "mapSource": "Oregon Wildfire Detection Network Map - PDF",
        "digitizedBy": "Mason Weybright",
        "digitizedDate": "2026-09-23",
        "siteType": "Tower",
        "altPointSource": "standing-lookouts",
        "altPointSourceName": "Chase Mountain",
        "cameraHeightFeet": null,
        "notes": "name mismatch"
      }
    },
    {
      "type": "Feature",
      "geometry": {
        "type": "Point",
        "coordinates": [
          -122.890986,
          42.043565
        ]
      },
      "properties": {
        "id": "digitized-camera-6",
        "name": "Dutchman Peak",
        "operator": "EnviroVision Solutions",
        "status": "Operational",
        "pointSource": "ODF_sites_points",
        "pointSourceName": "Dutchman Peak",
        "mapSource": "Oregon Wildfire Detection Network Map - PDF",
        "digitizedBy": "Mason Weybright",
        "digitizedDate": "2026-09-23",
        "siteType": "Ground",
        "altPointSource": "standing-lookouts",
        "altPointSourceName": "Dutchmans Peak",
        "cameraHeightFeet": null,
        "notes": "standing_lookout pt closer to site in imagery than ODF pt"
      }
    },
    {
      "type": "Feature",
      "geometry": {
        "type": "Point",
        "coordinates": [
          -121.705986,
          42.242905
        ]
      },
      "properties": {
        "id": "digitized-camera-7",
        "name": "Hogback",
        "operator": "EnviroVision Solutions",
        "status": "Operational",
        "pointSource": "ODF_sites_points",
        "pointSourceName": "Hogback",
        "mapSource": "Oregon Wildfire Detection Network Map - PDF",
        "digitizedBy": "Mason Weybright",
        "digitizedDate": "2026-09-23",
        "siteType": "Tower",
        "altPointSource": "standing-lookouts",
        "altPointSourceName": "Hogback Mountain",
        "cameraHeightFeet": null,
        "notes": null
      }
    },
    {
      "type": "Feature",
      "geometry": {
        "type": "Point",
        "coordinates": [
          -121.269986,
          42.326505
        ]
      },
      "properties": {
        "id": "digitized-camera-8",
        "name": "Yainax Butte",
        "operator": "EnviroVision Solutions",
        "status": "Operational",
        "pointSource": "ODF_sites_points",
        "pointSourceName": "Yainax",
        "mapSource": "Oregon Wildfire Detection Network Map - PDF",
        "digitizedBy": "Mason Weybright",
        "digitizedDate": "2026-09-23",
        "siteType": "Tower",
        "altPointSource": "standing-lookouts",
        "altPointSourceName": "Yainax Butte",
        "cameraHeightFeet": null,
        "notes": "name mismatch, standing_lookout pt closer to site in imagery than ODF pt"
      }
    },
    {
      "type": "Feature",
      "geometry": {
        "type": "Point",
        "coordinates": [
          -120.157917,
          42.300505
        ]
      },
      "properties": {
        "id": "digitized-camera-9",
        "name": "Drake Peak",
        "operator": "EnviroVision Solutions",
        "status": "Planned",
        "pointSource": "standing-lookouts",
        "pointSourceName": "Drake Peak",
        "mapSource": "Oregon Wildfire Detection Network Map - PDF",
        "digitizedBy": "Mason Weybright",
        "digitizedDate": "2026-09-23",
        "siteType": "Ground",
        "altPointSource": null,
        "altPointSourceName": null,
        "cameraHeightFeet": null,
        "notes": null
      }
    },
    {
      "type": "Feature",
      "geometry": {
        "type": "Point",
        "coordinates": [
          -122.492866,
          42.197755
        ]
      },
      "properties": {
        "id": "digitized-camera-10",
        "name": "Table Mountain",
        "operator": "ALERTWest",
        "status": "Planned",
        "pointSource": "standing-lookouts",
        "pointSourceName": "Table Mountain",
        "mapSource": "Oregon Wildfire Detection Network Map - PDF",
        "digitizedBy": "Mason Weybright",
        "digitizedDate": "2026-09-23",
        "siteType": "Tower",
        "altPointSource": null,
        "altPointSourceName": null,
        "cameraHeightFeet": null,
        "notes": null
      }
    },
    {
      "type": "Feature",
      "geometry": {
        "type": "Point",
        "coordinates": [
          -123.615986,
          42.454415
        ]
      },
      "properties": {
        "id": "digitized-camera-11",
        "name": "Onion",
        "operator": "EnviroVision Solutions",
        "status": "Operational",
        "pointSource": "ODF_sites_points",
        "pointSourceName": "Onion",
        "mapSource": "Oregon Wildfire Detection Network Map - PDF",
        "digitizedBy": "Mason Weybright",
        "digitizedDate": "2026-09-23",
        "siteType": "Tower",
        "altPointSource": "standing-lookouts",
        "altPointSourceName": "Onion Mountain",
        "cameraHeightFeet": null,
        "notes": "standing_lookout pt closer to site in imagery than ODF pt"
      }
    },
    {
      "type": "Feature",
      "geometry": {
        "type": "Point",
        "coordinates": [
          -122.720258,
          42.081016
        ]
      },
      "properties": {
        "id": "digitized-camera-12",
        "name": "Mt Ashland",
        "operator": "EnviroVision Solutions",
        "status": "Operational",
        "pointSource": "usfs_communications_sites",
        "pointSourceName": "MT ASHLAND",
        "mapSource": "Oregon Wildfire Detection Network Map - PDF",
        "digitizedBy": "Mason Weybright",
        "digitizedDate": "2026-09-23",
        "siteType": null,
        "altPointSource": "ODF_sites_points",
        "altPointSourceName": "Mt. Ashland",
        "cameraHeightFeet": null,
        "notes": "name mismatch"
      }
    },
    {
      "type": "Feature",
      "geometry": {
        "type": "Point",
        "coordinates": [
          -120.507106,
          42.492431
        ]
      },
      "properties": {
        "id": "digitized-camera-13",
        "name": "Round Pass",
        "operator": "EnviroVision Solutions",
        "status": "Operational",
        "pointSource": "usfs_communications_sites",
        "pointSourceName": "ROUND PASS",
        "mapSource": "Oregon Wildfire Detection Network Map - PDF",
        "digitizedBy": "Mason Weybright",
        "digitizedDate": "2026-09-23",
        "siteType": null,
        "altPointSource": "ODF_sites_points",
        "altPointSourceName": "Round Pass",
        "cameraHeightFeet": null,
        "notes": "name mismatch, ODF pt approx 2,800 ft north of site in imagery"
      }
    },
    {
      "type": "Feature",
      "geometry": {
        "type": "Point",
        "coordinates": [
          -122.990886,
          42.701855
        ]
      },
      "properties": {
        "id": "digitized-camera-14",
        "name": "Round Top",
        "operator": "EnviroVision Solutions",
        "status": "Operational",
        "pointSource": "standing-lookouts",
        "pointSourceName": "Round Top",
        "mapSource": "Oregon Wildfire Detection Network Map - PDF",
        "digitizedBy": "Mason Weybright",
        "digitizedDate": "2026-09-23",
        "siteType": "Tower",
        "altPointSource": "ODF_sites_points",
        "altPointSourceName": "Round Top",
        "cameraHeightFeet": null,
        "notes": "ODF pt approx 10.4 miles east of site in imagery"
      }
    },
    {
      "type": "Feature",
      "geometry": {
        "type": "Point",
        "coordinates": [
          -123.365986,
          42.600135
        ]
      },
      "properties": {
        "id": "digitized-camera-15",
        "name": "Sexton",
        "operator": "EnviroVision Solutions",
        "status": "Operational",
        "pointSource": "ODF_sites_points",
        "pointSourceName": "Sexton",
        "mapSource": "Oregon Wildfire Detection Network Map - PDF",
        "digitizedBy": "Mason Weybright",
        "digitizedDate": "2026-09-23",
        "siteType": "Tower",
        "altPointSource": "standing-lookouts",
        "altPointSourceName": "Sexton Mountain",
        "cameraHeightFeet": null,
        "notes": null
      }
    },
    {
      "type": "Feature",
      "geometry": {
        "type": "Point",
        "coordinates": [
          -123.118986,
          42.969105
        ]
      },
      "properties": {
        "id": "digitized-camera-16",
        "name": "Bland Mountain",
        "operator": "EnviroVision Solutions",
        "status": "Operational",
        "pointSource": "ODF_sites_points",
        "pointSourceName": "Bland Mountain",
        "mapSource": "Oregon Wildfire Detection Network Map - PDF",
        "digitizedBy": "Mason Weybright",
        "digitizedDate": "2026-09-23",
        "siteType": "Tower",
        "altPointSource": "standing-lookouts",
        "altPointSourceName": "Bland Mountain",
        "cameraHeightFeet": null,
        "notes": "standing_lookout pt closer to site in imagery than ODF pt"
      }
    },
    {
      "type": "Feature",
      "geometry": {
        "type": "Point",
        "coordinates": [
          -124.33431,
          42.872012
        ]
      },
      "properties": {
        "id": "digitized-camera-17",
        "name": "Edson Butte",
        "operator": "EnviroVision Solutions",
        "status": "Operational",
        "pointSource": "ODF_sites_points",
        "pointSourceName": "Edson Butte",
        "mapSource": "Oregon Wildfire Detection Network Map - PDF",
        "digitizedBy": "Mason Weybright",
        "digitizedDate": "2026-09-23",
        "siteType": "Tower",
        "altPointSource": "standing-lookouts",
        "altPointSourceName": "Edson Butte",
        "cameraHeightFeet": null,
        "notes": "pt adjusted to imagery"
      }
    },
    {
      "type": "Feature",
      "geometry": {
        "type": "Point",
        "coordinates": [
          -120.639486,
          42.25259
        ]
      },
      "properties": {
        "id": "digitized-camera-18",
        "name": "Grizzly Peak",
        "operator": "EnviroVision Solutions",
        "status": "Operational",
        "pointSource": "usfs_communications_sites",
        "pointSourceName": "GRIZZLY PEAK",
        "mapSource": "Oregon Wildfire Detection Network Map - PDF",
        "digitizedBy": "Mason Weybright",
        "digitizedDate": "2026-09-23",
        "siteType": null,
        "altPointSource": "ODF_sites_points",
        "altPointSourceName": "Grizzly Peak",
        "cameraHeightFeet": null,
        "notes": "name mismatch"
      }
    },
    {
      "type": "Feature",
      "geometry": {
        "type": "Point",
        "coordinates": [
          -123.876969,
          41.830277
        ]
      },
      "properties": {
        "id": "digitized-camera-19",
        "name": "Wild Frontier",
        "operator": "ALERTWest",
        "status": "Operational",
        "pointSource": "usfs_communications_sites",
        "pointSourceName": "CAMP SIX",
        "mapSource": "Oregon Wildfire Detection Network Map - PDF",
        "digitizedBy": "Mason Weybright",
        "digitizedDate": "2026-09-23",
        "siteType": null,
        "altPointSource": null,
        "altPointSourceName": null,
        "cameraHeightFeet": null,
        "notes": "name mismatch"
      }
    },
    {
      "type": "Feature",
      "geometry": {
        "type": "Point",
        "coordinates": [
          -123.353515,
          41.858004
        ]
      },
      "properties": {
        "id": "digitized-camera-20",
        "name": "Slater Butter Lookout",
        "operator": "ALERTWest",
        "status": "Operational",
        "pointSource": "usfs_communications_sites",
        "pointSourceName": "SLATER BUTTE",
        "mapSource": "Oregon Wildfire Detection Network Map - PDF",
        "digitizedBy": "Mason Weybright",
        "digitizedDate": "2026-09-23",
        "siteType": null,
        "altPointSource": null,
        "altPointSourceName": null,
        "cameraHeightFeet": null,
        "notes": "name mismatch"
      }
    },
    {
      "type": "Feature",
      "geometry": {
        "type": "Point",
        "coordinates": [
          -120.829698,
          42.983688
        ]
      },
      "properties": {
        "id": "digitized-camera-21",
        "name": "Latgawa Mountain",
        "operator": "Pano AI",
        "status": "Operational",
        "pointSource": "usfs_communications_sites",
        "pointSourceName": "DEAD INDIAN MOUNTAIN",
        "mapSource": "Oregon Wildfire Detection Network Map - PDF",
        "digitizedBy": "Mason Weybright",
        "digitizedDate": "2026-09-23",
        "siteType": null,
        "altPointSource": null,
        "altPointSourceName": null,
        "cameraHeightFeet": null,
        "notes": "name mismatch"
      }
    },
    {
      "type": "Feature",
      "geometry": {
        "type": "Point",
        "coordinates": [
          -122.880986,
          43.165555
        ]
      },
      "properties": {
        "id": "digitized-camera-22",
        "name": "Red Butte",
        "operator": "EnviroVision Solutions",
        "status": "Operational",
        "pointSource": "ODF_sites_points",
        "pointSourceName": "Red Butte",
        "mapSource": "Oregon Wildfire Detection Network Map - PDF",
        "digitizedBy": "Mason Weybright",
        "digitizedDate": "2026-09-23",
        "siteType": "Tower",
        "altPointSource": "standing-lookouts",
        "altPointSourceName": "Red Butte",
        "cameraHeightFeet": null,
        "notes": null
      }
    },
    {
      "type": "Feature",
      "geometry": {
        "type": "Point",
        "coordinates": [
          -123.581196,
          43.269255
        ]
      },
      "properties": {
        "id": "digitized-camera-23",
        "name": "Baughman",
        "operator": "EnviroVision Solutions",
        "status": "Operational",
        "pointSource": "standing-lookouts",
        "pointSourceName": "Baughman Mountain",
        "mapSource": "Oregon Wildfire Detection Network Map - PDF",
        "digitizedBy": "Mason Weybright",
        "digitizedDate": "2026-09-23",
        "siteType": "Tower",
        "altPointSource": "ODF_sites_points",
        "altPointSourceName": "Baughman",
        "cameraHeightFeet": null,
        "notes": "name mismatch"
      }
    },
    {
      "type": "Feature",
      "geometry": {
        "type": "Point",
        "coordinates": [
          -122.366386,
          43.543395
        ]
      },
      "properties": {
        "id": "digitized-camera-24",
        "name": "Warner Mountain",
        "operator": "EnviroVision Solutions",
        "status": "Operational",
        "pointSource": "standing-lookouts",
        "pointSourceName": "Warner Ridge",
        "mapSource": "Oregon Wildfire Detection Network Map - PDF",
        "digitizedBy": "Mason Weybright",
        "digitizedDate": "2026-09-23",
        "siteType": "Tower",
        "altPointSource": "ODF_sites_points",
        "altPointSourceName": "Warner Mountain",
        "cameraHeightFeet": null,
        "notes": "name mismatch"
      }
    },
    {
      "type": "Feature",
      "geometry": {
        "type": "Point",
        "coordinates": [
          -121.716986,
          43.305215
        ]
      },
      "properties": {
        "id": "digitized-camera-25",
        "name": "Walker Mountain",
        "operator": "EnviroVision Solutions",
        "status": "Operational",
        "pointSource": "ODF_sites_points",
        "pointSourceName": "Walker Mountain",
        "mapSource": "Oregon Wildfire Detection Network Map - PDF",
        "digitizedBy": "Mason Weybright",
        "digitizedDate": "2026-09-23",
        "siteType": "Tower",
        "altPointSource": "standing-lookouts",
        "altPointSourceName": "Walker Mountain",
        "cameraHeightFeet": null,
        "notes": null
      }
    },
    {
      "type": "Feature",
      "geometry": {
        "type": "Point",
        "coordinates": [
          -122.379876,
          43.264195
        ]
      },
      "properties": {
        "id": "digitized-camera-26",
        "name": "Pig Iron Mountain Lookout",
        "operator": "ALERTWest",
        "status": "Planned",
        "pointSource": "standing-lookouts",
        "pointSourceName": "Pig Iron",
        "mapSource": "Oregon Wildfire Detection Network Map - PDF",
        "digitizedBy": "Mason Weybright",
        "digitizedDate": "2026-09-23",
        "siteType": "Tower",
        "altPointSource": null,
        "altPointSourceName": null,
        "cameraHeightFeet": null,
        "notes": "name mismatch"
      }
    },
    {
      "type": "Feature",
      "geometry": {
        "type": "Point",
        "coordinates": [
          -121.347872,
          43.523305
        ]
      },
      "properties": {
        "id": "digitized-camera-27",
        "name": "Spring Butte",
        "operator": "EnviroVision Solutions",
        "status": "Planned",
        "pointSource": "standing-lookouts",
        "pointSourceName": "Spring Butte",
        "mapSource": "Oregon Wildfire Detection Network Map - PDF",
        "digitizedBy": "Mason Weybright",
        "digitizedDate": "2026-09-23",
        "siteType": "Tower",
        "altPointSource": null,
        "altPointSourceName": null,
        "cameraHeightFeet": null,
        "notes": "pt adjusted to imagery"
      }
    },
    {
      "type": "Feature",
      "geometry": {
        "type": "Point",
        "coordinates": [
          -122.230694,
          43.616659
        ]
      },
      "properties": {
        "id": "digitized-camera-28",
        "name": "Wolf Mountain",
        "operator": "ALERTWest",
        "status": "Planned",
        "pointSource": "usfs_communications_sites",
        "pointSourceName": "WOLF MOUNTAIN",
        "mapSource": "Oregon Wildfire Detection Network Map - PDF",
        "digitizedBy": "Mason Weybright",
        "digitizedDate": "2026-09-23",
        "siteType": null,
        "altPointSource": null,
        "altPointSourceName": null,
        "cameraHeightFeet": null,
        "notes": "name mismatch"
      }
    },
    {
      "type": "Feature",
      "geometry": {
        "type": "Point",
        "coordinates": [
          -122.653226,
          43.585775
        ]
      },
      "properties": {
        "id": "digitized-camera-29",
        "name": "Fairview Point Lookout",
        "operator": "ALERTWest",
        "status": "Planned",
        "pointSource": "standing-lookouts",
        "pointSourceName": "Fairview Peak",
        "mapSource": "Oregon Wildfire Detection Network Map - PDF",
        "digitizedBy": "Mason Weybright",
        "digitizedDate": "2026-09-23",
        "siteType": "Tower",
        "altPointSource": null,
        "altPointSourceName": null,
        "cameraHeightFeet": null,
        "notes": "name mismatch"
      }
    },
    {
      "type": "Feature",
      "geometry": {
        "type": "Point",
        "coordinates": [
          -119.563696,
          43.671954
        ]
      },
      "properties": {
        "id": "digitized-camera-30",
        "name": "Dry Mountain",
        "operator": "ALERTWest",
        "status": "Operational",
        "pointSource": "standing-lookouts",
        "pointSourceName": "Dry Mountain",
        "mapSource": "Oregon Wildfire Detection Network Map - PDF",
        "digitizedBy": "Mason Weybright",
        "digitizedDate": "2026-09-23",
        "siteType": "Tower",
        "altPointSource": null,
        "altPointSourceName": null,
        "cameraHeightFeet": null,
        "notes": null
      }
    },
    {
      "type": "Feature",
      "geometry": {
        "type": "Point",
        "coordinates": [
          -121.552238,
          44.078619
        ]
      },
      "properties": {
        "id": "digitized-camera-31",
        "name": "Bearwallow Butte",
        "operator": "EnviroVision Solutions",
        "status": "Operational",
        "pointSource": "usfs_communications_sites",
        "pointSourceName": "BEARWALLOW BUTTE",
        "mapSource": "Oregon Wildfire Detection Network Map - PDF",
        "digitizedBy": "Mason Weybright",
        "digitizedDate": "2026-09-23",
        "siteType": null,
        "altPointSource": null,
        "altPointSourceName": null,
        "cameraHeightFeet": null,
        "notes": "name mismatch"
      }
    },
    {
      "type": "Feature",
      "geometry": {
        "type": "Point",
        "coordinates": [
          -122.409986,
          44.139095
        ]
      },
      "properties": {
        "id": "digitized-camera-32",
        "name": "Hagen",
        "operator": "EnviroVision Solutions",
        "status": "Operational",
        "pointSource": "ODF_sites_points",
        "pointSourceName": "Hagen",
        "mapSource": "Oregon Wildfire Detection Network Map - PDF",
        "digitizedBy": "Mason Weybright",
        "digitizedDate": "2026-09-23",
        "siteType": null,
        "altPointSource": null,
        "altPointSourceName": null,
        "cameraHeightFeet": null,
        "notes": null
      }
    },
    {
      "type": "Feature",
      "geometry": {
        "type": "Point",
        "coordinates": [
          -122.450986,
          44.268035
        ]
      },
      "properties": {
        "id": "digitized-camera-33",
        "name": "Big Rock",
        "operator": "EnviroVision Solutions",
        "status": "Operational",
        "pointSource": "ODF_sites_points",
        "pointSourceName": "Big Rock",
        "mapSource": "Oregon Wildfire Detection Network Map - PDF",
        "digitizedBy": "Mason Weybright",
        "digitizedDate": "2026-09-23",
        "siteType": "2 Story cab",
        "altPointSource": "standing-lookouts",
        "altPointSourceName": "Big Rock",
        "cameraHeightFeet": null,
        "notes": null
      }
    },
    {
      "type": "Feature",
      "geometry": {
        "type": "Point",
        "coordinates": [
          -122.310525,
          44.479759
        ]
      },
      "properties": {
        "id": "digitized-camera-34",
        "name": "Cougar Rock",
        "operator": "EnviroVision Solutions",
        "status": "Operational",
        "pointSource": "usfs_communications_sites",
        "pointSourceName": "COUGAR ROCK",
        "mapSource": "Oregon Wildfire Detection Network Map - PDF",
        "digitizedBy": "Mason Weybright",
        "digitizedDate": "2026-09-23",
        "siteType": null,
        "altPointSource": "ODF_sites_points",
        "altPointSourceName": "Cougar Rock",
        "cameraHeightFeet": null,
        "notes": "name mismatch"
      }
    },
    {
      "type": "Feature",
      "geometry": {
        "type": "Point",
        "coordinates": [
          -122.582896,
          44.483065
        ]
      },
      "properties": {
        "id": "digitized-camera-35",
        "name": "Green Peter",
        "operator": "EnviroVision Solutions",
        "status": "Operational",
        "pointSource": "standing-lookouts",
        "pointSourceName": "Green Peter",
        "mapSource": "Oregon Wildfire Detection Network Map - PDF",
        "digitizedBy": "Mason Weybright",
        "digitizedDate": "2026-09-23",
        "siteType": "Ground",
        "altPointSource": "ODF_sites_points",
        "altPointSourceName": "Green Peter",
        "cameraHeightFeet": null,
        "notes": null
      }
    },
    {
      "type": "Feature",
      "geometry": {
        "type": "Point",
        "coordinates": [
          -120.784986,
          44.527004
        ]
      },
      "properties": {
        "id": "digitized-camera-36",
        "name": "Foley Butte",
        "operator": "EnviroVision Solutions",
        "status": "Operational",
        "pointSource": "ODF_sites_points",
        "pointSourceName": "Foley",
        "mapSource": "Oregon Wildfire Detection Network Map - PDF",
        "digitizedBy": "Mason Weybright",
        "digitizedDate": "2026-09-23",
        "siteType": "Tower",
        "altPointSource": "standing-lookouts",
        "altPointSourceName": "Foley Butte",
        "cameraHeightFeet": null,
        "notes": "name mismatch"
      }
    },
    {
      "type": "Feature",
      "geometry": {
        "type": "Point",
        "coordinates": [
          -120.459986,
          44.263404
        ]
      },
      "properties": {
        "id": "digitized-camera-37",
        "name": "Gerow Butte",
        "operator": "EnviroVision Solutions",
        "status": "Operational",
        "pointSource": "ODF_sites_points",
        "pointSourceName": "Gerow Butte",
        "mapSource": "Oregon Wildfire Detection Network Map - PDF",
        "digitizedBy": "Mason Weybright",
        "digitizedDate": "2026-09-23",
        "siteType": "Tower",
        "altPointSource": "standing-lookouts",
        "altPointSourceName": "Gerow Butte",
        "cameraHeightFeet": null,
        "notes": null
      }
    },
    {
      "type": "Feature",
      "geometry": {
        "type": "Point",
        "coordinates": [
          -121.539219,
          44.926279
        ]
      },
      "properties": {
        "id": "digitized-camera-38",
        "name": "Sidwalter",
        "operator": "Pano AI",
        "status": "Operational",
        "pointSource": "PGE_WF_Cameras",
        "pointSourceName": "Sidwalter",
        "mapSource": "Oregon Wildfire Detection Network Map - PDF",
        "digitizedBy": "Mason Weybright",
        "digitizedDate": "2026-09-23",
        "siteType": "Tower",
        "altPointSource": "standing-lookouts",
        "altPointSourceName": "Sidwalter Butte",
        "cameraHeightFeet": null,
        "notes": "no entry for this site in PGE_towers_reduced"
      }
    },
    {
      "type": "Feature",
      "geometry": {
        "type": "Point",
        "coordinates": [
          -121.466549,
          45.317858
        ]
      },
      "properties": {
        "id": "digitized-camera-39",
        "name": "Flag Point",
        "operator": "EnviroVision Solutions",
        "status": "Operational",
        "pointSource": "usfs_communications_sites",
        "pointSourceName": "FLAG POINT",
        "mapSource": "Oregon Wildfire Detection Network Map - PDF",
        "digitizedBy": "Mason Weybright",
        "digitizedDate": "2026-09-23",
        "siteType": null,
        "altPointSource": "ODF_sites_points",
        "altPointSourceName": "Flag Point",
        "cameraHeightFeet": null,
        "notes": "name mismatch, pt adjusted to imagery"
      }
    },
    {
      "type": "Feature",
      "geometry": {
        "type": "Point",
        "coordinates": [
          -122.119159,
          45.10668
        ]
      },
      "properties": {
        "id": "digitized-camera-40",
        "name": "Whale Head",
        "operator": "Pano AI",
        "status": "Operational",
        "pointSource": "PGE_WF_Cameras",
        "pointSourceName": "Whale Head",
        "mapSource": "Oregon Wildfire Detection Network Map - PDF",
        "digitizedBy": "Mason Weybright",
        "digitizedDate": "2026-09-23",
        "siteType": null,
        "altPointSource": null,
        "altPointSourceName": null,
        "cameraHeightFeet": 150,
        "notes": "height pulled from \"Description\" column of PGE-towers_reduced.csv sheet"
      }
    },
    {
      "type": "Feature",
      "geometry": {
        "type": "Point",
        "coordinates": [
          -122.182624,
          45.18619
        ]
      },
      "properties": {
        "id": "digitized-camera-41",
        "name": "Memaloose",
        "operator": "Pano AI",
        "status": "Operational",
        "pointSource": "PGE_WF_Cameras",
        "pointSourceName": "Memaloose",
        "mapSource": "Oregon Wildfire Detection Network Map - PDF",
        "digitizedBy": "Mason Weybright",
        "digitizedDate": "2026-09-23",
        "siteType": null,
        "altPointSource": null,
        "altPointSourceName": null,
        "cameraHeightFeet": 185,
        "notes": "height pulled from \"Description\" column of PGE-towers_reduced.csv sheet"
      }
    },
    {
      "type": "Feature",
      "geometry": {
        "type": "Point",
        "coordinates": [
          -121.911319,
          45.412474
        ]
      },
      "properties": {
        "id": "digitized-camera-42",
        "name": "Hickman Butte Lookout",
        "operator": "ALERTWest",
        "status": "Planned",
        "pointSource": "standing-lookouts",
        "pointSourceName": "Hickman Butte",
        "mapSource": "Oregon Wildfire Detection Network Map - PDF",
        "digitizedBy": "Mason Weybright",
        "digitizedDate": "2026-09-23",
        "siteType": "Tower",
        "altPointSource": null,
        "altPointSourceName": null,
        "cameraHeightFeet": null,
        "notes": "name mismatch, pt adjusted to imagery"
      }
    },
    {
      "type": "Feature",
      "geometry": {
        "type": "Point",
        "coordinates": [
          -121.722655,
          45.648648
        ]
      },
      "properties": {
        "id": "digitized-camera-43",
        "name": "Mt Defiance",
        "operator": "ALERTWest",
        "status": "Operational",
        "pointSource": "usfs_communications_sites",
        "pointSourceName": "MT DEFIANCE",
        "mapSource": "Oregon Wildfire Detection Network Map - PDF",
        "digitizedBy": "Mason Weybright",
        "digitizedDate": "2026-09-23",
        "siteType": null,
        "altPointSource": null,
        "altPointSourceName": null,
        "cameraHeightFeet": null,
        "notes": "name mismatch"
      }
    },
    {
      "type": "Feature",
      "geometry": {
        "type": "Point",
        "coordinates": [
          -119.661503,
          44.873755
        ]
      },
      "properties": {
        "id": "digitized-camera-44",
        "name": "Tamarack",
        "operator": "EnviroVision Solutions",
        "status": "Planned",
        "pointSource": "ODF_sites_points",
        "pointSourceName": "Tamarack",
        "mapSource": "Oregon Wildfire Detection Network Map - PDF",
        "digitizedBy": "Mason Weybright",
        "digitizedDate": "2026-09-23",
        "siteType": "Tower",
        "altPointSource": "standing-lookouts",
        "altPointSourceName": "Tamarack Mountain",
        "cameraHeightFeet": null,
        "notes": null
      }
    },
    {
      "type": "Feature",
      "geometry": {
        "type": "Point",
        "coordinates": [
          -119.295986,
          45.212864
        ]
      },
      "properties": {
        "id": "digitized-camera-45",
        "name": "Black Mountain",
        "operator": "EnviroVision Solutions",
        "status": "Operational",
        "pointSource": "ODF_sites_points",
        "pointSourceName": "Black Mountain",
        "mapSource": "Oregon Wildfire Detection Network Map - PDF",
        "digitizedBy": "Mason Weybright",
        "digitizedDate": "2026-09-23",
        "siteType": null,
        "altPointSource": null,
        "altPointSourceName": null,
        "cameraHeightFeet": null,
        "notes": null
      }
    },
    {
      "type": "Feature",
      "geometry": {
        "type": "Point",
        "coordinates": [
          -119.071346,
          44.833584
        ]
      },
      "properties": {
        "id": "digitized-camera-46",
        "name": "Ritter Butte",
        "operator": "EnviroVision Solutions",
        "status": "Operational",
        "pointSource": "standing-lookouts",
        "pointSourceName": "Ritter Butte",
        "mapSource": "Oregon Wildfire Detection Network Map - PDF",
        "digitizedBy": "Mason Weybright",
        "digitizedDate": "2026-09-23",
        "siteType": "3 Story cab",
        "altPointSource": "ODF_sites_points",
        "altPointSourceName": "Ritter",
        "cameraHeightFeet": null,
        "notes": null
      }
    },
    {
      "type": "Feature",
      "geometry": {
        "type": "Point",
        "coordinates": [
          -118.320596,
          44.836874
        ]
      },
      "properties": {
        "id": "digitized-camera-47",
        "name": "Mt Ireland",
        "operator": "EnviroVision Solutions",
        "status": "Planned",
        "pointSource": "standing-lookouts",
        "pointSourceName": "Ireland, Mount",
        "mapSource": "Oregon Wildfire Detection Network Map - PDF",
        "digitizedBy": "Mason Weybright",
        "digitizedDate": "2026-09-23",
        "siteType": "Ground",
        "altPointSource": null,
        "altPointSourceName": null,
        "cameraHeightFeet": null,
        "notes": "name mismatch"
      }
    },
    {
      "type": "Feature",
      "geometry": {
        "type": "Point",
        "coordinates": [
          -118.075184,
          45.205054
        ]
      },
      "properties": {
        "id": "digitized-camera-48",
        "name": "Glass Hill",
        "operator": "EnviroVision Solutions",
        "status": "Planned",
        "pointSource": "standing-lookouts",
        "pointSourceName": "Glass Hill",
        "mapSource": "Oregon Wildfire Detection Network Map - PDF",
        "digitizedBy": "Mason Weybright",
        "digitizedDate": "2026-09-23",
        "siteType": "Tower",
        "altPointSource": "ODF_sites_points",
        "altPointSourceName": "Glass Hill",
        "cameraHeightFeet": null,
        "notes": "pt adjusted to imagery"
      }
    },
    {
      "type": "Feature",
      "geometry": {
        "type": "Point",
        "coordinates": [
          -117.893106,
          45.440414
        ]
      },
      "properties": {
        "id": "digitized-camera-49",
        "name": "Mt Harris",
        "operator": "EnviroVision Solutions",
        "status": "Operational",
        "pointSource": "standing-lookouts",
        "pointSourceName": "Harris, Mount",
        "mapSource": "Oregon Wildfire Detection Network Map - PDF",
        "digitizedBy": "Mason Weybright",
        "digitizedDate": "2026-09-23",
        "siteType": "Tower",
        "altPointSource": "ODF_sites_points",
        "altPointSourceName": "Mt. Harris",
        "cameraHeightFeet": null,
        "notes": "name mismatch"
      }
    },
    {
      "type": "Feature",
      "geometry": {
        "type": "Point",
        "coordinates": [
          -117.737086,
          45.723764
        ]
      },
      "properties": {
        "id": "digitized-camera-50",
        "name": "Howard Butte",
        "operator": "EnviroVision Solutions",
        "status": "Operational",
        "pointSource": "standing-lookouts",
        "pointSourceName": "Howard Butte",
        "mapSource": "Oregon Wildfire Detection Network Map - PDF",
        "digitizedBy": "Mason Weybright",
        "digitizedDate": "2026-09-23",
        "siteType": "Tower",
        "altPointSource": "ODF_sites_points",
        "altPointSourceName": "Howard Butte",
        "cameraHeightFeet": null,
        "notes": null
      }
    },
    {
      "type": "Feature",
      "geometry": {
        "type": "Point",
        "coordinates": [
          -117.403396,
          45.652754
        ]
      },
      "properties": {
        "id": "digitized-camera-51",
        "name": "Tope Creek",
        "operator": "EnviroVision Solutions",
        "status": "Planned",
        "pointSource": "standing-lookouts",
        "pointSourceName": "Tope Creek",
        "mapSource": "Oregon Wildfire Detection Network Map - PDF",
        "digitizedBy": "Mason Weybright",
        "digitizedDate": "2026-09-23",
        "siteType": "Tower",
        "altPointSource": null,
        "altPointSourceName": null,
        "cameraHeightFeet": null,
        "notes": null
      }
    },
    {
      "type": "Feature",
      "geometry": {
        "type": "Point",
        "coordinates": [
          -117.205203,
          45.597741
        ]
      },
      "properties": {
        "id": "digitized-camera-52",
        "name": "Elk Mountain NEO",
        "operator": "EnviroVision Solutions",
        "status": "Operational",
        "pointSource": "ODF_sites_points",
        "pointSourceName": "Elk Mountain NEO",
        "mapSource": "Oregon Wildfire Detection Network Map - PDF",
        "digitizedBy": "Mason Weybright",
        "digitizedDate": "2026-09-23",
        "siteType": "Ground",
        "altPointSource": "standing-lookouts",
        "altPointSourceName": "Elk Mountain",
        "cameraHeightFeet": null,
        "notes": "pt adjusted to imagery"
      }
    },
    {
      "type": "Feature",
      "geometry": {
        "type": "Point",
        "coordinates": [
          -117.088277,
          44.859994
        ]
      },
      "properties": {
        "id": "digitized-camera-53",
        "name": "Halfway",
        "operator": "ALERTWest",
        "status": "Operational",
        "pointSource": "standing-lookouts",
        "pointSourceName": "Halfway (Pine Range Station)",
        "mapSource": "Oregon Wildfire Detection Network Map - PDF",
        "digitizedBy": "Mason Weybright",
        "digitizedDate": "2026-09-23",
        "siteType": "Tower",
        "altPointSource": null,
        "altPointSourceName": null,
        "cameraHeightFeet": null,
        "notes": "name mismatch"
      }
    },
    {
      "type": "Feature",
      "geometry": {
        "type": "Point",
        "coordinates": [
          -121.668687,
          42.408434
        ]
      },
      "properties": {
        "id": "digitized-camera-54",
        "name": "Swan Lake Point",
        "operator": "ALERTWest",
        "status": "Planned",
        "pointSource": "usfs_communications_sites",
        "pointSourceName": "SWAN LAKE",
        "mapSource": "Oregon Wildfire Detection Network Map - PDF",
        "digitizedBy": "Mason Weybright",
        "digitizedDate": "2026-09-23",
        "siteType": null,
        "altPointSource": null,
        "altPointSourceName": null,
        "cameraHeightFeet": null,
        "notes": "name mismatch, pt adjusted to imagery"
      }
    },
    {
      "type": "Feature",
      "geometry": {
        "type": "Point",
        "coordinates": [
          -123.449986,
          42.304265
        ]
      },
      "properties": {
        "id": "digitized-camera-55",
        "name": "Manzanita",
        "operator": "EnviroVision Solutions",
        "status": "Operational",
        "pointSource": "ODF_sites_points",
        "pointSourceName": "Manzanita",
        "mapSource": "Oregon Wildfire Detection Network Map - PDF",
        "digitizedBy": "Mason Weybright",
        "digitizedDate": "2026-09-23",
        "siteType": null,
        "altPointSource": null,
        "altPointSourceName": null,
        "cameraHeightFeet": null,
        "notes": null
      }
    },
    {
      "type": "Feature",
      "geometry": {
        "type": "Point",
        "coordinates": [
          -123.151586,
          42.19635
        ]
      },
      "properties": {
        "id": "digitized-camera-56",
        "name": "Tallowbox",
        "operator": "EnviroVision Solutions",
        "status": "Operational",
        "pointSource": "ODF_sites_points",
        "pointSourceName": "Tallowbox",
        "mapSource": "Oregon Wildfire Detection Network Map - PDF",
        "digitizedBy": "Mason Weybright",
        "digitizedDate": "2026-09-23",
        "siteType": null,
        "altPointSource": null,
        "altPointSourceName": null,
        "cameraHeightFeet": null,
        "notes": "pt adjusted to imagery"
      }
    },
    {
      "type": "Feature",
      "geometry": {
        "type": "Point",
        "coordinates": [
          -122.024986,
          42.045953
        ]
      },
      "properties": {
        "id": "digitized-camera-57",
        "name": "Chicken Hills",
        "operator": "EnviroVision Solutions",
        "status": "Operational",
        "pointSource": "ODF_sites_points",
        "pointSourceName": "Chicken Hills",
        "mapSource": "Oregon Wildfire Detection Network Map - PDF",
        "digitizedBy": "Mason Weybright",
        "digitizedDate": "2026-09-23",
        "siteType": null,
        "altPointSource": null,
        "altPointSourceName": null,
        "cameraHeightFeet": null,
        "notes": "pt adjusted to imagery"
      }
    },
    {
      "type": "Feature",
      "geometry": {
        "type": "Point",
        "coordinates": [
          -123.10456,
          42.303197
        ]
      },
      "properties": {
        "id": "digitized-camera-58",
        "name": "Isabelle",
        "operator": "Joint Site",
        "status": "Operational",
        "pointSource": "ODF_sites_points",
        "pointSourceName": "Isabelle",
        "mapSource": "Oregon Wildfire Detection Network Map - PDF",
        "digitizedBy": "Mason Weybright",
        "digitizedDate": "2026-09-23",
        "siteType": null,
        "altPointSource": null,
        "altPointSourceName": null,
        "cameraHeightFeet": null,
        "notes": "pt adjusted to imagery"
      }
    },
    {
      "type": "Feature",
      "geometry": {
        "type": "Point",
        "coordinates": [
          -123.661489,
          42.258482
        ]
      },
      "properties": {
        "id": "digitized-camera-59",
        "name": "Eight Dollar Mountain",
        "operator": "Joint Site",
        "status": "Operational",
        "pointSource": "usfs_communications_sites",
        "pointSourceName": "EIGHT DOLLAR MOUNTAIN",
        "mapSource": "Oregon Wildfire Detection Network Map - PDF",
        "digitizedBy": "Mason Weybright",
        "digitizedDate": "2026-09-23",
        "siteType": null,
        "altPointSource": null,
        "altPointSourceName": null,
        "cameraHeightFeet": null,
        "notes": "name mismatch, pt adjusted to imagery"
      }
    },
    {
      "type": "Feature",
      "geometry": {
        "type": "Point",
        "coordinates": [
          -122.472986,
          42.410505
        ]
      },
      "properties": {
        "id": "digitized-camera-60",
        "name": "Bieberstedt Butte",
        "operator": "EnviroVision Solutions",
        "status": "Operational",
        "pointSource": "ODF_sites_points",
        "pointSourceName": "Bieberstedt Butte",
        "mapSource": "Oregon Wildfire Detection Network Map - PDF",
        "digitizedBy": "Mason Weybright",
        "digitizedDate": "2026-09-23",
        "siteType": null,
        "altPointSource": null,
        "altPointSourceName": null,
        "cameraHeightFeet": null,
        "notes": null
      }
    },
    {
      "type": "Feature",
      "geometry": {
        "type": "Point",
        "coordinates": [
          -122.608986,
          42.727885
        ]
      },
      "properties": {
        "id": "digitized-camera-61",
        "name": "Flounce",
        "operator": "EnviroVision Solutions",
        "status": "Operational",
        "pointSource": "ODF_sites_points",
        "pointSourceName": "Flounce Rock",
        "mapSource": "Oregon Wildfire Detection Network Map - PDF",
        "digitizedBy": "Mason Weybright",
        "digitizedDate": "2026-09-23",
        "siteType": null,
        "altPointSource": null,
        "altPointSourceName": null,
        "cameraHeightFeet": null,
        "notes": "name mismatch"
      }
    },
    {
      "type": "Feature",
      "geometry": {
        "type": "Point",
        "coordinates": [
          -123.122302,
          42.761729
        ]
      },
      "properties": {
        "id": "digitized-camera-62",
        "name": "Cedar Springs Mountain",
        "operator": "EnviroVision Solutions",
        "status": "Operational",
        "pointSource": "ODF_sites_points",
        "pointSourceName": "Cedar Springs Mountain",
        "mapSource": "Oregon Wildfire Detection Network Map - PDF",
        "digitizedBy": "Mason Weybright",
        "digitizedDate": "2026-09-23",
        "siteType": null,
        "altPointSource": null,
        "altPointSourceName": null,
        "cameraHeightFeet": null,
        "notes": "pt adjusted to imagery"
      }
    },
    {
      "type": "Feature",
      "geometry": {
        "type": "Point",
        "coordinates": [
          -123.641986,
          42.601755
        ]
      },
      "properties": {
        "id": "digitized-camera-63",
        "name": "Peavine",
        "operator": "EnviroVision Solutions",
        "status": "Operational",
        "pointSource": "ODF_sites_points",
        "pointSourceName": "Peavine",
        "mapSource": "Oregon Wildfire Detection Network Map - PDF",
        "digitizedBy": "Mason Weybright",
        "digitizedDate": "2026-09-23",
        "siteType": null,
        "altPointSource": null,
        "altPointSourceName": null,
        "cameraHeightFeet": null,
        "notes": null
      }
    },
    {
      "type": "Feature",
      "geometry": {
        "type": "Point",
        "coordinates": [
          -123.596986,
          42.718695
        ]
      },
      "properties": {
        "id": "digitized-camera-64",
        "name": "Reuben",
        "operator": "EnviroVision Solutions",
        "status": "Operational",
        "pointSource": "ODF_sites_points",
        "pointSourceName": "Reuben",
        "mapSource": "Oregon Wildfire Detection Network Map - PDF",
        "digitizedBy": "Mason Weybright",
        "digitizedDate": "2026-09-23",
        "siteType": null,
        "altPointSource": null,
        "altPointSourceName": null,
        "cameraHeightFeet": null,
        "notes": null
      }
    },
    {
      "type": "Feature",
      "geometry": {
        "type": "Point",
        "coordinates": [
          -124.052353,
          42.935925
        ]
      },
      "properties": {
        "id": "digitized-camera-65",
        "name": "Hood Mountain",
        "operator": "EnviroVision Solutions",
        "status": "Operational",
        "pointSource": "ODF_sites_points",
        "pointSourceName": "Hood Mountain",
        "mapSource": "Oregon Wildfire Detection Network Map - PDF",
        "digitizedBy": "Mason Weybright",
        "digitizedDate": "2026-09-23",
        "siteType": null,
        "altPointSource": null,
        "altPointSourceName": null,
        "cameraHeightFeet": null,
        "notes": "pt adjusted to imagery"
      }
    },
    {
      "type": "Feature",
      "geometry": {
        "type": "Point",
        "coordinates": [
          -123.778494,
          43.00172
        ]
      },
      "properties": {
        "id": "digitized-camera-66",
        "name": "Signal Tree",
        "operator": "EnviroVision Solutions",
        "status": "Operational",
        "pointSource": "ODF_sites_points",
        "pointSourceName": "Signal Tree",
        "mapSource": "Oregon Wildfire Detection Network Map - PDF",
        "digitizedBy": "Mason Weybright",
        "digitizedDate": "2026-09-23",
        "siteType": null,
        "altPointSource": null,
        "altPointSourceName": null,
        "cameraHeightFeet": null,
        "notes": "pt adjusted to imagery"
      }
    },
    {
      "type": "Feature",
      "geometry": {
        "type": "Point",
        "coordinates": [
          -123.660271,
          42.866651
        ]
      },
      "properties": {
        "id": "digitized-camera-67",
        "name": "Dutchman Butte",
        "operator": "EnviroVision Solutions",
        "status": "Operational",
        "pointSource": "ODF_sites_points",
        "pointSourceName": "Dutchman Butte",
        "mapSource": "Oregon Wildfire Detection Network Map - PDF",
        "digitizedBy": "Mason Weybright",
        "digitizedDate": "2026-09-23",
        "siteType": null,
        "altPointSource": null,
        "altPointSourceName": null,
        "cameraHeightFeet": null,
        "notes": "pt adjusted to imagery"
      }
    },
    {
      "type": "Feature",
      "geometry": {
        "type": "Point",
        "coordinates": [
          -123.378393,
          42.859012
        ]
      },
      "properties": {
        "id": "digitized-camera-68",
        "name": "Silver Butte",
        "operator": "EnviroVision Solutions",
        "status": "Operational",
        "pointSource": "ODF_sites_points",
        "pointSourceName": "Silver Butte",
        "mapSource": "Oregon Wildfire Detection Network Map - PDF",
        "digitizedBy": "Mason Weybright",
        "digitizedDate": "2026-09-23",
        "siteType": null,
        "altPointSource": null,
        "altPointSourceName": null,
        "cameraHeightFeet": null,
        "notes": "pt adjusted to imagery"
      }
    },
    {
      "type": "Feature",
      "geometry": {
        "type": "Point",
        "coordinates": [
          -123.285986,
          42.902195
        ]
      },
      "properties": {
        "id": "digitized-camera-69",
        "name": "Canyon Mountain",
        "operator": "EnviroVision Solutions",
        "status": "Operational",
        "pointSource": "ODF_sites_points",
        "pointSourceName": "Canyon Mountain",
        "mapSource": "Oregon Wildfire Detection Network Map - PDF",
        "digitizedBy": "Mason Weybright",
        "digitizedDate": "2026-09-23",
        "siteType": null,
        "altPointSource": null,
        "altPointSourceName": null,
        "cameraHeightFeet": null,
        "notes": null
      }
    },
    {
      "type": "Feature",
      "geometry": {
        "type": "Point",
        "coordinates": [
          -124.305428,
          43.210119
        ]
      },
      "properties": {
        "id": "digitized-camera-70",
        "name": "Beaver Hill",
        "operator": "EnviroVision Solutions",
        "status": "Operational",
        "pointSource": "ODF_sites_points",
        "pointSourceName": "Beaver Hill",
        "mapSource": "Oregon Wildfire Detection Network Map - PDF",
        "digitizedBy": "Mason Weybright",
        "digitizedDate": "2026-09-23",
        "siteType": null,
        "altPointSource": null,
        "altPointSourceName": null,
        "cameraHeightFeet": null,
        "notes": "pt adjusted to imagery"
      }
    },
    {
      "type": "Feature",
      "geometry": {
        "type": "Point",
        "coordinates": [
          -123.417501,
          43.187559
        ]
      },
      "properties": {
        "id": "digitized-camera-71",
        "name": "Marsters Ridge",
        "operator": "EnviroVision Solutions",
        "status": "Operational",
        "pointSource": "ODF_sites_points",
        "pointSourceName": "Marsters Ridge",
        "mapSource": "Oregon Wildfire Detection Network Map - PDF",
        "digitizedBy": "Mason Weybright",
        "digitizedDate": "2026-09-23",
        "siteType": null,
        "altPointSource": null,
        "altPointSourceName": null,
        "cameraHeightFeet": null,
        "notes": "pt adjusted to imagery"
      }
    },
    {
      "type": "Feature",
      "geometry": {
        "type": "Point",
        "coordinates": [
          -124.175347,
          43.533856
        ]
      },
      "properties": {
        "id": "digitized-camera-72",
        "name": "Shutters Landing",
        "operator": "EnviroVision Solutions",
        "status": "Operational",
        "pointSource": "ODF_sites_points",
        "pointSourceName": "Shutter Landing",
        "mapSource": "Oregon Wildfire Detection Network Map - PDF",
        "digitizedBy": "Mason Weybright",
        "digitizedDate": "2026-09-23",
        "siteType": null,
        "altPointSource": null,
        "altPointSourceName": null,
        "cameraHeightFeet": null,
        "notes": "name mismatch"
      }
    },
    {
      "type": "Feature",
      "geometry": {
        "type": "Point",
        "coordinates": [
          -123.97978,
          43.614528
        ]
      },
      "properties": {
        "id": "digitized-camera-73",
        "name": "Dean Mountain",
        "operator": "EnviroVision Solutions",
        "status": "Operational",
        "pointSource": "ODF_sites_points",
        "pointSourceName": "Dean Mountain",
        "mapSource": "Oregon Wildfire Detection Network Map - PDF",
        "digitizedBy": "Mason Weybright",
        "digitizedDate": "2026-09-23",
        "siteType": null,
        "altPointSource": null,
        "altPointSourceName": null,
        "cameraHeightFeet": null,
        "notes": "pt adjusted to imagery"
      }
    },
    {
      "type": "Feature",
      "geometry": {
        "type": "Point",
        "coordinates": [
          -123.853116,
          43.403952
        ]
      },
      "properties": {
        "id": "digitized-camera-74",
        "name": "Ivers Peak",
        "operator": "EnviroVision Solutions",
        "status": "Operational",
        "pointSource": "ODF_sites_points",
        "pointSourceName": "Ivers Peak",
        "mapSource": "Oregon Wildfire Detection Network Map - PDF",
        "digitizedBy": "Mason Weybright",
        "digitizedDate": "2026-09-23",
        "siteType": null,
        "altPointSource": null,
        "altPointSourceName": null,
        "cameraHeightFeet": null,
        "notes": "pt adjusted to imagery"
      }
    },
    {
      "type": "Feature",
      "geometry": {
        "type": "Point",
        "coordinates": [
          -123.669408,
          43.510516
        ]
      },
      "properties": {
        "id": "digitized-camera-75",
        "name": "Old Blue",
        "operator": "EnviroVision Solutions",
        "status": "Operational",
        "pointSource": "ODF_sites_points",
        "pointSourceName": "Old Blue",
        "mapSource": "Oregon Wildfire Detection Network Map - PDF",
        "digitizedBy": "Mason Weybright",
        "digitizedDate": "2026-09-23",
        "siteType": null,
        "altPointSource": null,
        "altPointSourceName": null,
        "cameraHeightFeet": null,
        "notes": "pt adjusted to imagery"
      }
    },
    {
      "type": "Feature",
      "geometry": {
        "type": "Point",
        "coordinates": [
          -123.40357,
          43.546523
        ]
      },
      "properties": {
        "id": "digitized-camera-76",
        "name": "Yellow Butte",
        "operator": "EnviroVision Solutions",
        "status": "Operational",
        "pointSource": "ODF_sites_points",
        "pointSourceName": "Yellow Butte",
        "mapSource": "Oregon Wildfire Detection Network Map - PDF",
        "digitizedBy": "Mason Weybright",
        "digitizedDate": "2026-09-23",
        "siteType": null,
        "altPointSource": null,
        "altPointSourceName": null,
        "cameraHeightFeet": null,
        "notes": "pt adjusted to imagery"
      }
    },
    {
      "type": "Feature",
      "geometry": {
        "type": "Point",
        "coordinates": [
          -123.064403,
          43.371797
        ]
      },
      "properties": {
        "id": "digitized-camera-77",
        "name": "Mt Scott",
        "operator": "EnviroVision Solutions",
        "status": "Operational",
        "pointSource": "ODF_sites_points",
        "pointSourceName": "Mt. Scott",
        "mapSource": "Oregon Wildfire Detection Network Map - PDF",
        "digitizedBy": "Mason Weybright",
        "digitizedDate": "2026-09-23",
        "siteType": null,
        "altPointSource": null,
        "altPointSourceName": null,
        "cameraHeightFeet": null,
        "notes": "name mismatch, pt adjusted to imagery"
      }
    },
    {
      "type": "Feature",
      "geometry": {
        "type": "Point",
        "coordinates": [
          -122.731294,
          43.432306
        ]
      },
      "properties": {
        "id": "digitized-camera-78",
        "name": "Chilcoot",
        "operator": "EnviroVision Solutions",
        "status": "Operational",
        "pointSource": "ODF_sites_points",
        "pointSourceName": "Chilcoot",
        "mapSource": "Oregon Wildfire Detection Network Map - PDF",
        "digitizedBy": "Mason Weybright",
        "digitizedDate": "2026-09-23",
        "siteType": null,
        "altPointSource": null,
        "altPointSourceName": null,
        "cameraHeightFeet": null,
        "notes": "pt adjusted to imagery"
      }
    },
    {
      "type": "Feature",
      "geometry": {
        "type": "Point",
        "coordinates": [
          -122.842707,
          43.628028
        ]
      },
      "properties": {
        "id": "digitized-camera-79",
        "name": "Table Mountain",
        "operator": "EnviroVision Solutions",
        "status": "Operational",
        "pointSource": "ODF_sites_points",
        "pointSourceName": "Table Mountain",
        "mapSource": "Oregon Wildfire Detection Network Map - PDF",
        "digitizedBy": "Mason Weybright",
        "digitizedDate": "2026-09-23",
        "siteType": null,
        "altPointSource": null,
        "altPointSourceName": null,
        "cameraHeightFeet": null,
        "notes": "pt adjusted to imagery"
      }
    },
    {
      "type": "Feature",
      "geometry": {
        "type": "Point",
        "coordinates": [
          -123.738545,
          43.912279
        ]
      },
      "properties": {
        "id": "digitized-camera-80",
        "name": "Roman Nose",
        "operator": "EnviroVision Solutions",
        "status": "Operational",
        "pointSource": "ODF_sites_points",
        "pointSourceName": "Roman Nose",
        "mapSource": "Oregon Wildfire Detection Network Map - PDF",
        "digitizedBy": "Mason Weybright",
        "digitizedDate": "2026-09-23",
        "siteType": null,
        "altPointSource": null,
        "altPointSourceName": null,
        "cameraHeightFeet": null,
        "notes": "pt adjusted to imagery"
      }
    },
    {
      "type": "Feature",
      "geometry": {
        "type": "Point",
        "coordinates": [
          -123.628986,
          44.066545
        ]
      },
      "properties": {
        "id": "digitized-camera-81",
        "name": "Walker Point",
        "operator": "EnviroVision Solutions",
        "status": "Operational",
        "pointSource": "ODF_sites_points",
        "pointSourceName": "Walker Point",
        "mapSource": "Oregon Wildfire Detection Network Map - PDF",
        "digitizedBy": "Mason Weybright",
        "digitizedDate": "2026-09-23",
        "siteType": null,
        "altPointSource": null,
        "altPointSourceName": null,
        "cameraHeightFeet": null,
        "notes": null
      }
    },
    {
      "type": "Feature",
      "geometry": {
        "type": "Point",
        "coordinates": [
          -122.715185,
          44.153031
        ]
      },
      "properties": {
        "id": "digitized-camera-82",
        "name": "Mt Nebo",
        "operator": "EnviroVision Solutions",
        "status": "Operational",
        "pointSource": "ODF_sites_points",
        "pointSourceName": "Mt. Nebo",
        "mapSource": "Oregon Wildfire Detection Network Map - PDF",
        "digitizedBy": "Mason Weybright",
        "digitizedDate": "2026-09-23",
        "siteType": null,
        "altPointSource": null,
        "altPointSourceName": null,
        "cameraHeightFeet": null,
        "notes": "name mismatch, pt adjusted to imagery"
      }
    },
    {
      "type": "Feature",
      "geometry": {
        "type": "Point",
        "coordinates": [
          -122.863657,
          44.3988
        ]
      },
      "properties": {
        "id": "digitized-camera-83",
        "name": "Scott Mountain",
        "operator": "EnviroVision Solutions",
        "status": "Planned",
        "pointSource": "ODF_sites_points",
        "pointSourceName": "Mt. Scott (Linn County)",
        "mapSource": "Oregon Wildfire Detection Network Map - PDF",
        "digitizedBy": "Mason Weybright",
        "digitizedDate": "2026-09-23",
        "siteType": null,
        "altPointSource": null,
        "altPointSourceName": null,
        "cameraHeightFeet": null,
        "notes": "name mismatch, pt adjusted to imagery"
      }
    },
    {
      "type": "Feature",
      "geometry": {
        "type": "Point",
        "coordinates": [
          -121.39161,
          44.537863
        ]
      },
      "properties": {
        "id": "digitized-camera-84",
        "name": "Geneva",
        "operator": "EnviroVision Solutions",
        "status": "Operational",
        "pointSource": "ODF_sites_points",
        "pointSourceName": "Geneva",
        "mapSource": "Oregon Wildfire Detection Network Map - PDF",
        "digitizedBy": "Mason Weybright",
        "digitizedDate": "2026-09-23",
        "siteType": null,
        "altPointSource": null,
        "altPointSourceName": null,
        "cameraHeightFeet": null,
        "notes": "pt adjusted to imagery"
      }
    },
    {
      "type": "Feature",
      "geometry": {
        "type": "Point",
        "coordinates": [
          -121.668026,
          43.462753
        ]
      },
      "properties": {
        "id": "digitized-camera-85",
        "name": "Crescent Butte",
        "operator": "EnviroVision Solutions",
        "status": "Operational",
        "pointSource": "ODF_sites_points",
        "pointSourceName": "Crescent Butte",
        "mapSource": "Oregon Wildfire Detection Network Map - PDF",
        "digitizedBy": "Mason Weybright",
        "digitizedDate": "2026-09-23",
        "siteType": null,
        "altPointSource": null,
        "altPointSourceName": null,
        "cameraHeightFeet": null,
        "notes": "pt adjusted to imagery"
      }
    },
    {
      "type": "Feature",
      "geometry": {
        "type": "Point",
        "coordinates": [
          -121.350767,
          42.785259
        ]
      },
      "properties": {
        "id": "digitized-camera-86",
        "name": "Hamelton",
        "operator": "EnviroVision Solutions",
        "status": "Operational",
        "pointSource": "ODF_sites_points",
        "pointSourceName": "Hamelton",
        "mapSource": "Oregon Wildfire Detection Network Map - PDF",
        "digitizedBy": "Mason Weybright",
        "digitizedDate": "2026-09-23",
        "siteType": null,
        "altPointSource": null,
        "altPointSourceName": null,
        "cameraHeightFeet": null,
        "notes": "pt adjusted to imagery"
      }
    },
    {
      "type": "Feature",
      "geometry": {
        "type": "Point",
        "coordinates": [
          -121.597205,
          45.579332
        ]
      },
      "properties": {
        "id": "digitized-camera-87",
        "name": "Middle Mountain",
        "operator": "EnviroVision Solutions",
        "status": "Operational",
        "pointSource": "ODF_sites_points",
        "pointSourceName": "Middle Mountain",
        "mapSource": "Oregon Wildfire Detection Network Map - PDF",
        "digitizedBy": "Mason Weybright",
        "digitizedDate": "2026-09-23",
        "siteType": null,
        "altPointSource": null,
        "altPointSourceName": null,
        "cameraHeightFeet": null,
        "notes": "pt adjusted to imagery"
      }
    },
    {
      "type": "Feature",
      "geometry": {
        "type": "Point",
        "coordinates": [
          -121.334986,
          45.616704
        ]
      },
      "properties": {
        "id": "digitized-camera-88",
        "name": "Wasco Butte",
        "operator": "EnviroVision Solutions",
        "status": "Operational",
        "pointSource": "ODF_sites_points",
        "pointSourceName": "Wasco Butte",
        "mapSource": "Oregon Wildfire Detection Network Map - PDF",
        "digitizedBy": "Mason Weybright",
        "digitizedDate": "2026-09-23",
        "siteType": null,
        "altPointSource": null,
        "altPointSourceName": null,
        "cameraHeightFeet": null,
        "notes": null
      }
    },
    {
      "type": "Feature",
      "geometry": {
        "type": "Point",
        "coordinates": [
          -119.425986,
          44.861984
        ]
      },
      "properties": {
        "id": "digitized-camera-89",
        "name": "Monument Mountain",
        "operator": "EnviroVision Solutions",
        "status": "Operational",
        "pointSource": "ODF_sites_points",
        "pointSourceName": "Monument Mountain",
        "mapSource": "Oregon Wildfire Detection Network Map - PDF",
        "digitizedBy": "Mason Weybright",
        "digitizedDate": "2026-09-23",
        "siteType": null,
        "altPointSource": null,
        "altPointSourceName": null,
        "cameraHeightFeet": null,
        "notes": null
      }
    },
    {
      "type": "Feature",
      "geometry": {
        "type": "Point",
        "coordinates": [
          -118.948755,
          45.281554
        ]
      },
      "properties": {
        "id": "digitized-camera-90",
        "name": "Carney Butte",
        "operator": "EnviroVision Solutions",
        "status": "Operational",
        "pointSource": "ODF_sites_points",
        "pointSourceName": "Carney Butte",
        "mapSource": "Oregon Wildfire Detection Network Map - PDF",
        "digitizedBy": "Mason Weybright",
        "digitizedDate": "2026-09-23",
        "siteType": null,
        "altPointSource": null,
        "altPointSourceName": null,
        "cameraHeightFeet": null,
        "notes": null
      }
    },
    {
      "type": "Feature",
      "geometry": {
        "type": "Point",
        "coordinates": [
          -118.421986,
          45.445284
        ]
      },
      "properties": {
        "id": "digitized-camera-91",
        "name": "Tiptop",
        "operator": "EnviroVision Solutions",
        "status": "Operational",
        "pointSource": "ODF_sites_points",
        "pointSourceName": "Tip Top",
        "mapSource": "Oregon Wildfire Detection Network Map - PDF",
        "digitizedBy": "Mason Weybright",
        "digitizedDate": "2026-09-23",
        "siteType": null,
        "altPointSource": null,
        "altPointSourceName": null,
        "cameraHeightFeet": null,
        "notes": "name mismatch"
      }
    },
    {
      "type": "Feature",
      "geometry": {
        "type": "Point",
        "coordinates": [
          -118.375858,
          45.800076
        ]
      },
      "properties": {
        "id": "digitized-camera-92",
        "name": "Weston High",
        "operator": "EnviroVision Solutions",
        "status": "Operational",
        "pointSource": "ODF_sites_points",
        "pointSourceName": "Weston",
        "mapSource": "Oregon Wildfire Detection Network Map - PDF",
        "digitizedBy": "Mason Weybright",
        "digitizedDate": "2026-09-23",
        "siteType": null,
        "altPointSource": null,
        "altPointSourceName": null,
        "cameraHeightFeet": null,
        "notes": "name mismatch"
      }
    },
    {
      "type": "Feature",
      "geometry": {
        "type": "Point",
        "coordinates": [
          -123.20319,
          42.713816
        ]
      },
      "properties": {
        "id": "digitized-camera-93",
        "name": "King Mountain",
        "operator": "EnviroVision Solutions",
        "status": "Operational",
        "pointSource": "ODF_sites_points",
        "pointSourceName": "King Mountain",
        "mapSource": "Oregon Wildfire Detection Network Map - PDF",
        "digitizedBy": "Mason Weybright",
        "digitizedDate": "2026-09-23",
        "siteType": null,
        "altPointSource": null,
        "altPointSourceName": null,
        "cameraHeightFeet": null,
        "notes": "pt adjusted to imagery, ref point offset to west by about 1.35 miles from location of actual tower in imagery"
      }
    },
    {
      "type": "Feature",
      "geometry": {
        "type": "Point",
        "coordinates": [
          -117.893657,
          44.574127
        ]
      },
      "properties": {
        "id": "digitized-camera-94",
        "name": "Bald Mountain",
        "operator": "EnviroVision Solutions",
        "status": "Operational",
        "pointSource": "ODF_sites_points",
        "pointSourceName": "Bald Mountain",
        "mapSource": "Oregon Wildfire Detection Network Map - PDF",
        "digitizedBy": "Mason Weybright",
        "digitizedDate": "2026-09-23",
        "siteType": null,
        "altPointSource": null,
        "altPointSourceName": null,
        "cameraHeightFeet": null,
        "notes": "pt adjusted to imagery"
      }
    },
    {
      "type": "Feature",
      "geometry": {
        "type": "Point",
        "coordinates": [
          -123.362626,
          45.67713
        ]
      },
      "properties": {
        "id": "digitized-camera-95",
        "name": "Round Top",
        "operator": "Joint Site",
        "status": "Operational",
        "pointSource": "PGE_WF_Cameras",
        "pointSourceName": "Portland Round Top",
        "mapSource": "Oregon Wildfire Detection Network Map - PDF",
        "digitizedBy": "Mason Weybright",
        "digitizedDate": "2026-09-23",
        "siteType": null,
        "altPointSource": null,
        "altPointSourceName": null,
        "cameraHeightFeet": 120,
        "notes": "name mismatch, height pulled from \"Description\" column of PGE-towers_reduced.csv sheet"
      }
    },
    {
      "type": "Feature",
      "geometry": {
        "type": "Point",
        "coordinates": [
          -123.04024,
          45.690399
        ]
      },
      "properties": {
        "id": "digitized-camera-96",
        "name": "Pumpkin Ridge",
        "operator": "Pano AI",
        "status": "Operational",
        "pointSource": "PGE_WF_Cameras",
        "pointSourceName": "Pumpkin Ridge",
        "mapSource": "Oregon Wildfire Detection Network Map - PDF",
        "digitizedBy": "Mason Weybright",
        "digitizedDate": "2026-09-23",
        "siteType": null,
        "altPointSource": null,
        "altPointSourceName": null,
        "cameraHeightFeet": 150,
        "notes": "height pulled from \"Description\" column of PGE-towers_reduced.csv sheet"
      }
    },
    {
      "type": "Feature",
      "geometry": {
        "type": "Point",
        "coordinates": [
          -123.098365,
          45.645451
        ]
      },
      "properties": {
        "id": "digitized-camera-97",
        "name": "Lodge Road",
        "operator": "Pano AI",
        "status": "Operational",
        "pointSource": "PGE_WF_Cameras",
        "pointSourceName": "Lodge Road",
        "mapSource": "Oregon Wildfire Detection Network Map - PDF",
        "digitizedBy": "Mason Weybright",
        "digitizedDate": "2026-09-23",
        "siteType": null,
        "altPointSource": null,
        "altPointSourceName": null,
        "cameraHeightFeet": 200,
        "notes": "height pulled from \"Description\" column of PGE-towers_reduced.csv sheet"
      }
    },
    {
      "type": "Feature",
      "geometry": {
        "type": "Point",
        "coordinates": [
          -123.217564,
          45.642175
        ]
      },
      "properties": {
        "id": "digitized-camera-98",
        "name": "Hayward",
        "operator": "Pano AI",
        "status": "Operational",
        "pointSource": "PGE_WF_Cameras",
        "pointSourceName": "Hayward",
        "mapSource": "Oregon Wildfire Detection Network Map - PDF",
        "digitizedBy": "Mason Weybright",
        "digitizedDate": "2026-09-23",
        "siteType": null,
        "altPointSource": null,
        "altPointSourceName": null,
        "cameraHeightFeet": 180,
        "notes": "height pulled from \"Description\" column of PGE-towers_reduced.csv sheet"
      }
    },
    {
      "type": "Feature",
      "geometry": {
        "type": "Point",
        "coordinates": [
          -122.795765,
          45.580533
        ]
      },
      "properties": {
        "id": "digitized-camera-99",
        "name": "Portland Willalatin Tank",
        "operator": "Pano AI",
        "status": "Operational",
        "pointSource": "PGE_WF_Cameras",
        "pointSourceName": "Portland Willalatin Tank",
        "mapSource": "Oregon Wildfire Detection Network Map - PDF",
        "digitizedBy": "Mason Weybright",
        "digitizedDate": "2026-09-23",
        "siteType": null,
        "altPointSource": null,
        "altPointSourceName": null,
        "cameraHeightFeet": null,
        "notes": "no entry for this site in PGE_towers_reduced, camera may be on actual water tank"
      }
    },
    {
      "type": "Feature",
      "geometry": {
        "type": "Point",
        "coordinates": [
          -123.168756,
          45.484599
        ]
      },
      "properties": {
        "id": "digitized-camera-100",
        "name": "High Compromise",
        "operator": "Pano AI",
        "status": "Operational",
        "pointSource": "PGE_WF_Cameras",
        "pointSourceName": "High Compromise",
        "mapSource": "Oregon Wildfire Detection Network Map - PDF",
        "digitizedBy": "Mason Weybright",
        "digitizedDate": "2026-09-23",
        "siteType": null,
        "altPointSource": null,
        "altPointSourceName": null,
        "cameraHeightFeet": 180,
        "notes": "height pulled from \"Description\" column of PGE-towers_reduced.csv sheet"
      }
    },
    {
      "type": "Feature",
      "geometry": {
        "type": "Point",
        "coordinates": [
          -122.954985,
          45.782595
        ]
      },
      "properties": {
        "id": "digitized-camera-101",
        "name": "Bald Hill",
        "operator": "Pano AI",
        "status": "Operational",
        "pointSource": "PGE_WF_Cameras",
        "pointSourceName": "Bald Hill",
        "mapSource": "Oregon Wildfire Detection Network Map - PDF",
        "digitizedBy": "Mason Weybright",
        "digitizedDate": "2026-09-23",
        "siteType": null,
        "altPointSource": null,
        "altPointSourceName": null,
        "cameraHeightFeet": null,
        "notes": "no entry for this site in PGE_towers_reduced"
      }
    },
    {
      "type": "Feature",
      "geometry": {
        "type": "Point",
        "coordinates": [
          -123.050719,
          45.389153
        ]
      },
      "properties": {
        "id": "digitized-camera-102",
        "name": "Bald Peak",
        "operator": "Pano AI",
        "status": "Operational",
        "pointSource": "PGE_WF_Cameras",
        "pointSourceName": "Bald Peak",
        "mapSource": "Oregon Wildfire Detection Network Map - PDF",
        "digitizedBy": "Mason Weybright",
        "digitizedDate": "2026-09-23",
        "siteType": null,
        "altPointSource": null,
        "altPointSourceName": null,
        "cameraHeightFeet": 120,
        "notes": "height pulled from \"Description\" column of PGE-towers_reduced.csv sheet"
      }
    },
    {
      "type": "Feature",
      "geometry": {
        "type": "Point",
        "coordinates": [
          -123.309726,
          45.2644
        ]
      },
      "properties": {
        "id": "digitized-camera-103",
        "name": "High Heaven",
        "operator": "Pano AI",
        "status": "Operational",
        "pointSource": "PGE_WF_Cameras",
        "pointSourceName": "High Heaven",
        "mapSource": "Oregon Wildfire Detection Network Map - PDF",
        "digitizedBy": "Mason Weybright",
        "digitizedDate": "2026-09-23",
        "siteType": null,
        "altPointSource": null,
        "altPointSourceName": null,
        "cameraHeightFeet": null,
        "notes": "no entry for this site in PGE-towers_reduced"
      }
    },
    {
      "type": "Feature",
      "geometry": {
        "type": "Point",
        "coordinates": [
          -123.584376,
          45.065384
        ]
      },
      "properties": {
        "id": "digitized-camera-104",
        "name": "Spirit Mountain",
        "operator": "Pano AI",
        "status": "Operational",
        "pointSource": "PGE_WF_Cameras",
        "pointSourceName": "Spirit Mountain",
        "mapSource": "Oregon Wildfire Detection Network Map - PDF",
        "digitizedBy": "Mason Weybright",
        "digitizedDate": "2026-09-23",
        "siteType": null,
        "altPointSource": null,
        "altPointSourceName": null,
        "cameraHeightFeet": null,
        "notes": "no entry for this site in PGE-towers_reduced"
      }
    },
    {
      "type": "Feature",
      "geometry": {
        "type": "Point",
        "coordinates": [
          -123.511625,
          45.023444
        ]
      },
      "properties": {
        "id": "digitized-camera-105",
        "name": "Doane Creek",
        "operator": "Pano AI",
        "status": "Operational",
        "pointSource": "PGE_WF_Cameras",
        "pointSourceName": "Doane Creek",
        "mapSource": "Oregon Wildfire Detection Network Map - PDF",
        "digitizedBy": "Mason Weybright",
        "digitizedDate": "2026-09-23",
        "siteType": null,
        "altPointSource": null,
        "altPointSourceName": null,
        "cameraHeightFeet": null,
        "notes": "no entry for this site in PGE-towers_reduced"
      }
    },
    {
      "type": "Feature",
      "geometry": {
        "type": "Point",
        "coordinates": [
          -123.143081,
          44.984543
        ]
      },
      "properties": {
        "id": "digitized-camera-106",
        "name": "West Salem",
        "operator": "Pano AI",
        "status": "Operational",
        "pointSource": "PGE_WF_Cameras",
        "pointSourceName": "West Salem",
        "mapSource": "Oregon Wildfire Detection Network Map - PDF",
        "digitizedBy": "Mason Weybright",
        "digitizedDate": "2026-09-23",
        "siteType": null,
        "altPointSource": null,
        "altPointSourceName": null,
        "cameraHeightFeet": null,
        "notes": "West Salem tower in PGE-towers_reduced appears to be different tower than West Salem tower in PGE_WF_Cameras"
      }
    },
    {
      "type": "Feature",
      "geometry": {
        "type": "Point",
        "coordinates": [
          -123.145791,
          45.098973
        ]
      },
      "properties": {
        "id": "digitized-camera-107",
        "name": "Eola Hills",
        "operator": "Pano AI",
        "status": "Operational",
        "pointSource": "PGE_WF_Cameras",
        "pointSourceName": "Eola Hills",
        "mapSource": "Oregon Wildfire Detection Network Map - PDF",
        "digitizedBy": "Mason Weybright",
        "digitizedDate": "2026-09-23",
        "siteType": null,
        "altPointSource": null,
        "altPointSourceName": null,
        "cameraHeightFeet": 120,
        "notes": "height pulled from \"Description\" column of PGE-towers_reduced.csv sheet"
      }
    },
    {
      "type": "Feature",
      "geometry": {
        "type": "Point",
        "coordinates": [
          -122.893069,
          45.306439
        ]
      },
      "properties": {
        "id": "digitized-camera-108",
        "name": "Parrott Mountain",
        "operator": "Pano AI",
        "status": "Operational",
        "pointSource": "PGE_WF_Cameras",
        "pointSourceName": "Parrett Mountain",
        "mapSource": "Oregon Wildfire Detection Network Map - PDF",
        "digitizedBy": "Mason Weybright",
        "digitizedDate": "2026-09-23",
        "siteType": null,
        "altPointSource": null,
        "altPointSourceName": null,
        "cameraHeightFeet": 150,
        "notes": "name mismatch, height pulled from \"Description\" column of PGE-towers_reduced.csv"
      }
    },
    {
      "type": "Feature",
      "geometry": {
        "type": "Point",
        "coordinates": [
          -122.693679,
          45.34419
        ]
      },
      "properties": {
        "id": "digitized-camera-109",
        "name": "Pete's Mountain",
        "operator": "Pano AI",
        "status": "Operational",
        "pointSource": "PGE_WF_Cameras",
        "pointSourceName": "Pete's Mountain",
        "mapSource": "Oregon Wildfire Detection Network Map - PDF",
        "digitizedBy": "Mason Weybright",
        "digitizedDate": "2026-09-23",
        "siteType": null,
        "altPointSource": null,
        "altPointSourceName": null,
        "cameraHeightFeet": 150,
        "notes": "height pulled from \"Description\" column of PGE-towers_reduced.csv sheet"
      }
    },
    {
      "type": "Feature",
      "geometry": {
        "type": "Point",
        "coordinates": [
          -122.766485,
          45.002967
        ]
      },
      "properties": {
        "id": "digitized-camera-110",
        "name": "Silverton",
        "operator": "Pano AI",
        "status": "Operational",
        "pointSource": "PGE_WF_Cameras",
        "pointSourceName": "Silverton",
        "mapSource": "Oregon Wildfire Detection Network Map - PDF",
        "digitizedBy": "Mason Weybright",
        "digitizedDate": "2026-09-23",
        "siteType": null,
        "altPointSource": null,
        "altPointSourceName": null,
        "cameraHeightFeet": 160,
        "notes": "height pulled from \"Description\" column of PGE-towers_reduced.csv sheet"
      }
    },
    {
      "type": "Feature",
      "geometry": {
        "type": "Point",
        "coordinates": [
          -122.555232,
          45.074828
        ]
      },
      "properties": {
        "id": "digitized-camera-111",
        "name": "Sawtell",
        "operator": "Pano AI",
        "status": "Operational",
        "pointSource": "PGE_WF_Cameras",
        "pointSourceName": "Sawtell",
        "mapSource": "Oregon Wildfire Detection Network Map - PDF",
        "digitizedBy": "Mason Weybright",
        "digitizedDate": "2026-09-23",
        "siteType": null,
        "altPointSource": null,
        "altPointSourceName": null,
        "cameraHeightFeet": 150,
        "notes": "height pulled from \"Description\" column of PGE-towers_reduced.csv sheet"
      }
    },
    {
      "type": "Feature",
      "geometry": {
        "type": "Point",
        "coordinates": [
          -122.413153,
          45.176571
        ]
      },
      "properties": {
        "id": "digitized-camera-112",
        "name": "Colton",
        "operator": "Pano AI",
        "status": "Operational",
        "pointSource": "PGE_WF_Cameras",
        "pointSourceName": "Colton",
        "mapSource": "Oregon Wildfire Detection Network Map - PDF",
        "digitizedBy": "Mason Weybright",
        "digitizedDate": "2026-09-23",
        "siteType": null,
        "altPointSource": null,
        "altPointSourceName": null,
        "cameraHeightFeet": 88,
        "notes": "height pulled from \"Description\" column of PGE-towers_reduced.csv sheet"
      }
    },
    {
      "type": "Feature",
      "geometry": {
        "type": "Point",
        "coordinates": [
          -122.291695,
          45.13104
        ]
      },
      "properties": {
        "id": "digitized-camera-113",
        "name": "Goat Mountain",
        "operator": "Joint Site",
        "status": "Operational",
        "pointSource": "PGE_WF_Cameras",
        "pointSourceName": "Goat Mountain",
        "mapSource": "Oregon Wildfire Detection Network Map - PDF",
        "digitizedBy": "Mason Weybright",
        "digitizedDate": "2026-09-23",
        "siteType": null,
        "altPointSource": null,
        "altPointSourceName": null,
        "cameraHeightFeet": null,
        "notes": "structure shown in PGE-towers_reduced appears to be different than one marked in PGE_WF_cameras"
      }
    },
    {
      "type": "Feature",
      "geometry": {
        "type": "Point",
        "coordinates": [
          -122.129526,
          45.483574
        ]
      },
      "properties": {
        "id": "digitized-camera-114",
        "name": "Portland Lookout Point",
        "operator": "Pano AI",
        "status": "Operational",
        "pointSource": "PGE_WF_Cameras",
        "pointSourceName": "Portland Lookout Point",
        "mapSource": "Oregon Wildfire Detection Network Map - PDF",
        "digitizedBy": "Mason Weybright",
        "digitizedDate": "2026-09-23",
        "siteType": null,
        "altPointSource": null,
        "altPointSourceName": null,
        "cameraHeightFeet": null,
        "notes": "no entry for this site in PGE-towers_reduced"
      }
    },
    {
      "type": "Feature",
      "geometry": {
        "type": "Point",
        "coordinates": [
          -122.332967,
          45.27077
        ]
      },
      "properties": {
        "id": "digitized-camera-115",
        "name": "Day Hill",
        "operator": "Pano AI",
        "status": "Operational",
        "pointSource": "PGE_WF_Cameras",
        "pointSourceName": "Day Hill",
        "mapSource": "Oregon Wildfire Detection Network Map - PDF",
        "digitizedBy": "Mason Weybright",
        "digitizedDate": "2026-09-23",
        "siteType": null,
        "altPointSource": null,
        "altPointSourceName": null,
        "cameraHeightFeet": null,
        "notes": "two structures of differing heights both marked at this site, unclear which the camera may be on"
      }
    },
    {
      "type": "Feature",
      "geometry": {
        "type": "Point",
        "coordinates": [
          -122.475946,
          44.761988
        ]
      },
      "properties": {
        "id": "digitized-camera-116",
        "name": "Mill City",
        "operator": "Pano AI",
        "status": "Operational",
        "pointSource": "PGE_WF_Cameras",
        "pointSourceName": "Mill City",
        "mapSource": "Oregon Wildfire Detection Network Map - PDF",
        "digitizedBy": "Mason Weybright",
        "digitizedDate": "2026-09-23",
        "siteType": null,
        "altPointSource": null,
        "altPointSourceName": null,
        "cameraHeightFeet": null,
        "notes": "no entry for this site in PGE-towers_reduced"
      }
    },
    {
      "type": "Feature",
      "geometry": {
        "type": "Point",
        "coordinates": [
          -121.219022,
          44.754998
        ]
      },
      "properties": {
        "id": "digitized-camera-117",
        "name": "Warm Springs",
        "operator": "Pano AI",
        "status": "Operational",
        "pointSource": "PGE_WF_Cameras",
        "pointSourceName": "Warm Springs",
        "mapSource": "Oregon Wildfire Detection Network Map - PDF",
        "digitizedBy": "Mason Weybright",
        "digitizedDate": "2026-09-23",
        "siteType": null,
        "altPointSource": null,
        "altPointSourceName": null,
        "cameraHeightFeet": null,
        "notes": "no entry for this site in PGE-towers_reduced"
      }
    },
    {
      "type": "Feature",
      "geometry": {
        "type": "Point",
        "coordinates": [
          -121.267855,
          44.602038
        ]
      },
      "properties": {
        "id": "digitized-camera-118",
        "name": "Round Butte",
        "operator": "Pano AI",
        "status": "Operational",
        "pointSource": "PGE_WF_Cameras",
        "pointSourceName": "Round Butte",
        "mapSource": "Oregon Wildfire Detection Network Map - PDF",
        "digitizedBy": "Mason Weybright",
        "digitizedDate": "2026-09-23",
        "siteType": null,
        "altPointSource": null,
        "altPointSourceName": null,
        "cameraHeightFeet": null,
        "notes": "no entry for this site in PGE-towers_reduced"
      }
    },
    {
      "type": "Feature",
      "geometry": {
        "type": "Point",
        "coordinates": [
          -120.988209,
          42.853411
        ]
      },
      "properties": {
        "id": "digitized-camera-119",
        "name": "Sycan Substation",
        "operator": "Pano AI",
        "status": "Operational",
        "pointSource": "PGE_WF_Cameras",
        "pointSourceName": "Sycan Substation",
        "mapSource": "Oregon Wildfire Detection Network Map - PDF",
        "digitizedBy": "Mason Weybright",
        "digitizedDate": "2026-09-23",
        "siteType": null,
        "altPointSource": null,
        "altPointSourceName": null,
        "cameraHeightFeet": null,
        "notes": "no entry for this site in PGE-towers_reduced"
      }
    },
    {
      "type": "Feature",
      "geometry": {
        "type": "Point",
        "coordinates": [
          -120.642802,
          45.637982
        ]
      },
      "properties": {
        "id": "digitized-camera-120",
        "name": "Biglow Canyon",
        "operator": "Pano AI",
        "status": "Operational",
        "pointSource": "PGE_WF_Cameras",
        "pointSourceName": "Biglow Canyon",
        "mapSource": "Oregon Wildfire Detection Network Map - PDF",
        "digitizedBy": "Mason Weybright",
        "digitizedDate": "2026-09-23",
        "siteType": null,
        "altPointSource": null,
        "altPointSourceName": null,
        "cameraHeightFeet": null,
        "notes": "no entry for this site in PGE-towers_reduced"
      }
    },
    {
      "type": "Feature",
      "geometry": {
        "type": "Point",
        "coordinates": [
          -121.99026,
          45.048228
        ]
      },
      "properties": {
        "id": "digitized-camera-121",
        "name": "Oak Grove Butte",
        "operator": "Joint Site",
        "status": "Operational",
        "pointSource": "PGE_WF_Cameras",
        "pointSourceName": "Oak Grove Butte",
        "mapSource": "Oregon Wildfire Detection Network Map - PDF",
        "digitizedBy": "Mason Weybright",
        "digitizedDate": "2026-09-23",
        "siteType": null,
        "altPointSource": null,
        "altPointSourceName": null,
        "cameraHeightFeet": null,
        "notes": "no entry for this site in PGE-towers_reduced"
      }
    }
  ]
}
