{"type":"FeatureCollection","name":"pacific_northwest_land_mask","features":[{"type":"Feature","properties":{"region":"PNW-LAND","clip":"coastline","source":"https://services.arcgis.com/P3ePLMYs2RVChkJx/ArcGIS/rest/services/World_Countries_(Generalized)/FeatureServer/0","bounds":[-127.5,40.0,-114.0,51.0]},"geometry":{"type":"MultiPolygon","coordinates":[[[[-124.062355,40.091664],[-124.092773,40.116309],[-124.152573,40.147909],[-124.202218,40.174164],[-124.297236,40.238045],[-124.331182,40.272454],[-124.324036,40.311936],[-124.323346,40.336245],[-124.354309,40.415264],[-124.375827,40.4477],[-124.352355,40.532218],[-124.331946,40.581664],[-124.275009,40.694718],[-124.252918,40.724364],[-124.229446,40.746382],[-124.199436,40.745545],[-124.143064,40.811936],[-124.098891,40.991936],[-124.099309,41.038536],[-124.1125,41.057491],[-124.122218,41.157491],[-124.090973,41.249854],[-124.061391,41.344154],[-124.045836,41.394436],[-124.039991,41.427773],[-124.0468,41.463182],[-124.063609,41.515273],[-124.118609,41.683054],[-124.181382,41.754164],[-124.215564,41.819991],[-124.197355,41.848045],[-124.190273,41.869436],[-124.175282,41.949718],[-124.184155,41.994154],[-124.185855,41.999464],[-124.203609,42.018882],[-124.252782,42.055827],[-124.289718,42.073054],[-124.327509,42.105964],[-124.339446,42.124991],[-124.355564,42.168054],[-124.3811,42.243045],[-124.396955,42.3161],[-124.408618,42.374709],[-124.419855,42.483882],[-124.401118,42.517009],[-124.384718,42.554227],[-124.382218,42.628873],[-124.392636,42.6661],[-124.412218,42.682636],[-124.433055,42.694854],[-124.481373,42.748045],[-124.521946,42.828609],[-124.524436,42.8661],[-124.514864,42.905682],[-124.503891,42.924991],[-124.488327,42.941654],[-124.473055,42.964718],[-124.426655,43.040691],[-124.387509,43.188882],[-124.37,43.264445],[-124.373318,43.289164],[-124.378536,43.319018],[-124.334164,43.3551],[-124.248064,43.395827],[-124.206664,43.392354],[-124.188473,43.378182],[-124.142782,43.371691],[-124.196955,43.4561],[-124.238064,43.438491],[-124.263727,43.415654],[-124.2851,43.403173],[-124.302491,43.400545],[-124.294727,43.409427],[-124.2775,43.439427],[-124.222227,43.562764],[-124.212218,43.596654],[-124.203746,43.636382],[-124.187236,43.674427],[-124.115827,43.725264],[-124.134455,43.754718],[-124.153882,43.793882],[-124.131382,43.920827],[-124.110282,44.151654],[-124.068064,44.522636],[-124.057909,44.597354],[-124.047764,44.625409],[-124.040973,44.739154],[-124.049991,44.769436],[-124.059436,44.789991],[-124.054855,44.836936],[-124.022509,44.886936],[-124.003064,44.949154],[-123.995,44.977764],[-123.944782,45.179854],[-123.955982,45.215545],[-123.944718,45.461109],[-123.9441,45.520591],[-123.871609,45.528982],[-123.892418,45.5726],[-123.931109,45.591936],[-123.900282,45.674709],[-123.904718,45.709164],[-123.929718,45.731936],[-123.951682,45.765827],[-123.95,45.8061],[-123.936946,45.894718],[-123.9166,45.997564],[-123.909155,46.030409],[-123.911527,46.065691],[-123.916946,46.095545],[-123.927355,46.133327],[-123.951946,46.181109],[-123.926936,46.214436],[-123.828891,46.190273],[-123.702209,46.188045],[-123.595982,46.202491],[-123.554027,46.224854],[-123.535564,46.239854],[-123.506255,46.250136],[-123.474373,46.246454],[-123.429791,46.208673],[-123.416518,46.186518],[-123.398618,46.175],[-123.367355,46.162909],[-123.263473,46.144854],[-123.241809,46.145827],[-123.203891,46.160818],[-123.163573,46.195191],[-123.258327,46.171518],[-123.295273,46.177354],[-123.371373,46.222764],[-123.393064,46.241664],[-123.409236,46.2727],[-123.430409,46.286936],[-123.4614,46.289436],[-123.4875,46.287218],[-123.518336,46.281382],[-123.548191,46.274854],[-123.589591,46.272627],[-123.620136,46.276382],[-123.6557,46.292218],[-123.6936,46.300545],[-123.737209,46.293882],[-123.822246,46.272764],[-123.857982,46.260545],[-123.892491,46.265691],[-124.0,46.323609],[-124.038327,46.409718],[-124.049991,46.625127],[-124.038746,46.656654],[-124.018336,46.656236],[-124.005209,46.574364],[-124.013636,46.542218],[-124.013546,46.498809],[-123.983464,46.393818],[-123.941246,46.392982],[-123.899436,46.443045],[-123.879173,46.532491],[-123.882,46.564164],[-123.906527,46.605827],[-123.9218,46.6193],[-123.940827,46.636654],[-123.895236,46.687364],[-123.830836,46.714227],[-123.810282,46.697491],[-123.789718,46.677773],[-123.759464,46.685627],[-123.846664,46.746654],[-123.876527,46.754854],[-123.902927,46.7402],[-123.959309,46.723045],[-124.053609,46.735545],[-124.078118,46.749227],[-124.0975,46.861382],[-124.082227,46.886109],[-123.971936,46.932773],[-123.938891,46.937491],[-123.871936,46.953327],[-123.801246,46.976791],[-123.909155,46.990827],[-123.961946,46.9886],[-123.989236,47.0009],[-124.000418,47.023882],[-124.021946,47.047218],[-124.050818,47.062073],[-124.075,47.066245],[-124.1116,47.059509],[-124.133891,47.042073],[-124.1225,47.001391],[-124.110618,46.975609],[-124.152564,46.941654],[-124.164173,46.946382],[-124.1575,46.976654],[-124.152218,47.007773],[-124.1489,47.033054],[-124.148618,47.060818],[-124.153064,47.0911],[-124.183318,47.221373],[-124.208891,47.279436],[-124.227909,47.313945],[-124.267227,47.341936],[-124.300691,47.373118],[-124.307218,47.433054],[-124.327218,47.535827],[-124.359291,47.667218],[-124.395,47.729427],[-124.4632,47.8243],[-124.498891,47.852218],[-124.525564,47.871245],[-124.548746,47.883045],[-124.579027,47.885127],[-124.618191,47.925],[-124.644727,47.973318],[-124.655682,47.996936],[-124.668191,48.039854],[-124.6725,48.064154],[-124.681382,48.126382],[-124.687209,48.184436],[-124.681955,48.252218],[-124.7057,48.371236],[-124.714309,48.397073],[-124.637218,48.399991],[-124.5661,48.379718],[-124.546664,48.372218],[-124.478882,48.342218],[-124.415836,48.316382],[-124.309436,48.283882],[-124.232227,48.275827],[-124.145,48.251391],[-124.0993,48.232073],[-124.085209,48.211727],[-124.040282,48.193045],[-124.016955,48.188882],[-123.934718,48.175827],[-123.897227,48.171936],[-123.806955,48.165827],[-123.786664,48.165545],[-123.758346,48.166664],[-123.673891,48.170827],[-123.5089,48.148327],[-123.401391,48.131936],[-123.354173,48.1286],[-123.242709,48.129436],[-123.209173,48.142354],[-123.187764,48.159154],[-123.146664,48.179436],[-123.113264,48.190964],[-122.97,48.113327],[-122.868046,48.112282],[-122.846527,48.135964],[-122.825282,48.145973],[-122.781682,48.158045],[-122.749436,48.153945],[-122.747,48.127836],[-122.7775,48.110482],[-122.778064,48.090273],[-122.7139,48.010273],[-122.678682,47.987282],[-122.630282,47.915827],[-122.671664,47.856945],[-122.747773,47.763054],[-122.788064,47.765545],[-122.779873,47.812218],[-122.784727,47.8325],[-122.795,47.860273],[-122.8493,47.831382],[-122.849446,47.8061],[-122.841946,47.783054],[-122.8511,47.751391],[-122.875409,47.703745],[-122.893891,47.677491],[-122.914718,47.6586],[-122.9664,47.6186],[-122.983891,47.603054],[-123.017227,47.569718],[-123.104446,47.469436],[-123.147927,47.371654],[-123.129718,47.359436],[-123.103882,47.356382],[-123.006664,47.368464],[-122.904718,47.403882],[-122.876109,47.414991],[-122.840627,47.447318],[-122.8661,47.445264],[-122.918064,47.4261],[-122.954727,47.409991],[-122.995982,47.390273],[-123.024991,47.379991],[-123.0975,47.400827],[-123.084164,47.443045],[-122.999736,47.545273],[-122.942491,47.607909],[-122.903336,47.6343],[-122.836118,47.656654],[-122.7361,47.721664],[-122.728755,47.747773],[-122.565555,47.938045],[-122.5141,47.922073],[-122.460036,47.763736],[-122.541673,47.742218],[-122.598464,47.706654],[-122.593391,47.640382],[-122.598091,47.608436],[-122.638473,47.619573],[-122.655418,47.638464],[-122.671109,47.6586],[-122.680827,47.639227],[-122.663327,47.545691],[-122.602782,47.561664],[-122.5751,47.578627],[-122.536518,47.593182],[-122.508618,47.500545],[-122.547764,47.288045],[-122.571109,47.278736],[-122.672909,47.321764],[-122.644855,47.348882],[-122.613682,47.394436],[-122.619164,47.420545],[-122.709582,47.355545],[-122.743046,47.290764],[-122.714136,47.252627],[-122.728609,47.211936],[-122.748964,47.1893],[-122.771118,47.201664],[-122.790418,47.222627],[-122.811246,47.270545],[-122.795436,47.292236],[-122.767573,47.320482],[-122.770209,47.372073],[-122.7975,47.395273],[-122.8125,47.367764],[-122.8465,47.313164],[-122.902918,47.3],[-122.917009,47.2845],[-122.926873,47.250664],[-122.939573,47.205691],[-122.980064,47.180473],[-123.025282,47.169718],[-123.062573,47.155964],[-123.064855,47.113882],[-123.025555,47.124164],[-122.9514,47.134991],[-122.900982,47.066382],[-122.8786,47.064154],[-122.885418,47.156445],[-122.845136,47.174991],[-122.792782,47.182491],[-122.716946,47.120273],[-122.639718,47.151927],[-122.61,47.172764],[-122.591382,47.193882],[-122.565273,47.224436],[-122.527091,47.275827],[-122.459164,47.297773],[-122.4164,47.314709],[-122.313536,47.3718],[-122.309582,47.404573],[-122.351391,47.485264],[-122.385146,47.546664],[-122.398618,47.586382],[-122.418327,47.672218],[-122.3736,47.832354],[-122.2911,47.958191],[-122.320555,48.074164],[-122.374409,48.213427],[-122.442627,48.225536],[-122.47,48.169918],[-122.4468,48.1336],[-122.429991,48.119709],[-122.4514,48.115],[-122.500418,48.129082],[-122.528464,48.182909],[-122.531109,48.205127],[-122.520691,48.236027],[-122.498336,48.250418],[-122.4557,48.255],[-122.434018,48.255136],[-122.4157,48.247082],[-122.3975,48.238182],[-122.378191,48.284718],[-122.392846,48.309436],[-122.590946,48.425791],[-122.607082,48.411236],[-122.625827,48.403182],[-122.658336,48.404709],[-122.679582,48.418327],[-122.698736,48.494782],[-122.619718,48.511245],[-122.550418,48.484854],[-122.536109,48.467354],[-122.517091,48.453045],[-122.486246,48.4527],[-122.436664,48.590409],[-122.5,48.744854],[-122.521946,48.761527],[-122.565836,48.775127],[-122.587636,48.772073],[-122.609027,48.752773],[-122.649436,48.764445],[-122.681109,48.795545],[-122.809718,48.942909],[-122.770346,48.964027],[-122.734127,48.962354],[-122.753618,48.993882],[-122.7603,48.999436],[-122.822364,49.006936],[-122.875264,49.031864],[-122.872555,49.054227],[-122.867564,49.079127],[-122.909427,49.087209],[-122.941673,49.0825],[-123.030555,49.047082],[-123.047846,49.025336],[-123.039173,49.005273],[-123.034318,48.999436],[-123.045864,48.977482],[-123.086536,48.972073],[-123.093746,48.999436],[-123.113327,49.036664],[-123.143627,49.107773],[-123.207364,49.125409],[-123.247909,49.2725],[-123.0945,49.283936],[-123.009336,49.281945],[-122.943327,49.284164],[-122.918064,49.290827],[-122.877082,49.345273],[-122.855136,49.438118],[-122.875618,49.448045],[-122.882491,49.400409],[-122.9014,49.360545],[-122.915555,49.342218],[-122.931382,49.328045],[-123.005391,49.319545],[-123.040973,49.312882],[-123.071809,49.314382],[-123.236391,49.338882],[-123.254182,49.384718],[-123.251109,49.526454],[-123.201618,49.615718],[-123.153955,49.682836],[-123.165618,49.701173],[-123.246518,49.647145],[-123.268418,49.602064],[-123.343336,49.561382],[-123.387773,49.554291],[-123.430282,49.538327],[-123.491664,49.5084],[-123.487846,49.462009],[-123.473746,49.445964],[-123.480336,49.4143],[-123.516536,49.385473],[-123.540273,49.382354],[-123.6036,49.398745],[-123.675555,49.425273],[-123.775009,49.458327],[-123.858327,49.467773],[-123.890491,49.468882],[-123.961682,49.511936],[-123.9886,49.541664],[-124.070009,49.641518],[-124.059155,49.671109],[-124.030555,49.716518],[-124.0132,49.7311],[-123.992773,49.740964],[-123.966109,49.745682],[-123.938046,49.740682],[-123.876936,49.683327],[-123.831127,49.622209],[-123.8232,49.583945],[-123.7916,49.510136],[-123.765255,49.509754],[-123.753891,49.537773],[-123.770627,49.576036],[-123.736964,49.605436],[-123.682118,49.624936],[-123.6389,49.634991],[-123.615009,49.639164],[-123.555127,49.672218],[-123.535764,49.697109],[-123.555264,49.690409],[-123.578755,49.678464],[-123.6832,49.652045],[-123.744946,49.645545],[-123.806382,49.643536],[-123.934718,49.7761],[-123.92,49.7925],[-123.8802,49.834054],[-123.872836,49.872418],[-123.892436,49.923464],[-123.924646,49.9302],[-123.945273,49.939991],[-123.956809,49.957627],[-123.926227,49.991573],[-123.877518,50.016654],[-123.849973,50.022991],[-123.802218,50.042354],[-123.748964,50.085064],[-123.825982,50.154573],[-123.846946,50.163318],[-123.987209,50.210927],[-123.953755,50.175],[-123.930546,50.160964],[-123.896946,50.154436],[-123.877209,50.148182],[-123.813609,50.090691],[-123.870118,50.057882],[-123.916,50.039882],[-123.954655,50.029218],[-123.9984,50.002218],[-123.991864,49.943327],[-123.973464,49.911518],[-123.9514,49.895827],[-123.914173,49.872773],[-123.924309,49.830127],[-123.982218,49.803745],[-124.004182,49.810545],[-124.008327,49.847518],[-124.0351,49.918009],[-124.070355,49.872627],[-124.060064,49.840454],[-124.087364,49.7975],[-124.145555,49.779718],[-124.181382,49.773182],[-124.270282,49.768054],[-124.408891,49.763473],[-124.432782,49.767636],[-124.520964,49.805618],[-124.529727,49.839436],[-124.571955,49.874436],[-124.591382,49.883045],[-124.632218,49.899436],[-124.702791,49.934991],[-124.741946,49.958327],[-124.773064,49.985827],[-124.803327,50.020273],[-124.818091,50.063918],[-124.767227,50.036382],[-124.703336,49.995545],[-124.668064,50.070273],[-124.616946,50.179164],[-124.602909,50.240409],[-124.635,50.283327],[-124.665009,50.303882],[-124.713064,50.323809],[-124.654864,50.387636],[-124.6261,50.398327],[-124.601936,50.402773],[-124.574636,50.398491],[-124.5418,50.394854],[-124.52,50.399991],[-124.427355,50.434436],[-124.390836,50.456382],[-124.356518,50.495927],[-124.400482,50.479609],[-124.427491,50.462209],[-124.518336,50.432209],[-124.593036,50.413382],[-124.711673,50.375545],[-124.739164,50.351936],[-124.809582,50.314991],[-124.83,50.309436],[-124.850564,50.309718],[-124.939164,50.325273],[-125.063891,50.317773],[-125.075291,50.320973],[-125.087018,50.347636],[-125.045064,50.481036],[-125.018064,50.484164],[-124.9682,50.499573],[-124.880827,50.560545],[-124.858891,50.588182],[-124.854446,50.691373],[-124.868882,50.765],[-124.872773,50.814573],[-124.787846,50.885964],[-124.806936,50.919582],[-124.856736,50.932136],[-124.924436,50.834718],[-124.944991,50.775273],[-124.912218,50.699436],[-124.904518,50.621582],[-124.928882,50.596382],[-125.026946,50.540836],[-125.101809,50.498473],[-125.116727,50.477345],[-125.117464,50.438045],[-125.182846,50.412764],[-125.204718,50.419018],[-125.246109,50.462209],[-125.336118,50.479718],[-125.412636,50.469436],[-125.451518,50.458327],[-125.488327,50.456382],[-125.548482,50.497582],[-125.532227,50.627209],[-125.509791,50.657145],[-125.474727,50.6668],[-125.453755,50.676936],[-125.432491,50.7111],[-125.467991,50.711245],[-125.5425,50.665964],[-125.5611,50.642627],[-125.571055,50.612282],[-125.581846,50.5652],[-125.586236,50.536664],[-125.611309,50.487909],[-125.644446,50.443454],[-125.703682,50.429509],[-125.855691,50.499027],[-125.930282,50.4736],[-125.960409,50.468882],[-126.063318,50.470827],[-126.159155,50.484991],[-126.193327,50.490273],[-126.276946,50.516309],[-126.226709,50.536282],[-126.186127,50.557364],[-126.238055,50.591382],[-126.251682,50.609718],[-126.270209,50.627354],[-126.017391,50.661964],[-125.908564,50.664045],[-125.738327,50.682209],[-125.693882,50.704709],[-125.620136,50.752082],[-125.540418,50.867909],[-125.507855,50.941482],[-125.53540163017307,51.0],[-114.0,51.0],[-114.0,40.0],[-123.97760070369014,40.0],[-124.062355,40.091664]]],[[[-125.583327,50.974709],[-125.610282,50.898882],[-125.6911,50.771382],[-125.731109,50.735545],[-125.815273,50.707218],[-125.963836,50.688664],[-126.135564,50.681536],[-126.212018,50.703464],[-126.111655,50.753882],[-126.198882,50.855827],[-126.269446,50.858045],[-126.3761,50.855273],[-126.400282,50.846936],[-126.431591,50.8252],[-126.493327,50.816382],[-126.557291,50.840336],[-126.555546,50.879018],[-126.533755,50.899991],[-126.4884,50.9177],[-126.462291,50.909782],[-126.363336,50.901654],[-126.246382,50.898609],[-126.211255,50.903118],[-126.179718,50.922218],[-126.1793,50.948045],[-126.202646,50.940409],[-126.222218,50.9286],[-126.245536,50.923327],[-126.308609,50.925273],[-126.4193,50.937354],[-126.573127,50.902218],[-126.669591,50.867218],[-126.721655,50.8761],[-126.812773,50.912491],[-126.9107,50.904018],[-127.014718,50.903882],[-127.048046,50.910273],[-127.085564,50.921382],[-127.112209,50.931109],[-127.173146,50.922218],[-127.062764,50.885273],[-127.013246,50.8681],[-126.968782,50.8666],[-127.018609,50.818473],[-127.040282,50.819718],[-127.064927,50.833736],[-127.132764,50.862209],[-127.243609,50.896664],[-127.334446,50.906936],[-127.398618,50.926382],[-127.430555,50.940545],[-127.5,50.98287661136687],[-127.5,51.0],[-125.59847459075839,51.0],[-125.583327,50.974709]]],[[[-127.486655,50.437491],[-127.5,50.45096894450758],[-127.5,50.5627175387251],[-127.491464,50.5668],[-127.4436,50.571664],[-127.416946,50.579609],[-127.5,50.58680493617667],[-127.5,50.766621246206434],[-127.491664,50.761527],[-127.459164,50.718318],[-127.354446,50.6761],[-127.226936,50.636109],[-126.975282,50.576945],[-126.854718,50.554436],[-126.772227,50.545273],[-126.713336,50.529709],[-126.631664,50.503054],[-126.563891,50.483609],[-126.493882,50.481936],[-126.390836,50.482209],[-126.355827,50.483327],[-126.327791,50.480818],[-126.213055,50.467627],[-126.154718,50.459436],[-126.069164,50.4386],[-126.046109,50.432491],[-126.025136,50.424854],[-125.9693,50.391936],[-125.938182,50.3836],[-125.816964,50.378045],[-125.58,50.365827],[-125.556382,50.361518],[-125.456391,50.326664],[-125.433327,50.309509],[-125.427227,50.2875],[-125.415009,50.261664],[-125.393627,50.215545],[-125.377773,50.179718],[-125.362782,50.138045],[-125.330836,50.113882],[-125.286946,50.081382],[-125.224164,50.018191],[-125.212091,49.971309],[-125.168609,49.912764],[-125.112209,49.868327],[-124.993055,49.788327],[-124.898064,49.731654],[-124.891391,49.664709],[-124.9164,49.631664],[-124.856664,49.537082],[-124.833073,49.510827],[-124.789436,49.464154],[-124.579455,49.3875],[-124.5511,49.378045],[-124.527355,49.372073],[-124.260836,49.315273],[-124.121936,49.270273],[-123.943046,49.211109],[-123.810273,49.115827],[-123.750909,49.036518],[-123.758964,48.982909],[-123.687082,48.905273],[-123.586946,48.835964],[-123.5643,48.784027],[-123.564709,48.749718],[-123.509455,48.587491],[-123.476673,48.631664],[-123.462191,48.681],[-123.407573,48.682],[-123.349036,48.5418],[-123.293473,48.482773],[-123.277564,48.452209],[-123.292982,48.412073],[-123.328473,48.398191],[-123.360282,48.397218],[-123.419918,48.4268],[-123.459727,48.411936],[-123.513346,48.374709],[-123.536946,48.338327],[-123.549855,48.307],[-123.583327,48.3011],[-123.598346,48.311664],[-123.714446,48.348045],[-123.769173,48.361382],[-123.811246,48.354018],[-123.920127,48.365127],[-123.9761,48.381936],[-124.263636,48.468882],[-124.423609,48.516936],[-124.609446,48.560545],[-124.6886,48.578327],[-124.720836,48.586654],[-124.765146,48.608609],[-124.795,48.629991],[-124.820273,48.650682],[-124.9225,48.679991],[-125.028882,48.708882],[-125.0625,48.715],[-125.101527,48.724845],[-125.184718,48.798464],[-125.017227,48.920545],[-124.905836,48.970264],[-124.843327,49.015754],[-124.780491,49.139436],[-124.796955,49.215827],[-124.807009,49.235618],[-124.822918,49.220409],[-124.817227,49.183327],[-124.817082,49.155409],[-124.828755,49.117491],[-124.878327,49.025273],[-124.895836,49.009091],[-124.936946,48.988045],[-124.956391,48.982218],[-125.069164,48.984436],[-125.126936,48.9911],[-125.204446,48.9593],[-125.228527,48.951936],[-125.323055,48.965273],[-125.4657,48.917073],[-125.504727,48.919018],[-125.751109,49.055264],[-125.768064,49.0986],[-125.738055,49.105554],[-125.693046,49.1286],[-125.639446,49.164991],[-125.609546,49.207282],[-125.664436,49.189991],[-125.720836,49.157773],[-125.750836,49.149091],[-125.779446,49.241664],[-125.796664,49.310273],[-125.8661,49.274436],[-125.968646,49.227282],[-126.021946,49.265554],[-126.015146,49.286454],[-125.975836,49.294373],[-125.947918,49.3143],[-125.899655,49.422836],[-125.947218,49.395545],[-125.963764,49.375545],[-125.9641,49.354718],[-126.000482,49.323118],[-126.042782,49.3318],[-126.063055,49.346236],[-126.074727,49.389436],[-126.12,49.423045],[-126.225564,49.410273],[-126.2639,49.389436],[-126.365282,49.401654],[-126.459164,49.401927],[-126.463891,49.381518],[-126.5357,49.374082],[-126.578555,49.412073],[-126.567918,49.580409],[-126.465973,49.636109],[-126.404164,49.637773],[-126.375827,49.634718],[-126.350827,49.629845],[-126.284727,49.634436],[-126.223891,49.640545],[-126.134173,49.649991],[-126.089791,49.660336],[-126.1068,49.678191],[-126.209446,49.673882],[-126.240409,49.666936],[-126.2907,49.6536],[-126.340846,49.648609],[-126.434709,49.663318],[-126.587646,49.702773],[-126.630282,49.795],[-126.679718,49.878873],[-126.804446,49.909154],[-126.844027,49.882836],[-126.8761,49.873318],[-126.939436,49.862773],[-126.994164,49.855273],[-127.1268,49.854618],[-127.181518,49.893191],[-127.224446,49.940273],[-127.239018,49.965618],[-127.179991,50.021382],[-127.183191,50.041382],[-127.174446,50.063045],[-127.130282,50.084718],[-127.158336,50.096382],[-127.270555,50.099164],[-127.277846,50.056864],[-127.3375,50.032082],[-127.385273,50.027354],[-127.423318,50.042218],[-127.451946,50.069718],[-127.470555,50.090409],[-127.5,50.105556507194386],[-127.5,50.40152690171927],[-127.466318,50.378182],[-127.446955,50.372764],[-127.449582,50.3843],[-127.486655,50.437491]]],[[[-126.734164,49.848045],[-126.678046,49.825273],[-126.644727,49.774164],[-126.635282,49.756664],[-126.613327,49.648327],[-126.6161,49.624436],[-126.622346,49.603745],[-126.633055,49.5961],[-126.672355,49.584573],[-126.685136,49.583464],[-126.697218,49.585545],[-126.789718,49.612209],[-126.8111,49.621236],[-126.905564,49.685545],[-126.967373,49.729018],[-126.974864,49.745136],[-126.940555,49.831382],[-126.890555,49.847773],[-126.799155,49.8761],[-126.7775,49.879718],[-126.768718,49.878618],[-126.749446,49.856945],[-126.734164,49.848045]]],[[[-126.238327,50.8111],[-126.229446,50.803318],[-126.177218,50.7468],[-126.253055,50.699645],[-126.258473,50.659291],[-126.269727,50.653736],[-126.463336,50.641664],[-126.568073,50.648327],[-126.584164,50.650273],[-126.602627,50.655682],[-126.616246,50.665127],[-126.545836,50.7261],[-126.437209,50.783882],[-126.385964,50.807209],[-126.280564,50.828327],[-126.258055,50.824091],[-126.251718,50.818927],[-126.251955,50.819718],[-126.238327,50.8111]]],[[[-124.137927,49.486664],[-124.152218,49.487354],[-124.281391,49.546664],[-124.405836,49.605827],[-124.438046,49.628873],[-124.442209,49.638045],[-124.476673,49.671936],[-124.539664,49.692764],[-124.557082,49.698518],[-124.614164,49.713609],[-124.627209,49.719154],[-124.657491,49.739436],[-124.653882,49.798473],[-124.619455,49.797218],[-124.601946,49.786936],[-124.590291,49.771664],[-124.560836,49.752409],[-124.494718,49.733327],[-124.446109,49.723318],[-124.433191,49.723464],[-124.41,49.723045],[-124.381382,49.713327],[-124.351391,49.698045],[-124.332782,49.683327],[-124.133473,49.522773],[-124.124164,49.499164],[-124.122773,49.493609],[-124.127491,49.489718],[-124.137927,49.486664]]],[[[-125.2164,50.404709],[-125.165555,50.374436],[-125.061391,50.240545],[-125.051109,50.224154],[-125.048609,50.207773],[-125.050409,50.192073],[-125.116391,50.136654],[-125.131536,50.124427],[-125.142509,50.1218],[-125.1525,50.129164],[-125.139718,50.159427],[-125.156109,50.239154],[-125.213818,50.315273],[-125.267782,50.323745],[-125.319791,50.316727],[-125.335073,50.301109],[-125.356109,50.290273],[-125.372218,50.289436],[-125.388473,50.292009],[-125.399727,50.315964],[-125.397218,50.334164],[-125.291946,50.433873],[-125.279727,50.434573],[-125.273064,50.431109],[-125.236655,50.415827],[-125.2164,50.404709]]],[[[-125.310818,50.281382],[-125.259036,50.293745],[-125.244855,50.289436],[-125.167218,50.213609],[-125.160564,50.195409],[-125.186664,50.141664],[-125.153882,50.003464],[-125.168536,49.982345],[-125.185818,50.004164],[-125.207227,50.045],[-125.214173,50.069991],[-125.281682,50.113327],[-125.3207,50.139718],[-125.34,50.203045],[-125.349164,50.242491],[-125.349036,50.259718],[-125.345546,50.2639],[-125.34,50.268882],[-125.310818,50.281382]]],[[[-123.4575,48.863054],[-123.433882,48.844436],[-123.369573,48.765545],[-123.374027,48.755554],[-123.431955,48.7211],[-123.478609,48.708745],[-123.489991,48.709436],[-123.513064,48.716382],[-123.524718,48.722491],[-123.550691,48.749436],[-123.592773,48.898327],[-123.595555,48.909718],[-123.596118,48.928327],[-123.595127,48.947073],[-123.580564,48.935545],[-123.577218,48.929164],[-123.5332,48.913464],[-123.4575,48.863054]]],[[[-126.108609,49.380409],[-126.096118,49.3686],[-126.0864,49.358609],[-126.072773,49.343045],[-126.053127,49.259573],[-126.067918,49.249582],[-126.084446,49.246382],[-126.096391,49.247218],[-126.189164,49.264436],[-126.226391,49.281109],[-126.239164,49.289718],[-126.231946,49.376382],[-126.221391,49.380545],[-126.136664,49.393745],[-126.126936,49.390273],[-126.122618,49.389436],[-126.108609,49.380409]]],[[[-124.821673,50.239718],[-124.756664,50.178327],[-124.753682,50.160336],[-124.809718,50.112636],[-124.828964,50.112982],[-124.861109,50.136382],[-124.939164,50.207773],[-124.963055,50.236382],[-124.965836,50.2493],[-124.920682,50.298054],[-124.906664,50.299164],[-124.898618,50.293882],[-124.875818,50.284718],[-124.821673,50.239718]]],[[[-126.853336,50.782773],[-126.864727,50.789436],[-126.903618,50.824018],[-126.884718,50.829718],[-126.645982,50.847073],[-126.632636,50.843882],[-126.588609,50.821382],[-126.567082,50.800682],[-126.731373,50.771936],[-126.797782,50.768882],[-126.8075,50.769991],[-126.853336,50.782773]]],[[[-126.2252,50.558809],[-126.308882,50.528327],[-126.3364,50.521664],[-126.350564,50.520273],[-126.486109,50.515545],[-126.588055,50.521382],[-126.604173,50.525273],[-126.623891,50.533882],[-126.604173,50.539718],[-126.574446,50.546391],[-126.556955,50.548609],[-126.541946,50.549436],[-126.526673,50.548882],[-126.4886,50.553318],[-126.3811,50.574718],[-126.286118,50.598327],[-126.282782,50.597491],[-126.2252,50.558809]]],[[[-124.915282,50.141382],[-124.897782,50.077491],[-124.924155,50.0586],[-124.968609,50.035827],[-125.000555,50.056654],[-125.065,50.105409],[-125.0643,50.1161],[-125.039718,50.130545],[-124.991673,50.168327],[-124.981391,50.179154],[-124.983318,50.225545],[-124.929982,50.1686],[-124.915282,50.141382]]],[[[-123.604446,49.014718],[-123.5864,49.000545],[-123.521664,48.960273],[-123.499164,48.947209],[-123.4875,48.9411],[-123.459727,48.930545],[-123.436391,48.924436],[-123.420273,48.920545],[-123.381946,48.910818],[-123.3216,48.891591],[-123.312627,48.870409],[-123.319582,48.862218],[-123.374709,48.856664],[-123.384746,48.859991],[-123.540555,48.944991],[-123.662509,49.035273],[-123.704582,49.097773],[-123.699164,49.1068],[-123.683473,49.105136],[-123.674709,49.093045],[-123.659436,49.073609],[-123.604446,49.014718]]],[[[-124.683318,50.283336],[-124.670555,50.2743],[-124.660282,50.260691],[-124.6575,50.247773],[-124.656109,50.231373],[-124.660846,50.206591],[-124.703473,50.159709],[-124.793609,50.227073],[-124.779309,50.273464],[-124.742773,50.300682],[-124.727764,50.300691],[-124.726936,50.299164],[-124.695546,50.289436],[-124.683318,50.283336]]],[[[-125.343064,50.441654],[-125.331118,50.4318],[-125.336936,50.416664],[-125.385836,50.369709],[-125.398355,50.364154],[-125.4261,50.355554],[-125.462636,50.349854],[-125.527082,50.380264],[-125.518627,50.390273],[-125.477491,50.424164],[-125.468327,50.428745],[-125.375827,50.4593],[-125.370827,50.455827],[-125.366655,50.454164],[-125.343064,50.441654]]],[[[-123.3239,49.4886],[-123.319455,49.474709],[-123.317782,49.464154],[-123.320846,49.449991],[-123.329864,49.442627],[-123.360282,49.433054],[-123.375,49.433327],[-123.445118,49.440127],[-123.459591,49.468873],[-123.453055,49.495545],[-123.445264,49.515273],[-123.436664,49.522218],[-123.380827,49.536109],[-123.365409,49.535554],[-123.355,49.531936],[-123.338336,49.5061],[-123.329864,49.498609],[-123.3239,49.4886]]],[[[-127.042773,50.6375],[-127.058327,50.632491],[-127.101936,50.627491],[-127.127355,50.627773],[-127.142991,50.635345],[-127.129436,50.654154],[-127.109164,50.665264],[-127.090146,50.669436],[-126.890291,50.667218],[-126.876509,50.664709],[-126.834236,50.628464],[-126.9025,50.613882],[-126.912509,50.613609],[-127.020973,50.639164],[-127.042773,50.6375]]],[[[-125.818073,49.220545],[-125.799155,49.208327],[-125.788891,49.172764],[-125.797091,49.149154],[-125.817291,49.1261],[-125.860282,49.134436],[-125.908336,49.163182],[-125.925827,49.190827],[-125.930827,49.218109],[-125.878882,49.235827],[-125.867491,49.233327],[-125.829182,49.226382],[-125.818073,49.220545]]],[[[-124.060546,49.744991],[-124.074718,49.733327],[-124.090846,49.715545],[-124.1011,49.700273],[-124.105564,49.689427],[-124.107227,49.677218],[-124.112209,49.662354],[-124.126373,49.651382],[-124.139182,49.650545],[-124.153609,49.655545],[-124.186946,49.668882],[-124.196664,49.676936],[-124.200691,49.704018],[-124.141182,49.750273],[-124.091664,49.767773],[-124.032782,49.777773],[-124.018618,49.774154],[-124.025555,49.767773],[-124.046109,49.756382],[-124.060546,49.744991]]],[[[-122.505836,48.307491],[-122.514446,48.296109],[-122.526946,48.290836],[-122.551109,48.283327],[-122.562764,48.285273],[-122.5725,48.296109],[-122.585,48.301518],[-122.614718,48.300754],[-122.663891,48.244709],[-122.649309,48.227209],[-122.624164,48.219709],[-122.607227,48.211109],[-122.592218,48.200545],[-122.583327,48.192764],[-122.486391,48.101109],[-122.365282,48.0375],[-122.338055,47.981654],[-122.335136,47.967491],[-122.342218,47.954709],[-122.37,47.921382],[-122.423318,47.925827],[-122.531682,47.9811],[-122.561391,48.022218],[-122.606655,48.087491],[-122.741382,48.210545],[-122.750291,48.219154],[-122.756809,48.2311],[-122.753755,48.2486],[-122.661118,48.377491],[-122.596391,48.406245],[-122.588336,48.392218],[-122.520282,48.327218],[-122.505836,48.307491]]],[[[-122.858609,48.7061],[-122.844727,48.7011],[-122.780836,48.676936],[-122.748327,48.659991],[-122.751109,48.649018],[-122.807636,48.605409],[-122.878327,48.587909],[-122.899436,48.586109],[-122.92,48.587491],[-123.000418,48.599573],[-123.0125,48.605827],[-123.023336,48.6243],[-123.020282,48.635554],[-122.940273,48.704436],[-122.926246,48.710827],[-122.895555,48.711109],[-122.883055,48.711109],[-122.858609,48.7061]]],[[[-122.995,48.529718],[-122.962636,48.452636],[-123.004173,48.445682],[-123.095282,48.474991],[-123.121936,48.484718],[-123.139446,48.494154],[-123.148618,48.501664],[-123.155564,48.511109],[-123.1768,48.551654],[-123.177282,48.591727],[-123.1525,48.616527],[-123.141391,48.618882],[-123.1059,48.611454],[-123.099727,48.603882],[-123.038327,48.561382],[-122.995,48.529718]]],[[[-122.814727,48.467218],[-122.808882,48.454436],[-122.8075,48.442491],[-122.807773,48.427491],[-122.814436,48.417909],[-122.827091,48.416382],[-122.839173,48.417773],[-122.860546,48.421382],[-122.934864,48.455273],[-122.936664,48.474991],[-122.936109,48.491664],[-122.916109,48.536664],[-122.870473,48.560609],[-122.868055,48.552491],[-122.855564,48.524164],[-122.814727,48.467218]]],[[[-122.483891,47.347354],[-122.494455,47.345827],[-122.504182,47.353054],[-122.518546,47.371518],[-122.511127,47.408882],[-122.496109,47.461109],[-122.449436,47.516318],[-122.442491,47.4911],[-122.421946,47.432209],[-122.415282,47.423045],[-122.3811,47.394718],[-122.410555,47.387218],[-122.483891,47.347354]]]]}}]}
