{
  "type": "FeatureCollection",
  "features": [
    {
      "type": "Feature",
      "geometry": {
        "type": "Point",
        "coordinates": [
          -122.64641,
          43.05216
        ]
      },
      "properties": {
        "name": "Acker Rock",
        "County": "Douglas",
        "State": "OR",
        "Type": "Ground",
        "Status": "Standing",
        "NHLR/FFLOS": "NHLR US 355, OR 41"
      }
    },
    {
      "type": "Feature",
      "geometry": {
        "type": "Point",
        "coordinates": [
          -119.45136,
          44.37751
        ]
      },
      "properties": {
        "name": "Aldrich Mountain",
        "County": "Grant",
        "State": "OR",
        "Type": "3-Story cab",
        "Status": "Standing",
        "NHLR/FFLOS": "NHLR US 453, OR 56"
      }
    },
    {
      "type": "Feature",
      "geometry": {
        "type": "Point",
        "coordinates": [
          -118.41924,
          44.04246
        ]
      },
      "properties": {
        "name": "Antelope Mountain",
        "County": "Grant",
        "State": "OR",
        "Type": "Tower",
        "Status": "Standing",
        "NHLR/FFLOS": "NHLR US 913, OR 117"
      }
    },
    {
      "type": "Feature",
      "geometry": {
        "type": "Point",
        "coordinates": [
          -120.78977,
          42.61439
        ]
      },
      "properties": {
        "name": "Bald (Ingram) Butte",
        "County": "Lake",
        "State": "OR",
        "Type": "Ground",
        "Status": "Standing",
        "NHLR/FFLOS": "NHLR US 258, OR 29"
      }
    },
    {
      "type": "Feature",
      "geometry": {
        "type": "Point",
        "coordinates": [
          -119.36789,
          43.68311
        ]
      },
      "properties": {
        "name": "Bald Butte",
        "County": "Harney",
        "State": "OR",
        "Type": "Tower",
        "Status": "Standing",
        "NHLR/FFLOS": "NHLR US 425, OR 50"
      }
    },
    {
      "type": "Feature",
      "geometry": {
        "type": "Point",
        "coordinates": [
          -124.03978,
          42.69356
        ]
      },
      "properties": {
        "name": "Bald Knob",
        "County": "Coos",
        "State": "OR",
        "Type": "Tower",
        "Status": "Standing",
        "NHLR/FFLOS": "NHLR US 1572, OR 131"
      }
    },
    {
      "type": "Feature",
      "geometry": {
        "type": "Point",
        "coordinates": [
          -121.35531,
          43.27429
        ]
      },
      "properties": {
        "name": "Bald Mountain",
        "County": "Klamath",
        "State": "OR",
        "Type": "Tower",
        "Status": "Standing",
        "NHLR/FFLOS": "NHLR US 480, OR 73"
      }
    },
    {
      "type": "Feature",
      "geometry": {
        "type": "Point",
        "coordinates": [
          -123.58121,
          43.26926
        ]
      },
      "properties": {
        "name": "Baughman Mountain",
        "County": "Douglas",
        "State": "OR",
        "Type": "Tower",
        "Status": "Standing",
        "NHLR/FFLOS": "NHLR US 331, OR 33"
      }
    },
    {
      "type": "Feature",
      "geometry": {
        "type": "Point",
        "coordinates": [
          -121.41515,
          43.09982
        ]
      },
      "properties": {
        "name": "Bear Butte",
        "County": "Klamath",
        "State": "OR",
        "Type": "Ground",
        "Status": "Standing",
        "NHLR/FFLOS": "NHLR US 1605, OR 133"
      }
    },
    {
      "type": "Feature",
      "geometry": {
        "type": "Point",
        "coordinates": [
          -117.27815,
          44.60888
        ]
      },
      "properties": {
        "name": "Big Lookout Mountain",
        "County": "Baker",
        "State": "OR",
        "Type": "2-Story cab",
        "Status": "Standing",
        "NHLR/FFLOS": "NHLR US 1606, OR 134"
      }
    },
    {
      "type": "Feature",
      "geometry": {
        "type": "Point",
        "coordinates": [
          -122.45103,
          44.26803
        ]
      },
      "properties": {
        "name": "Big Rock",
        "County": "Linn",
        "State": "OR",
        "Type": "2-Story cab",
        "Status": "Standing",
        "NHLR/FFLOS": "NHLR US 1607, OR 134"
      }
    },
    {
      "type": "Feature",
      "geometry": {
        "type": "Point",
        "coordinates": [
          -119.13866,
          44.54003
        ]
      },
      "properties": {
        "name": "Black Butte",
        "County": "Grant",
        "State": "OR",
        "Type": "Tower",
        "Status": "Standing",
        "NHLR/FFLOS": "NHLR US 951, OR 123"
      }
    },
    {
      "type": "Feature",
      "geometry": {
        "type": "Point",
        "coordinates": [
          -121.63547,
          44.39972
        ]
      },
      "properties": {
        "name": "Black Butte",
        "County": "Jefferson",
        "State": "OR",
        "Type": "Tower",
        "Status": "Standing",
        "NHLR/FFLOS": "NHLR US 91, OR 12"
      }
    },
    {
      "type": "Feature",
      "geometry": {
        "type": "Point",
        "coordinates": [
          -123.11917,
          42.9691
        ]
      },
      "properties": {
        "name": "Bland Mountain",
        "County": "Douglas",
        "State": "OR",
        "Type": "Tower",
        "Status": "Standing",
        "NHLR/FFLOS": "NHLR US 481, OR 74"
      }
    },
    {
      "type": "Feature",
      "geometry": {
        "type": "Point",
        "coordinates": [
          -119.03024,
          44.98546
        ]
      },
      "properties": {
        "name": "Bone Point",
        "County": "Grant",
        "State": "OR",
        "Type": "Tower",
        "Status": "Standing",
        "NHLR/FFLOS": "NHLR US 1600, OR 132"
      }
    },
    {
      "type": "Feature",
      "geometry": {
        "type": "Point",
        "coordinates": [
          -121.27603,
          42.0338
        ]
      },
      "properties": {
        "name": "Bryant Mountain",
        "County": "Klamath",
        "State": "OR",
        "Type": "Tower",
        "Status": "Standing",
        "NHLR/FFLOS": "NHLR US 1608, OR 135"
      }
    },
    {
      "type": "Feature",
      "geometry": {
        "type": "Point",
        "coordinates": [
          -116.8228,
          45.75375
        ]
      },
      "properties": {
        "name": "Buckhorn Mountain",
        "County": "Wallowa",
        "State": "OR",
        "Type": "Ground",
        "Status": "Standing",
        "NHLR/FFLOS": "NHLR US 1609, OR 136"
      }
    },
    {
      "type": "Feature",
      "geometry": {
        "type": "Point",
        "coordinates": [
          -124.20489,
          43.35173
        ]
      },
      "properties": {
        "name": "Bunker Hill",
        "County": "Coos",
        "State": "OR",
        "Type": "Tower",
        "Status": "Standing",
        "NHLR/FFLOS": "NHLR US 473, OR 70"
      }
    },
    {
      "type": "Feature",
      "geometry": {
        "type": "Point",
        "coordinates": [
          -118.82537,
          43.92866
        ]
      },
      "properties": {
        "name": "Calamity Butte",
        "County": "Harney",
        "State": "OR",
        "Type": "Tower",
        "Status": "Standing",
        "NHLR/FFLOS": "NHLR US 73, OR 10"
      }
    },
    {
      "type": "Feature",
      "geometry": {
        "type": "Point",
        "coordinates": [
          -121.55943,
          42.63156
        ]
      },
      "properties": {
        "name": "Calimus Butte",
        "County": "Klamath",
        "State": "OR",
        "Type": "Ground",
        "Status": "Standing",
        "NHLR/FFLOS": "NHLR US 259, OR 30"
      }
    },
    {
      "type": "Feature",
      "geometry": {
        "type": "Point",
        "coordinates": [
          -122.14385,
          44.28119
        ]
      },
      "properties": {
        "name": "Carpenter Mountain",
        "County": "Linn",
        "State": "OR",
        "Type": "Ground",
        "Status": "Standing",
        "NHLR/FFLOS": "NHLR US 484, OR 77"
      }
    },
    {
      "type": "Feature",
      "geometry": {
        "type": "Point",
        "coordinates": [
          -121.99416,
          42.09462
        ]
      },
      "properties": {
        "name": "Chase Mountain",
        "County": "Klamath",
        "State": "OR",
        "Type": "Tower",
        "Status": "Standing",
        "NHLR/FFLOS": "NHLR US 485, OR 78"
      }
    },
    {
      "type": "Feature",
      "geometry": {
        "type": "Point",
        "coordinates": [
          -122.10986,
          43.24102
        ]
      },
      "properties": {
        "name": "Cinnamon Butte",
        "County": "Douglas",
        "State": "OR",
        "Type": "Tower",
        "Status": "Standing",
        "NHLR/FFLOS": "NHLR US 486, OR 79"
      }
    },
    {
      "type": "Feature",
      "geometry": {
        "type": "Point",
        "coordinates": [
          -121.71856,
          45.15647
        ]
      },
      "properties": {
        "name": "Clear Lake Butte",
        "County": "Wasco",
        "State": "OR",
        "Type": "Tower",
        "Status": "Standing",
        "NHLR/FFLOS": "NHLR US 11, OR 3"
      }
    },
    {
      "type": "Feature",
      "geometry": {
        "type": "Point",
        "coordinates": [
          -122.04433,
          44.62139
        ]
      },
      "properties": {
        "name": "Coffin Mountain",
        "County": "Linn",
        "State": "OR",
        "Type": "Ground",
        "Status": "Standing",
        "NHLR/FFLOS": "NHLR US 888, OR 114"
      }
    },
    {
      "type": "Feature",
      "geometry": {
        "type": "Point",
        "coordinates": [
          -123.87102,
          43.59705
        ]
      },
      "properties": {
        "name": "Cougar Pass",
        "County": "Douglas",
        "State": "OR",
        "Type": "Tower",
        "Status": "Standing",
        "NHLR/FFLOS": "NHLR US 952, OR 124"
      }
    },
    {
      "type": "Feature",
      "geometry": {
        "type": "Point",
        "coordinates": [
          -117.37372,
          45.88024
        ]
      },
      "properties": {
        "name": "Courtney Butte",
        "County": "Wallowa",
        "State": "OR",
        "Type": "3-Story cab",
        "Status": "Standing",
        "NHLR/FFLOS": "NHLR US 1184, OR 128"
      }
    },
    {
      "type": "Feature",
      "geometry": {
        "type": "Point",
        "coordinates": [
          -118.66448,
          44.8505
        ]
      },
      "properties": {
        "name": "Desolation Butte",
        "County": "Grant",
        "State": "OR",
        "Type": "Tower",
        "Status": "Standing",
        "NHLR/FFLOS": "NHLR US 1610, OR 137"
      }
    },
    {
      "type": "Feature",
      "geometry": {
        "type": "Point",
        "coordinates": [
          -121.87568,
          45.26415
        ]
      },
      "properties": {
        "name": "Devils Peak",
        "County": "Clackamas",
        "State": "OR",
        "Type": "Tower",
        "Status": "Standing",
        "NHLR/FFLOS": "NHLR US 521, OR 102"
      }
    },
    {
      "type": "Feature",
      "geometry": {
        "type": "Point",
        "coordinates": [
          -118.62649,
          44.58294
        ]
      },
      "properties": {
        "name": "Dixie Butte",
        "County": "Grant",
        "State": "OR",
        "Type": "Ground",
        "Status": "Standing",
        "NHLR/FFLOS": "NHLR US 657, OR 108"
      }
    },
    {
      "type": "Feature",
      "geometry": {
        "type": "Point",
        "coordinates": [
          -120.71824,
          42.11856
        ]
      },
      "properties": {
        "name": "Dog Mountain",
        "County": "Lake",
        "State": "OR",
        "Type": "2-Story cab",
        "Status": "Standing",
        "NHLR/FFLOS": "NHLR US 475, OR 71"
      }
    },
    {
      "type": "Feature",
      "geometry": {
        "type": "Point",
        "coordinates": [
          -120.15793,
          42.30051
        ]
      },
      "properties": {
        "name": "Drake Peak",
        "County": "Lake",
        "State": "OR",
        "Type": "Ground",
        "Status": "Standing",
        "NHLR/FFLOS": "NHLR US 487, OR 80"
      }
    },
    {
      "type": "Feature",
      "geometry": {
        "type": "Point",
        "coordinates": [
          -119.56371,
          43.67196
        ]
      },
      "properties": {
        "name": "Dry Mountain",
        "County": "Harney",
        "State": "OR",
        "Type": "Tower",
        "Status": "Standing",
        "NHLR/FFLOS": "NHLR US 426, OR 51"
      }
    },
    {
      "type": "Feature",
      "geometry": {
        "type": "Point",
        "coordinates": [
          -118.91087,
          44.20831
        ]
      },
      "properties": {
        "name": "Dry Soda",
        "County": "Grant",
        "State": "OR",
        "Type": "Tower",
        "Status": "Standing",
        "NHLR/FFLOS": "NHLR US 116, OR 16"
      }
    },
    {
      "type": "Feature",
      "geometry": {
        "type": "Point",
        "coordinates": [
          -122.89085,
          42.04357
        ]
      },
      "properties": {
        "name": "Dutchmans Peak",
        "County": "Jackson",
        "State": "OR",
        "Type": "Ground",
        "Status": "Standing",
        "NHLR/FFLOS": "NHLR US 19, OR 5"
      }
    },
    {
      "type": "Feature",
      "geometry": {
        "type": "Point",
        "coordinates": [
          -121.23481,
          44.83982
        ]
      },
      "properties": {
        "name": "Eagle Butte",
        "County": "Wasco",
        "State": "OR",
        "Type": "Tower",
        "Status": "Standing",
        "NHLR/FFLOS": "NHLR US 488, OR 81"
      }
    },
    {
      "type": "Feature",
      "geometry": {
        "type": "Point",
        "coordinates": [
          -120.99576,
          43.66715
        ]
      },
      "properties": {
        "name": "East Butte",
        "County": "Lake",
        "State": "OR",
        "Type": "Tower",
        "Status": "Standing",
        "NHLR/FFLOS": "NHLR US 464, OR 61"
      }
    },
    {
      "type": "Feature",
      "geometry": {
        "type": "Point",
        "coordinates": [
          -123.9551,
          42.8701
        ]
      },
      "properties": {
        "name": "Eden Ridge",
        "County": "Coos",
        "State": "OR",
        "Type": "Tower",
        "Status": "Standing"
      }
    },
    {
      "type": "Feature",
      "geometry": {
        "type": "Point",
        "coordinates": [
          -124.33409,
          42.87244
        ]
      },
      "properties": {
        "name": "Edson Butte",
        "County": "Coos",
        "State": "OR",
        "Type": "Tower",
        "Status": "Standing"
      }
    },
    {
      "type": "Feature",
      "geometry": {
        "type": "Point",
        "coordinates": [
          -117.20542,
          45.59815
        ]
      },
      "properties": {
        "name": "Elk Mountain",
        "County": "Wallowa",
        "State": "OR",
        "Type": "Ground",
        "Status": "Standing",
        "NHLR/FFLOS": "NHLR US 1614, OR 138"
      }
    },
    {
      "type": "Feature",
      "geometry": {
        "type": "Point",
        "coordinates": [
          -122.65324,
          43.58578
        ]
      },
      "properties": {
        "name": "Fairview Peak",
        "County": "Lane",
        "State": "OR",
        "Type": "Tower",
        "Status": "Standing",
        "NHLR/FFLOS": "NHLR US 472, OR 69"
      }
    },
    {
      "type": "Feature",
      "geometry": {
        "type": "Point",
        "coordinates": [
          -119.04274,
          44.29368
        ]
      },
      "properties": {
        "name": "Fall Mountain",
        "County": "Grant",
        "State": "OR",
        "Type": "Tower",
        "Status": "Standing",
        "NHLR/FFLOS": "NHLR US 115, OR 15"
      }
    },
    {
      "type": "Feature",
      "geometry": {
        "type": "Point",
        "coordinates": [
          -121.46869,
          45.41005
        ]
      },
      "properties": {
        "name": "Fivemile Butte",
        "County": "Wasco",
        "State": "OR",
        "Type": "Tower",
        "Status": "Standing",
        "NHLR/FFLOS": "NHLR US 914, OR 118"
      }
    },
    {
      "type": "Feature",
      "geometry": {
        "type": "Point",
        "coordinates": [
          -119.28115,
          44.18625
        ]
      },
      "properties": {
        "name": "Flagtail Mountain",
        "County": "Grant",
        "State": "OR",
        "Type": "Tower",
        "Status": "Standing",
        "NHLR/FFLOS": "NHLR US 454, OR 57"
      }
    },
    {
      "type": "Feature",
      "geometry": {
        "type": "Point",
        "coordinates": [
          -120.78501,
          44.52703
        ]
      },
      "properties": {
        "name": "Foley Butte",
        "County": "Crook",
        "State": "OR",
        "Type": "Tower",
        "Status": "Standing",
        "NHLR/FFLOS": "NHLR US 455, OR 58"
      }
    },
    {
      "type": "Feature",
      "geometry": {
        "type": "Point",
        "coordinates": [
          -120.84279,
          43.61062
        ]
      },
      "properties": {
        "name": "Fox Butte",
        "County": "Lake",
        "State": "OR",
        "Type": "Tower",
        "Status": "Standing",
        "NHLR/FFLOS": "NHLR US 146, OR 22"
      }
    },
    {
      "type": "Feature",
      "geometry": {
        "type": "Point",
        "coordinates": [
          -118.648,
          44.09404
        ]
      },
      "properties": {
        "name": "Frazier Point",
        "County": "Grant",
        "State": "OR",
        "Type": "Tower",
        "Status": "Standing",
        "NHLR/FFLOS": "NHLR US 456, OR 59"
      }
    },
    {
      "type": "Feature",
      "geometry": {
        "type": "Point",
        "coordinates": [
          -122.28193,
          43.14508
        ]
      },
      "properties": {
        "name": "Garwood Butte",
        "County": "Douglas",
        "State": "OR",
        "Type": "Ground",
        "Status": "Standing",
        "NHLR/FFLOS": "NHLR US 1615, OR 139"
      }
    },
    {
      "type": "Feature",
      "geometry": {
        "type": "Point",
        "coordinates": [
          -120.46,
          44.26323
        ]
      },
      "properties": {
        "name": "Gerow Butte",
        "County": "Crook",
        "State": "OR",
        "Type": "Tower",
        "Status": "Standing",
        "NHLR/FFLOS": "NHLR US 1616, OR 140"
      }
    },
    {
      "type": "Feature",
      "geometry": {
        "type": "Point",
        "coordinates": [
          -118.075,
          45.20488
        ]
      },
      "properties": {
        "name": "Glass Hill",
        "County": "Union",
        "State": "OR",
        "Type": "Tower",
        "Status": "Standing*"
      }
    },
    {
      "type": "Feature",
      "geometry": {
        "type": "Point",
        "coordinates": [
          -122.08364,
          44.80521
        ]
      },
      "properties": {
        "name": "Gold Butte",
        "County": "Marion",
        "State": "OR",
        "Type": "Ground",
        "Status": "Standing",
        "NHLR/FFLOS": "NHLR US 134, OR 18"
      }
    },
    {
      "type": "Feature",
      "geometry": {
        "type": "Point",
        "coordinates": [
          -118.20925,
          45.58912
        ]
      },
      "properties": {
        "name": "Goodman Ridge",
        "County": "Umatilla",
        "State": "OR",
        "Type": "Tower",
        "Status": "Standing*"
      }
    },
    {
      "type": "Feature",
      "geometry": {
        "type": "Point",
        "coordinates": [
          -120.7249,
          43.38672
        ]
      },
      "properties": {
        "name": "Green Mountain",
        "County": "Lake",
        "State": "OR",
        "Type": "Tower",
        "Status": "Standing",
        "NHLR/FFLOS": "NHLR US 1618, OR 141"
      }
    },
    {
      "type": "Feature",
      "geometry": {
        "type": "Point",
        "coordinates": [
          -122.58291,
          44.48307
        ]
      },
      "properties": {
        "name": "Green Peter",
        "County": "Linn",
        "State": "OR",
        "Type": "Ground",
        "Status": "Standing",
        "NHLR/FFLOS": "NHLR US 490, OR 83"
      }
    },
    {
      "type": "Feature",
      "geometry": {
        "type": "Point",
        "coordinates": [
          -121.60882,
          44.53392
        ]
      },
      "properties": {
        "name": "Green Ridge",
        "County": "Jefferson",
        "State": "OR",
        "Type": "Tower",
        "Status": "Standing",
        "NHLR/FFLOS": "NHLR US 287, OR 32"
      }
    },
    {
      "type": "Feature",
      "geometry": {
        "type": "Point",
        "coordinates": [
          -124.36531,
          42.39725
        ]
      },
      "properties": {
        "name": "Grizzly Mountain",
        "County": "Curry",
        "State": "OR",
        "Type": "Ground",
        "Status": "Standing",
        "NHLR/FFLOS": "NHLR US 1619, OR 142"
      }
    },
    {
      "type": "Feature",
      "geometry": {
        "type": "Point",
        "coordinates": [
          -121.03165,
          43.00931
        ]
      },
      "properties": {
        "name": "Hager Mountain",
        "County": "Lake",
        "State": "OR",
        "Type": "Ground",
        "Status": "Standing",
        "NHLR/FFLOS": "NHLR US 1620, OR 143"
      }
    },
    {
      "type": "Feature",
      "geometry": {
        "type": "Point",
        "coordinates": [
          -117.08829,
          44.86
        ]
      },
      "properties": {
        "name": "Halfway (Pine Ranger Station)",
        "County": "Baker",
        "State": "OR",
        "Type": "Tower",
        "Status": "Standing",
        "NHLR/FFLOS": "NHLR US 1623, OR 144"
      }
    },
    {
      "type": "Feature",
      "geometry": {
        "type": "Point",
        "coordinates": [
          -122.54906,
          42.80388
        ]
      },
      "properties": {
        "name": "Halls Point",
        "County": "Jackson",
        "State": "OR",
        "Type": "Ground",
        "Status": "Standing",
        "NHLR/FFLOS": "NHLR US 491, OR 84"
      }
    },
    {
      "type": "Feature",
      "geometry": {
        "type": "Point",
        "coordinates": [
          -116.87712,
          45.32863
        ]
      },
      "properties": {
        "name": "Harl Butte",
        "County": "Wallowa",
        "State": "OR",
        "Type": "Ground",
        "Status": "Standing",
        "NHLR/FFLOS": "NHLR US 550, OR 103"
      }
    },
    {
      "type": "Feature",
      "geometry": {
        "type": "Point",
        "coordinates": [
          -117.89312,
          45.44042
        ]
      },
      "properties": {
        "name": "Harris, Mount",
        "County": "Union",
        "State": "OR",
        "Type": "Tower",
        "Status": "Standing",
        "NHLR/FFLOS": "NHLR US 1635, OR 152"
      }
    },
    {
      "type": "Feature",
      "geometry": {
        "type": "Point",
        "coordinates": [
          -116.66173,
          45.43783
        ]
      },
      "properties": {
        "name": "Hat Point",
        "County": "Wallowa",
        "State": "OR",
        "Type": "Tower",
        "Status": "Standing",
        "NHLR/FFLOS": "NHLR US 605, OR 106"
      }
    },
    {
      "type": "Feature",
      "geometry": {
        "type": "Point",
        "coordinates": [
          -118.84292,
          43.26376
        ]
      },
      "properties": {
        "name": "Headquarters (Sod House) (USFWS)",
        "County": "Harney",
        "State": "OR",
        "Type": "Tower",
        "Status": "Standing",
        "NHLR/FFLOS": "NHLR US 429, OR 54"
      }
    },
    {
      "type": "Feature",
      "geometry": {
        "type": "Point",
        "coordinates": [
          -121.48585,
          44.33567
        ]
      },
      "properties": {
        "name": "Henkle Butte",
        "County": "Deschutes",
        "State": "OR",
        "Type": "3-Story cab",
        "Status": "Standing",
        "NHLR/FFLOS": "NHLR US 915, OR 119"
      }
    },
    {
      "type": "Feature",
      "geometry": {
        "type": "Point",
        "coordinates": [
          -122.45491,
          43.03353
        ]
      },
      "properties": {
        "name": "Hershberger Mountain",
        "County": "Douglas",
        "State": "OR",
        "Type": "Ground",
        "Status": "Standing",
        "NHLR/FFLOS": "NHLR US 21, OR 6"
      }
    },
    {
      "type": "Feature",
      "geometry": {
        "type": "Point",
        "coordinates": [
          -121.91152,
          45.41298
        ]
      },
      "properties": {
        "name": "Hickman Butte",
        "County": "Clackamas",
        "State": "OR",
        "Type": "Tower",
        "Status": "Standing",
        "NHLR/FFLOS": "NHLR US 369, OR 43"
      }
    },
    {
      "type": "Feature",
      "geometry": {
        "type": "Point",
        "coordinates": [
          -118.10191,
          45.68256
        ]
      },
      "properties": {
        "name": "High Ridge",
        "County": "Union",
        "State": "OR",
        "Type": "Tower",
        "Status": "Standing",
        "NHLR/FFLOS": "NHLR US 551, OR 104"
      }
    },
    {
      "type": "Feature",
      "geometry": {
        "type": "Point",
        "coordinates": [
          -121.7059,
          42.24288
        ]
      },
      "properties": {
        "name": "Hogback Mountain",
        "County": "Klamath",
        "State": "OR",
        "Type": "Tower",
        "Status": "Standing",
        "NHLR/FFLOS": "NHLR US 492, OR 85"
      }
    },
    {
      "type": "Feature",
      "geometry": {
        "type": "Point",
        "coordinates": [
          -117.61091,
          45.94772
        ]
      },
      "properties": {
        "name": "Hoodoo Ridge",
        "County": "Wallowa",
        "State": "OR",
        "Type": "Tower",
        "Status": "Standing",
        "NHLR/FFLOS": "NHLR US 916, OR 120"
      }
    },
    {
      "type": "Feature",
      "geometry": {
        "type": "Point",
        "coordinates": [
          -121.04889,
          42.26416
        ]
      },
      "properties": {
        "name": "Horsefly Mountain",
        "County": "Klamath",
        "State": "OR",
        "Type": "Tower",
        "Status": "Standing",
        "NHLR/FFLOS": "NHLR US 332, OR 34"
      }
    },
    {
      "type": "Feature",
      "geometry": {
        "type": "Point",
        "coordinates": [
          -117.7371,
          45.72377
        ]
      },
      "properties": {
        "name": "Howard Butte",
        "County": "Wallowa",
        "State": "OR",
        "Type": "Tower",
        "Status": "Standing",
        "NHLR/FFLOS": "NHLR US 1624, OR 145"
      }
    },
    {
      "type": "Feature",
      "geometry": {
        "type": "Point",
        "coordinates": [
          -122.31814,
          43.84666
        ]
      },
      "properties": {
        "name": "Huckleberry Mountain",
        "County": "Lane",
        "State": "OR",
        "Type": "Ground",
        "Status": "Standing",
        "NHLR/FFLOS": "NHLR US 26, OR 8"
      }
    },
    {
      "type": "Feature",
      "geometry": {
        "type": "Point",
        "coordinates": [
          -122.56276,
          43.34909
        ]
      },
      "properties": {
        "name": "Illahee Rock",
        "County": "Douglas",
        "State": "OR",
        "Type": "Tower",
        "Status": "Standing",
        "NHLR/FFLOS": "NHLR US 98, OR 13"
      }
    },
    {
      "type": "Feature",
      "geometry": {
        "type": "Point",
        "coordinates": [
          -122.25484,
          44.00564
        ]
      },
      "properties": {
        "name": "Indian Ridge",
        "County": "Lane",
        "State": "OR",
        "Type": "Tower",
        "Status": "Standing",
        "NHLR/FFLOS": "NHLR US 133, OR 17"
      }
    },
    {
      "type": "Feature",
      "geometry": {
        "type": "Point",
        "coordinates": [
          -118.69165,
          44.7568
        ]
      },
      "properties": {
        "name": "Indian Rock",
        "County": "Grant",
        "State": "OR",
        "Type": "Ground",
        "Status": "Standing",
        "NHLR/FFLOS": "NHLR US 1625, OR 146"
      }
    },
    {
      "type": "Feature",
      "geometry": {
        "type": "Point",
        "coordinates": [
          -118.32061,
          44.83688
        ]
      },
      "properties": {
        "name": "Ireland, Mount",
        "County": "Grant",
        "State": "OR",
        "Type": "Ground",
        "Status": "Standing",
        "NHLR/FFLOS": "NHLR US 1338, OR 153"
      }
    },
    {
      "type": "Feature",
      "geometry": {
        "type": "Point",
        "coordinates": [
          -118.4031,
          45.12515
        ]
      },
      "properties": {
        "name": "Johnson Rock",
        "County": "Union",
        "State": "OR",
        "Type": "Tower",
        "Status": "Standing",
        "NHLR/FFLOS": "NHLR US 1628, OR 147"
      }
    },
    {
      "type": "Feature",
      "geometry": {
        "type": "Point",
        "coordinates": [
          -118.86906,
          43.81051
        ]
      },
      "properties": {
        "name": "King Mountain",
        "County": "Harney",
        "State": "OR",
        "Type": "Tower",
        "Status": "Standing",
        "NHLR/FFLOS": "NHLR US 469, OR 66"
      }
    },
    {
      "type": "Feature",
      "geometry": {
        "type": "Point",
        "coordinates": [
          -124.12857,
          42.59419
        ]
      },
      "properties": {
        "name": "Lake O\u2019 Woods",
        "County": "Curry",
        "State": "OR",
        "Type": "Tower",
        "Status": "Standing",
        "NHLR/FFLOS": "NHLR US 494, OR 87"
      }
    },
    {
      "type": "Feature",
      "geometry": {
        "type": "Point",
        "coordinates": [
          -121.35609,
          43.91791
        ]
      },
      "properties": {
        "name": "Lava Butte",
        "County": "Deschutes",
        "State": "OR",
        "Type": "2-Story cab",
        "Status": "Standing",
        "NHLR/FFLOS": "NHLR US 508, OR 100"
      }
    },
    {
      "type": "Feature",
      "geometry": {
        "type": "Point",
        "coordinates": [
          -122.50354,
          44.03861
        ]
      },
      "properties": {
        "name": "Little Cowhorn",
        "County": "Lane",
        "State": "OR",
        "Type": "Ground",
        "Status": "Standing",
        "NHLR/FFLOS": "NHLR US 400, OR 47"
      }
    },
    {
      "type": "Feature",
      "geometry": {
        "type": "Point",
        "coordinates": [
          -123.49391,
          42.19825
        ]
      },
      "properties": {
        "name": "Little Grayback",
        "County": "Josephine",
        "State": "OR",
        "Type": "2-Story cab",
        "Status": "Standing",
        "NHLR/FFLOS": "NHLR US 917, OR 121"
      }
    },
    {
      "type": "Feature",
      "geometry": {
        "type": "Point",
        "coordinates": [
          -116.90509,
          45.67196
        ]
      },
      "properties": {
        "name": "Long Ridge",
        "County": "Wallowa",
        "State": "OR",
        "Type": "Tower",
        "Status": "Standing",
        "NHLR/FFLOS": "NHLR US 1629, OR 148"
      }
    },
    {
      "type": "Feature",
      "geometry": {
        "type": "Point",
        "coordinates": [
          -122.39413,
          44.8786
        ]
      },
      "properties": {
        "name": "Lookout Mountain",
        "County": "Marion",
        "State": "OR",
        "Type": "Tower",
        "Status": "Standing"
      }
    },
    {
      "type": "Feature",
      "geometry": {
        "type": "Point",
        "coordinates": [
          -117.78939,
          45.85046
        ]
      },
      "properties": {
        "name": "Lookout Mountain",
        "County": "Union",
        "State": "OR",
        "Type": "Tower",
        "Status": "Standing",
        "NHLR/FFLOS": "NHLR US 604, OR 105"
      }
    },
    {
      "type": "Feature",
      "geometry": {
        "type": "Point",
        "coordinates": [
          -120.80149,
          42.46282
        ]
      },
      "properties": {
        "name": "Lookout Rock",
        "County": "Lake",
        "State": "OR",
        "Type": "Tower",
        "Status": "Standing",
        "NHLR/FFLOS": "NHLR US 336, OR 38"
      }
    },
    {
      "type": "Feature",
      "geometry": {
        "type": "Point",
        "coordinates": [
          -119.81743,
          43.78953
        ]
      },
      "properties": {
        "name": "Mackey (Norcross) Butte",
        "County": "Crook",
        "State": "OR",
        "Type": "Ground",
        "Status": "Standing",
        "NHLR/FFLOS": "NHLR US 1631, OR 149"
      }
    },
    {
      "type": "Feature",
      "geometry": {
        "type": "Point",
        "coordinates": [
          -119.47482,
          45.10738
        ]
      },
      "properties": {
        "name": "Madison Butte",
        "County": "Morrow",
        "State": "OR",
        "Type": "Tower",
        "Status": "Standing",
        "NHLR/FFLOS": "NHLR US 1632, OR 150"
      }
    },
    {
      "type": "Feature",
      "geometry": {
        "type": "Point",
        "coordinates": [
          -116.77812,
          45.17636
        ]
      },
      "properties": {
        "name": "McGraw",
        "County": "Wallowa",
        "State": "OR",
        "Type": "Tower",
        "Status": "Standing",
        "NHLR/FFLOS": "NHLR US 1633, OR 151"
      }
    },
    {
      "type": "Feature",
      "geometry": {
        "type": "Point",
        "coordinates": [
          -120.54435,
          42.53999
        ]
      },
      "properties": {
        "name": "Morgan Butte",
        "County": "Lake",
        "State": "OR",
        "Type": "Ground",
        "Status": "Standing",
        "NHLR/FFLOS": "NHLR US 495, OR 88"
      }
    },
    {
      "type": "Feature",
      "geometry": {
        "type": "Point",
        "coordinates": [
          -117.50294,
          45.13044
        ]
      },
      "properties": {
        "name": "Mule Peak",
        "County": "Union",
        "State": "OR",
        "Type": "Ground",
        "Status": "Standing",
        "NHLR/FFLOS": "NHLR US 1636, OR 154"
      }
    },
    {
      "type": "Feature",
      "geometry": {
        "type": "Point",
        "coordinates": [
          -121.86397,
          43.47064
        ]
      },
      "properties": {
        "name": "Odell Butte",
        "County": "Klamath",
        "State": "OR",
        "Type": "Tower",
        "Status": "Standing",
        "NHLR/FFLOS": "NHLR US 466, OR 63"
      }
    },
    {
      "type": "Feature",
      "geometry": {
        "type": "Point",
        "coordinates": [
          -123.61613,
          42.45442
        ]
      },
      "properties": {
        "name": "Onion Mountain",
        "County": "Josephine",
        "State": "OR",
        "Type": "Tower",
        "Status": "Standing",
        "NHLR/FFLOS": "NHLR US 393, OR 46"
      }
    },
    {
      "type": "Feature",
      "geometry": {
        "type": "Point",
        "coordinates": [
          -118.88655,
          42.82848
        ]
      },
      "properties": {
        "name": "P Ranch (USFWS)",
        "County": "Harney",
        "State": "OR",
        "Type": "Tower",
        "Status": "Standing",
        "NHLR/FFLOS": "NHLR US 430, OR 55"
      }
    },
    {
      "type": "Feature",
      "geometry": {
        "type": "Point",
        "coordinates": [
          -122.27883,
          42.10531
        ]
      },
      "properties": {
        "name": "Parker Mountain",
        "County": "Klamath",
        "State": "OR",
        "Type": "Tower",
        "Status": "Standing",
        "NHLR/FFLOS": "NHLR US 497, OR 90"
      }
    },
    {
      "type": "Feature",
      "geometry": {
        "type": "Point",
        "coordinates": [
          -123.8457,
          42.29884
        ]
      },
      "properties": {
        "name": "Pearsoll Peak",
        "County": "Curry",
        "State": "OR",
        "Type": "Ground",
        "Status": "Standing",
        "NHLR/FFLOS": "NHLR US 51, OR 9"
      }
    },
    {
      "type": "Feature",
      "geometry": {
        "type": "Point",
        "coordinates": [
          -122.29691,
          44.93419
        ]
      },
      "properties": {
        "name": "Pechuck Mountain",
        "County": "Clackamas",
        "State": "OR",
        "Type": "Ground",
        "Status": "Standing",
        "NHLR/FFLOS": "NHLR US 2, OR 2"
      }
    },
    {
      "type": "Feature",
      "geometry": {
        "type": "Point",
        "coordinates": [
          -122.14526,
          42.51338
        ]
      },
      "properties": {
        "name": "Pelican Butte",
        "County": "Klamath",
        "State": "OR",
        "Type": "Tower",
        "Status": "Standing",
        "NHLR/FFLOS": "NHLR US 499, OR 92"
      }
    },
    {
      "type": "Feature",
      "geometry": {
        "type": "Point",
        "coordinates": [
          -122.85585,
          42.94352
        ]
      },
      "properties": {
        "name": "Pickett Butte",
        "County": "Douglas",
        "State": "OR",
        "Type": "Tower",
        "Status": "Standing",
        "NHLR/FFLOS": "NHLR US 354, OR 40"
      }
    },
    {
      "type": "Feature",
      "geometry": {
        "type": "Point",
        "coordinates": [
          -122.37989,
          43.2642
        ]
      },
      "properties": {
        "name": "Pig Iron",
        "County": "Douglas",
        "State": "OR",
        "Type": "Tower",
        "Status": "Standing",
        "NHLR/FFLOS": "NHLR US 335, OR 37"
      }
    },
    {
      "type": "Feature",
      "geometry": {
        "type": "Point",
        "coordinates": [
          -120.23616,
          44.45707
        ]
      },
      "properties": {
        "name": "Pisgah, Mount",
        "County": "Wheeler",
        "State": "OR",
        "Type": "Tower",
        "Status": "Standing",
        "NHLR/FFLOS": "NHLR US 457, OR 60"
      }
    },
    {
      "type": "Feature",
      "geometry": {
        "type": "Point",
        "coordinates": [
          -117.70209,
          45.37176
        ]
      },
      "properties": {
        "name": "Point Prominence",
        "County": "Union",
        "State": "OR",
        "Type": "Tower",
        "Status": "Standing",
        "NHLR/FFLOS": "NHLR US 1638, OR 156"
      }
    },
    {
      "type": "Feature",
      "geometry": {
        "type": "Point",
        "coordinates": [
          -124.04589,
          42.24191
        ]
      },
      "properties": {
        "name": "Quail Prairie",
        "County": "Curry",
        "State": "OR",
        "Type": "Tower",
        "Status": "Standing*",
        "NHLR/FFLOS": "NHLR US 467, OR 64"
      }
    },
    {
      "type": "Feature",
      "geometry": {
        "type": "Point",
        "coordinates": [
          -120.62426,
          44.8331
        ]
      },
      "properties": {
        "name": "Rajneesh Ranch",
        "County": "Wasco",
        "State": "OR",
        "Type": "Tower",
        "Status": "Standing",
        "NHLR/FFLOS": "NHLR US 471, OR 68"
      }
    },
    {
      "type": "Feature",
      "geometry": {
        "type": "Point",
        "coordinates": [
          -120.13763,
          44.89829
        ]
      },
      "properties": {
        "name": "Rancheria Rock",
        "County": "Wheeler",
        "State": "OR",
        "Type": "Ground",
        "Status": "Standing",
        "NHLR/FFLOS": "NHLR US 470, OR 67"
      }
    },
    {
      "type": "Feature",
      "geometry": {
        "type": "Point",
        "coordinates": [
          -118.88897,
          43.14139
        ]
      },
      "properties": {
        "name": "Rattlesnake (USFWS)",
        "County": "Harney",
        "State": "OR",
        "Type": "Tower",
        "Status": "Standing"
      }
    },
    {
      "type": "Feature",
      "geometry": {
        "type": "Point",
        "coordinates": [
          -122.88083,
          43.16572
        ]
      },
      "properties": {
        "name": "Red Butte",
        "County": "Douglas",
        "State": "OR",
        "Type": "Tower",
        "Status": "Standing",
        "NHLR/FFLOS": "NHLR US 390, OR 44"
      }
    },
    {
      "type": "Feature",
      "geometry": {
        "type": "Point",
        "coordinates": [
          -117.10259,
          45.78848
        ]
      },
      "properties": {
        "name": "Red Hill",
        "County": "Wallowa",
        "State": "OR",
        "Type": "Tower",
        "Status": "Standing",
        "NHLR/FFLOS": "NHLR US 1679, OR 166"
      }
    },
    {
      "type": "Feature",
      "geometry": {
        "type": "Point",
        "coordinates": [
          -118.49913,
          43.1002
        ]
      },
      "properties": {
        "name": "Riddle Mountain",
        "County": "Harney",
        "State": "OR",
        "Type": "2-Story cab",
        "Status": "Standing",
        "NHLR/FFLOS": "NHLR US 953, OR 125"
      }
    },
    {
      "type": "Feature",
      "geometry": {
        "type": "Point",
        "coordinates": [
          -119.07136,
          44.83359
        ]
      },
      "properties": {
        "name": "Ritter Butte",
        "County": "Grant",
        "State": "OR",
        "Type": "3-Story cab",
        "Status": "Standing",
        "NHLR/FFLOS": "NHLR US 658, OR 109"
      }
    },
    {
      "type": "Feature",
      "geometry": {
        "type": "Point",
        "coordinates": [
          -122.3817,
          42.36451
        ]
      },
      "properties": {
        "name": "Robinson Butte",
        "County": "Jackson",
        "State": "OR",
        "Type": "Tower",
        "Status": "Standing",
        "NHLR/FFLOS": "NHLR US 740, OR 112"
      }
    },
    {
      "type": "Feature",
      "geometry": {
        "type": "Point",
        "coordinates": [
          -121.71021,
          43.75748
        ]
      },
      "properties": {
        "name": "Round Mountain",
        "County": "Deschutes",
        "State": "OR",
        "Type": "Ground",
        "Status": "Standing",
        "NHLR/FFLOS": "NHLR US 468, OR 65"
      }
    },
    {
      "type": "Feature",
      "geometry": {
        "type": "Point",
        "coordinates": [
          -122.9909,
          42.70186
        ]
      },
      "properties": {
        "name": "Round Top",
        "County": "Jackson",
        "State": "OR",
        "Type": "Tower",
        "Status": "Standing",
        "NHLR/FFLOS": "NHLR US 501, OR 93"
      }
    },
    {
      "type": "Feature",
      "geometry": {
        "type": "Point",
        "coordinates": [
          -117.08696,
          45.06842
        ]
      },
      "properties": {
        "name": "Russel Mountain",
        "County": "Baker",
        "State": "OR",
        "Type": "Tower",
        "Status": "Standing",
        "NHLR/FFLOS": "NHLR US 1639, OR 157"
      }
    },
    {
      "type": "Feature",
      "geometry": {
        "type": "Point",
        "coordinates": [
          -122.34812,
          42.61927
        ]
      },
      "properties": {
        "name": "Rustler Peak",
        "County": "Jackson",
        "State": "OR",
        "Type": "Tower",
        "Status": "Standing",
        "NHLR/FFLOS": "NHLR US 217, OR 27"
      }
    },
    {
      "type": "Feature",
      "geometry": {
        "type": "Point",
        "coordinates": [
          -122.51049,
          43.89374
        ]
      },
      "properties": {
        "name": "Saddleblanket Mountain",
        "County": "Lane",
        "State": "OR",
        "Type": "Tower",
        "Status": "Standing",
        "NHLR/FFLOS": "NHLR US 25, OR 7"
      }
    },
    {
      "type": "Feature",
      "geometry": {
        "type": "Point",
        "coordinates": [
          -121.928,
          44.38477
        ]
      },
      "properties": {
        "name": "Sand Mountain",
        "County": "Linn",
        "State": "OR",
        "Type": "Tower",
        "Status": "Standing",
        "NHLR/FFLOS": "NHLR US 1, OR 1"
      }
    },
    {
      "type": "Feature",
      "geometry": {
        "type": "Point",
        "coordinates": [
          -122.01625,
          42.92291
        ]
      },
      "properties": {
        "name": "Scott, Mount",
        "County": "Klamath",
        "State": "OR",
        "Type": "2-Story cab",
        "Status": "Standing",
        "NHLR/FFLOS": "NHLR US 402, OR 49"
      }
    },
    {
      "type": "Feature",
      "geometry": {
        "type": "Point",
        "coordinates": [
          -123.36548,
          42.60014
        ]
      },
      "properties": {
        "name": "Sexton Mountain",
        "County": "Josephine",
        "State": "OR",
        "Type": "Tower",
        "Status": "Standing",
        "NHLR/FFLOS": "NHLR US 741, OR 113"
      }
    },
    {
      "type": "Feature",
      "geometry": {
        "type": "Point",
        "coordinates": [
          -121.61079,
          44.74501
        ]
      },
      "properties": {
        "name": "Shitike Butte",
        "County": "Jefferson",
        "State": "OR",
        "Type": "Tower",
        "Status": "Standing",
        "NHLR/FFLOS": "NHLR US 656, OR 107"
      }
    },
    {
      "type": "Feature",
      "geometry": {
        "type": "Point",
        "coordinates": [
          -121.53932,
          44.92621
        ]
      },
      "properties": {
        "name": "Sidwalter Butte",
        "County": "Wasco",
        "State": "OR",
        "Type": "Tower",
        "Status": "Standing",
        "NHLR/FFLOS": "NHLR US 739, OR 111"
      }
    },
    {
      "type": "Feature",
      "geometry": {
        "type": "Point",
        "coordinates": [
          -121.84469,
          44.89929
        ]
      },
      "properties": {
        "name": "Sisi Butte",
        "County": "Clackamas",
        "State": "OR",
        "Type": "Tower",
        "Status": "Standing",
        "NHLR/FFLOS": "NHLR US 368, OR 42"
      }
    },
    {
      "type": "Feature",
      "geometry": {
        "type": "Point",
        "coordinates": [
          -124.16547,
          42.34389
        ]
      },
      "properties": {
        "name": "Snow Camp",
        "County": "Curry",
        "State": "OR",
        "Type": "Ground",
        "Status": "Standing",
        "NHLR/FFLOS": "NHLR US 13, OR 4"
      }
    },
    {
      "type": "Feature",
      "geometry": {
        "type": "Point",
        "coordinates": [
          -119.49632,
          43.97038
        ]
      },
      "properties": {
        "name": "Snow Mountain",
        "County": "Grant",
        "State": "OR",
        "Type": "Tower",
        "Status": "Standing",
        "NHLR/FFLOS": "NHLR US 502, OR 94"
      }
    },
    {
      "type": "Feature",
      "geometry": {
        "type": "Point",
        "coordinates": [
          -122.47904,
          42.06478
        ]
      },
      "properties": {
        "name": "Soda Mountain",
        "County": "Jackson",
        "State": "OR",
        "Type": "Tower",
        "Status": "Standing",
        "NHLR/FFLOS": "NHLR US 340, OR 39"
      }
    },
    {
      "type": "Feature",
      "geometry": {
        "type": "Point",
        "coordinates": [
          -119.97138,
          44.65666
        ]
      },
      "properties": {
        "name": "South Baldy",
        "County": "Wheeler",
        "State": "OR",
        "Type": "Tower",
        "Status": "Standing",
        "NHLR/FFLOS": "NHLR US 1640, OR 158"
      }
    },
    {
      "type": "Feature",
      "geometry": {
        "type": "Point",
        "coordinates": [
          -121.26905,
          42.59306
        ]
      },
      "properties": {
        "name": "Spodue Mountain",
        "County": "Klamath",
        "State": "OR",
        "Type": "Tower",
        "Status": "Standing",
        "NHLR/FFLOS": "NHLR US 503, OR 95"
      }
    },
    {
      "type": "Feature",
      "geometry": {
        "type": "Point",
        "coordinates": [
          -121.3481,
          43.52332
        ]
      },
      "properties": {
        "name": "Spring Butte",
        "County": "Klamath",
        "State": "OR",
        "Type": "Tower",
        "Status": "Standing",
        "NHLR/FFLOS": "NHLR US 174, OR 25"
      }
    },
    {
      "type": "Feature",
      "geometry": {
        "type": "Point",
        "coordinates": [
          -123.0121,
          42.0697
        ]
      },
      "properties": {
        "name": "Squaw Peak",
        "County": "Jackson",
        "State": "OR",
        "Type": "Ground",
        "Status": "Standing",
        "NHLR/FFLOS": "NHLR US 504, OR 96"
      }
    },
    {
      "type": "Feature",
      "geometry": {
        "type": "Point",
        "coordinates": [
          -122.43469,
          42.93754
        ]
      },
      "properties": {
        "name": "Stella, Mount",
        "County": "Jackson",
        "State": "OR",
        "Type": "Tower",
        "Status": "Standing",
        "NHLR/FFLOS": "NHLR US 496, OR 89"
      }
    },
    {
      "type": "Feature",
      "geometry": {
        "type": "Point",
        "coordinates": [
          -118.91706,
          43.17083
        ]
      },
      "properties": {
        "name": "Stubblefield Butte (USFWS)",
        "County": "Harney",
        "State": "OR",
        "Type": "Tower",
        "Status": "Standing"
      }
    },
    {
      "type": "Feature",
      "geometry": {
        "type": "Point",
        "coordinates": [
          -119.23928,
          43.91573
        ]
      },
      "properties": {
        "name": "Sugarloaf Mountain",
        "County": "Harney",
        "State": "OR",
        "Type": "Tower",
        "Status": "Standing",
        "NHLR/FFLOS": "NHLR US 427, OR 52"
      }
    },
    {
      "type": "Feature",
      "geometry": {
        "type": "Point",
        "coordinates": [
          -121.60711,
          43.11696
        ]
      },
      "properties": {
        "name": "Sugarpine Mountain",
        "County": "Klamath",
        "State": "OR",
        "Type": "Tower",
        "Status": "Standing",
        "NHLR/FFLOS": "NHLR US 1641, OR 159"
      }
    },
    {
      "type": "Feature",
      "geometry": {
        "type": "Point",
        "coordinates": [
          -117.23926,
          44.98287
        ]
      },
      "properties": {
        "name": "Summit Point",
        "County": "Baker",
        "State": "OR",
        "Type": "Tower",
        "Status": "Standing",
        "NHLR/FFLOS": "NHLR US 1642, OR 160"
      }
    },
    {
      "type": "Feature",
      "geometry": {
        "type": "Point",
        "coordinates": [
          -122.49288,
          42.19776
        ]
      },
      "properties": {
        "name": "Table Mountain",
        "County": "Jackson",
        "State": "OR",
        "Type": "Tower",
        "Status": "Standing",
        "NHLR/FFLOS": "NHLR US 1643, OR 161"
      }
    },
    {
      "type": "Feature",
      "geometry": {
        "type": "Point",
        "coordinates": [
          -118.31656,
          44.33403
        ]
      },
      "properties": {
        "name": "Table Rock",
        "County": "Baker",
        "State": "OR",
        "Type": "Ground",
        "Status": "Standing",
        "NHLR/FFLOS": "NHLR US 263, OR 31"
      }
    },
    {
      "type": "Feature",
      "geometry": {
        "type": "Point",
        "coordinates": [
          -119.66146,
          44.87379
        ]
      },
      "properties": {
        "name": "Tamarack Mountain",
        "County": "Grant",
        "State": "OR",
        "Type": "Tower",
        "Status": "Standing",
        "NHLR/FFLOS": "NHLR US 1516, OR 130"
      }
    },
    {
      "type": "Feature",
      "geometry": {
        "type": "Point",
        "coordinates": [
          -117.40341,
          45.65276
        ]
      },
      "properties": {
        "name": "Tope Creek",
        "County": "Wallowa",
        "State": "OR",
        "Type": "Tower",
        "Status": "Standing",
        "NHLR/FFLOS": "NHLR US 222, OR 28"
      }
    },
    {
      "type": "Feature",
      "geometry": {
        "type": "Point",
        "coordinates": [
          -118.5689,
          45.0543
        ]
      },
      "properties": {
        "name": "Tower Mountain",
        "County": "Umatilla",
        "State": "OR",
        "Type": "Tower",
        "Status": "Standing",
        "NHLR/FFLOS": "NHLR US 142, OR 20"
      }
    },
    {
      "type": "Feature",
      "geometry": {
        "type": "Point",
        "coordinates": [
          -120.29569,
          44.05735
        ]
      },
      "properties": {
        "name": "Tower Point",
        "County": "Crook",
        "State": "OR",
        "Type": "Tower",
        "Status": "Standing",
        "NHLR/FFLOS": "NHLR US 1644, OR 162"
      }
    },
    {
      "type": "Feature",
      "geometry": {
        "type": "Point",
        "coordinates": [
          -121.66957,
          44.24114
        ]
      },
      "properties": {
        "name": "Trout Creek Butte",
        "County": "Deschutes",
        "State": "OR",
        "Type": "Tower",
        "Status": "Standing",
        "NHLR/FFLOS": "NHLR US 506, OR 98"
      }
    },
    {
      "type": "Feature",
      "geometry": {
        "type": "Point",
        "coordinates": [
          -118.18814,
          44.43675
        ]
      },
      "properties": {
        "name": "Unity Ranger Station",
        "County": "Baker",
        "State": "OR",
        "Type": "Tower",
        "Status": "Standing",
        "NHLR/FFLOS": "NHLR US 1645, OR 163"
      }
    },
    {
      "type": "Feature",
      "geometry": {
        "type": "Point",
        "coordinates": [
          -119.89151,
          43.34877
        ]
      },
      "properties": {
        "name": "Wagontire Mountain",
        "County": "Harney",
        "State": "OR",
        "Type": "2-Story cab",
        "Status": "Standing",
        "NHLR/FFLOS": "NHLR US 954, OR 126"
      }
    },
    {
      "type": "Feature",
      "geometry": {
        "type": "Point",
        "coordinates": [
          -122.09898,
          43.76522
        ]
      },
      "properties": {
        "name": "Waldo Mountain",
        "County": "Lane",
        "State": "OR",
        "Type": "Ground",
        "Status": "Standing",
        "NHLR/FFLOS": "NHLR US 135, OR 19"
      }
    },
    {
      "type": "Feature",
      "geometry": {
        "type": "Point",
        "coordinates": [
          -121.71696,
          43.30521
        ]
      },
      "properties": {
        "name": "Walker Mountain",
        "County": "Klamath",
        "State": "OR",
        "Type": "Tower",
        "Status": "Standing",
        "NHLR/FFLOS": "NHLR US 145, OR 21"
      }
    },
    {
      "type": "Feature",
      "geometry": {
        "type": "Point",
        "coordinates": [
          -122.3664,
          43.5434
        ]
      },
      "properties": {
        "name": "Warner Ridge",
        "County": "Lane",
        "State": "OR",
        "Type": "Tower",
        "Status": "Standing",
        "NHLR/FFLOS": "NHLR US 84, OR 11"
      }
    },
    {
      "type": "Feature",
      "geometry": {
        "type": "Point",
        "coordinates": [
          -122.17237,
          42.94294
        ]
      },
      "properties": {
        "name": "Watchman, The",
        "County": "Klamath",
        "State": "OR",
        "Type": "2-Story cab",
        "Status": "Standing",
        "NHLR/FFLOS": "NHLR US 401, OR 48"
      }
    },
    {
      "type": "Feature",
      "geometry": {
        "type": "Point",
        "coordinates": [
          -119.16028,
          43.97464
        ]
      },
      "properties": {
        "name": "West Myrtle Butte",
        "County": "Grant",
        "State": "OR",
        "Type": "Tower",
        "Status": "Standing",
        "NHLR/FFLOS": "NHLR US 428, OR 53"
      }
    },
    {
      "type": "Feature",
      "geometry": {
        "type": "Point",
        "coordinates": [
          -122.5527,
          42.77075
        ]
      },
      "properties": {
        "name": "White Point",
        "County": "Jackson",
        "State": "OR",
        "Type": "Tower",
        "Status": "Standing",
        "NHLR/FFLOS": "NHLR US 507, OR 99"
      }
    },
    {
      "type": "Feature",
      "geometry": {
        "type": "Point",
        "coordinates": [
          -124.16032,
          42.471
        ]
      },
      "properties": {
        "name": "Wildhorse",
        "County": "Curry",
        "State": "OR",
        "Type": "Tower",
        "Status": "Standing",
        "NHLR/FFLOS": "NHLR US 509, OR 101"
      }
    },
    {
      "type": "Feature",
      "geometry": {
        "type": "Point",
        "coordinates": [
          -119.71545,
          44.3282
        ]
      },
      "properties": {
        "name": "Wolf Mountain",
        "County": "Wheeler",
        "State": "OR",
        "Type": "Tower",
        "Status": "Standing",
        "NHLR/FFLOS": "NHLR US 902, OR 115"
      }
    },
    {
      "type": "Feature",
      "geometry": {
        "type": "Point",
        "coordinates": [
          -121.26976,
          42.32651
        ]
      },
      "properties": {
        "name": "Yainax Butte",
        "County": "Klamath",
        "State": "OR",
        "Type": "Tower",
        "Status": "Standing",
        "NHLR/FFLOS": "NHLR US 1646, OR 164"
      }
    },
    {
      "type": "Feature",
      "geometry": {
        "type": "Point",
        "coordinates": [
          -121.06784,
          42.78413
        ]
      },
      "properties": {
        "name": "ZX Ranch",
        "County": "Lake",
        "State": "OR",
        "Type": "Tower",
        "Status": "Standing",
        "NHLR/FFLOS": "NHLR US 1647, OR 165"
      }
    },
    {
      "type": "Feature",
      "geometry": {
        "type": "Point",
        "coordinates": [
          -121.49089,
          46.20241
        ]
      },
      "properties": {
        "name": "Adams, Mount",
        "County": "Yakima",
        "State": "WA",
        "Type": "Ground",
        "Status": "Standing",
        "NHLR/FFLOS": "NHLR US 840, WA 58"
      }
    },
    {
      "type": "Feature",
      "geometry": {
        "type": "Point",
        "coordinates": [
          -120.86579,
          47.81202
        ]
      },
      "properties": {
        "name": "Alpine (Nason Ridge)",
        "County": "Chelan",
        "State": "WA",
        "Type": "Ground",
        "Status": "Standing",
        "NHLR/FFLOS": "NHLR US 123, WA 11"
      }
    },
    {
      "type": "Feature",
      "geometry": {
        "type": "Point",
        "coordinates": [
          -119.08576,
          48.26717
        ]
      },
      "properties": {
        "name": "Armstrong Mountain",
        "County": "Okanogan",
        "State": "WA",
        "Type": "Tower",
        "Status": "Standing",
        "NHLR/FFLOS": "NHLR US 1521, WA 70"
      }
    },
    {
      "type": "Feature",
      "geometry": {
        "type": "Point",
        "coordinates": [
          -117.24929,
          46.1154
        ]
      },
      "properties": {
        "name": "Big Butte",
        "County": "Asotin",
        "State": "WA",
        "Type": "Tower",
        "Status": "Temp*",
        "NHLR/FFLOS": "NHLR US 364, WA 45"
      }
    },
    {
      "type": "Feature",
      "geometry": {
        "type": "Point",
        "coordinates": [
          -119.12231,
          48.78524
        ]
      },
      "properties": {
        "name": "Bonaparte, Mount",
        "County": "Okanogan",
        "State": "WA",
        "Type": "Tower",
        "Status": "Standing",
        "NHLR/FFLOS": "NHLR US 160, WA 20"
      }
    },
    {
      "type": "Feature",
      "geometry": {
        "type": "Point",
        "coordinates": [
          -119.82395,
          48.43665
        ]
      },
      "properties": {
        "name": "Buck Mountain",
        "County": "Okanogan",
        "State": "WA",
        "Type": "Tower",
        "Status": "Standing",
        "NHLR/FFLOS": "NHLR US 362, WA 43"
      }
    },
    {
      "type": "Feature",
      "geometry": {
        "type": "Point",
        "coordinates": [
          -121.86285,
          46.40686
        ]
      },
      "properties": {
        "name": "Burley Mountain",
        "County": "Lewis",
        "State": "WA",
        "Type": "Ground",
        "Status": "Standing",
        "NHLR/FFLOS": "NHLR US 356, WA 37"
      }
    },
    {
      "type": "Feature",
      "geometry": {
        "type": "Point",
        "coordinates": [
          -117.57517,
          46.20297
        ]
      },
      "properties": {
        "name": "Clearwater",
        "County": "Garfield",
        "State": "WA",
        "Type": "Tower",
        "Status": "Standing",
        "NHLR/FFLOS": "NHLR US 1522, WA 71"
      }
    },
    {
      "type": "Feature",
      "geometry": {
        "type": "Point",
        "coordinates": [
          -118.6624,
          48.34129
        ]
      },
      "properties": {
        "name": "Cody Butte",
        "County": "Ferry",
        "State": "WA",
        "Type": "Tower",
        "Status": "Standing",
        "NHLR/FFLOS": "NHLR US 1523, WA 72"
      }
    },
    {
      "type": "Feature",
      "geometry": {
        "type": "Point",
        "coordinates": [
          -118.482,
          48.62
        ]
      },
      "properties": {
        "name": "Columbia Mountain",
        "County": "Ferry",
        "State": "WA",
        "Type": "Tower",
        "Status": "Standing*",
        "NHLR/FFLOS": "NHLR US 103, WA 9"
      }
    },
    {
      "type": "Feature",
      "geometry": {
        "type": "Point",
        "coordinates": [
          -122.83113,
          48.6775
        ]
      },
      "properties": {
        "name": "Constitution, Mount",
        "County": "San Juan",
        "State": "WA",
        "Type": "Stone tower",
        "Status": "Standing",
        "NHLR/FFLOS": "NHLR US 59, WA 3"
      }
    },
    {
      "type": "Feature",
      "geometry": {
        "type": "Point",
        "coordinates": [
          -121.46263,
          48.90844
        ]
      },
      "properties": {
        "name": "Copper Mountain",
        "County": "Whatcom",
        "State": "WA",
        "Type": "Ground",
        "Status": "Standing",
        "NHLR/FFLOS": "NHLR US 271, WA 29"
      }
    },
    {
      "type": "Feature",
      "geometry": {
        "type": "Point",
        "coordinates": [
          -118.8904,
          48.59433
        ]
      },
      "properties": {
        "name": "Cornell Butte",
        "County": "Okanogan",
        "State": "WA",
        "Type": "Tower",
        "Status": "Standing",
        "NHLR/FFLOS": "NHLR US 1524, WA 73"
      }
    },
    {
      "type": "Feature",
      "geometry": {
        "type": "Point",
        "coordinates": [
          -121.01643,
          48.91128
        ]
      },
      "properties": {
        "name": "Desolation Peak",
        "County": "Whatcom",
        "State": "WA",
        "Type": "Ground",
        "Status": "Standing",
        "NHLR/FFLOS": "NHLR US 272, WA 30"
      }
    },
    {
      "type": "Feature",
      "geometry": {
        "type": "Point",
        "coordinates": [
          -123.50991,
          47.87409
        ]
      },
      "properties": {
        "name": "Dodger Point",
        "County": "Clallam",
        "State": "WA",
        "Type": "Ground",
        "Status": "Standing",
        "NHLR/FFLOS": "NHLR US 1112, WA 65"
      }
    },
    {
      "type": "Feature",
      "geometry": {
        "type": "Point",
        "coordinates": [
          -121.26394,
          47.83647
        ]
      },
      "properties": {
        "name": "Evergreen Mountain",
        "County": "Snohomish",
        "State": "WA",
        "Type": "Ground",
        "Status": "Standing",
        "NHLR/FFLOS": "NHLR US 206, WA 25"
      }
    },
    {
      "type": "Feature",
      "geometry": {
        "type": "Point",
        "coordinates": [
          -120.10891,
          48.61915
        ]
      },
      "properties": {
        "name": "First Butte",
        "County": "Okanogan",
        "State": "WA",
        "Type": "Tower",
        "Status": "Standing",
        "NHLR/FFLOS": "NHLR US 358, WA 39"
      }
    },
    {
      "type": "Feature",
      "geometry": {
        "type": "Point",
        "coordinates": [
          -118.632,
          48.855
        ]
      },
      "properties": {
        "name": "Franson Peak",
        "County": "Ferry",
        "State": "WA",
        "Type": "Tower",
        "Status": "Standing",
        "NHLR/FFLOS": "NHLR US 1525, WA 74"
      }
    },
    {
      "type": "Feature",
      "geometry": {
        "type": "Point",
        "coordinates": [
          -121.67546,
          46.93379
        ]
      },
      "properties": {
        "name": "Fremont, Mount",
        "County": "Pierce",
        "State": "WA",
        "Type": "2-Story cab",
        "Status": "Standing",
        "NHLR/FFLOS": "NHLR US 477, WA 50"
      }
    },
    {
      "type": "Feature",
      "geometry": {
        "type": "Point",
        "coordinates": [
          -119.74464,
          48.59971
        ]
      },
      "properties": {
        "name": "Funk Mountain",
        "County": "Okanogan",
        "State": "WA",
        "Type": "Tower",
        "Status": "Standing",
        "NHLR/FFLOS": "NHLR US 361, WA 42"
      }
    },
    {
      "type": "Feature",
      "geometry": {
        "type": "Point",
        "coordinates": [
          -120.40399,
          48.63216
        ]
      },
      "properties": {
        "name": "Goat Peak",
        "County": "Okanogan",
        "State": "WA",
        "Type": "Tower",
        "Status": "Standing",
        "NHLR/FFLOS": "NHLR US 357, WA 38"
      }
    },
    {
      "type": "Feature",
      "geometry": {
        "type": "Point",
        "coordinates": [
          -121.91472,
          46.79406
        ]
      },
      "properties": {
        "name": "Gobblers Knob",
        "County": "Pierce",
        "State": "WA",
        "Type": "2-Story cab",
        "Status": "Standing",
        "NHLR/FFLOS": "NHLR US 478, WA 51"
      }
    },
    {
      "type": "Feature",
      "geometry": {
        "type": "Point",
        "coordinates": [
          -118.4676,
          48.1806
        ]
      },
      "properties": {
        "name": "Gold Mountain",
        "County": "Ferry",
        "State": "WA",
        "Type": "Tower",
        "Status": "Standing",
        "NHLR/FFLOS": "NHLR US 1526, WA 75"
      }
    },
    {
      "type": "Feature",
      "geometry": {
        "type": "Point",
        "coordinates": [
          -122.64638,
          47.072
        ]
      },
      "properties": {
        "name": "Goodman Hill",
        "County": "Pierce",
        "State": "WA",
        "Type": "Tower",
        "Status": "Standing",
        "NHLR/FFLOS": "NHLR US 1527, WA 76"
      }
    },
    {
      "type": "Feature",
      "geometry": {
        "type": "Point",
        "coordinates": [
          -121.48121,
          47.41711
        ]
      },
      "properties": {
        "name": "Granite Mountain",
        "County": "King",
        "State": "WA",
        "Type": "Tower",
        "Status": "Standing",
        "NHLR/FFLOS": "NHLR US 1068, WA 64"
      }
    },
    {
      "type": "Feature",
      "geometry": {
        "type": "Point",
        "coordinates": [
          -121.23862,
          48.29151
        ]
      },
      "properties": {
        "name": "Green Mountain",
        "County": "Snohomish",
        "State": "WA",
        "Type": "Ground",
        "Status": "Standing",
        "NHLR/FFLOS": "NHLR US 22, WA 1"
      }
    },
    {
      "type": "Feature",
      "geometry": {
        "type": "Point",
        "coordinates": [
          -118.4992,
          48.41936
        ]
      },
      "properties": {
        "name": "Grizzly Mountain",
        "County": "Ferry",
        "State": "WA",
        "Type": "Tower",
        "Status": "Standing"
      }
    },
    {
      "type": "Feature",
      "geometry": {
        "type": "Point",
        "coordinates": [
          -123.11509,
          47.59248
        ]
      },
      "properties": {
        "name": "Hamma Hamma GS",
        "County": "Mason",
        "State": "WA",
        "Type": "Ground",
        "Status": "Standing"
      }
    },
    {
      "type": "Feature",
      "geometry": {
        "type": "Point",
        "coordinates": [
          -121.52537,
          47.81062
        ]
      },
      "properties": {
        "name": "Heybrook",
        "County": "Snohomish",
        "State": "WA",
        "Type": "Tower",
        "Status": "Standing",
        "NHLR/FFLOS": "NHLR US 1094, WA 60"
      }
    },
    {
      "type": "Feature",
      "geometry": {
        "type": "Point",
        "coordinates": [
          -121.20522,
          48.49542
        ]
      },
      "properties": {
        "name": "Hidden Lake",
        "County": "Skagit",
        "State": "WA",
        "Type": "Ground",
        "Status": "Standing",
        "NHLR/FFLOS": "NHLR US 175, WA 22"
      }
    },
    {
      "type": "Feature",
      "geometry": {
        "type": "Point",
        "coordinates": [
          -121.9013,
          46.68438
        ]
      },
      "properties": {
        "name": "High Rock",
        "County": "Lewis",
        "State": "WA",
        "Type": "2-Story cab",
        "Status": "Temp*",
        "NHLR/FFLOS": "NHLR US 387, WA 47"
      }
    },
    {
      "type": "Feature",
      "geometry": {
        "type": "Point",
        "coordinates": [
          -117.03919,
          48.6634
        ]
      },
      "properties": {
        "name": "Indian Mountain",
        "County": "Pend Oreille",
        "State": "WA",
        "Type": "Tower",
        "Status": "Standing",
        "NHLR/FFLOS": "NHLR US 130, WA 15"
      }
    },
    {
      "type": "Feature",
      "geometry": {
        "type": "Point",
        "coordinates": [
          -118.44375,
          47.9114
        ]
      },
      "properties": {
        "name": "Johnny George",
        "County": "Ferry",
        "State": "WA",
        "Type": "Tower",
        "Status": "Standing",
        "NHLR/FFLOS": "NHLR US 1547, WA 77"
      }
    },
    {
      "type": "Feature",
      "geometry": {
        "type": "Point",
        "coordinates": [
          -121.03185,
          46.64456
        ]
      },
      "properties": {
        "name": "Jumpoff",
        "County": "Yakima",
        "State": "WA",
        "Type": "Ground",
        "Status": "Standing",
        "NHLR/FFLOS": "NHLR US 1518, WA 69"
      }
    },
    {
      "type": "Feature",
      "geometry": {
        "type": "Point",
        "coordinates": [
          -118.79549,
          48.06149
        ]
      },
      "properties": {
        "name": "Keller Butte",
        "County": "Ferry",
        "State": "WA",
        "Type": "Tower",
        "Status": "Standing",
        "NHLR/FFLOS": "NHLR US 1548, WA 78"
      }
    },
    {
      "type": "Feature",
      "geometry": {
        "type": "Point",
        "coordinates": [
          -121.49036,
          47.16926
        ]
      },
      "properties": {
        "name": "Kelly Butte",
        "County": "King",
        "State": "WA",
        "Type": "Ground",
        "Status": "Standing",
        "NHLR/FFLOS": "NHLR US 910, WA 59"
      }
    },
    {
      "type": "Feature",
      "geometry": {
        "type": "Point",
        "coordinates": [
          -122.7461,
          47.54387
        ]
      },
      "properties": {
        "name": "Kitsap",
        "County": "Kitsap",
        "State": "WA",
        "Type": "Tower",
        "Status": "Standing"
      }
    },
    {
      "type": "Feature",
      "geometry": {
        "type": "Point",
        "coordinates": [
          -119.90175,
          48.16401
        ]
      },
      "properties": {
        "name": "Knowlton Knob",
        "County": "Okanogan",
        "State": "WA",
        "Type": "Tower",
        "Status": "Standing",
        "NHLR/FFLOS": "NHLR US 360, WA 41"
      }
    },
    {
      "type": "Feature",
      "geometry": {
        "type": "Point",
        "coordinates": [
          -120.00226,
          48.25055
        ]
      },
      "properties": {
        "name": "Leecher Mountain",
        "County": "Okanogan",
        "State": "WA",
        "Type": "Tower",
        "Status": "Standing",
        "NHLR/FFLOS": "NHLR US 603, WA 55"
      }
    },
    {
      "type": "Feature",
      "geometry": {
        "type": "Point",
        "coordinates": [
          -121.32957,
          48.55238
        ]
      },
      "properties": {
        "name": "Lookout Mountain",
        "County": "Skagit",
        "State": "WA",
        "Type": "Tower",
        "Status": "Standing",
        "NHLR/FFLOS": "NHLR US 730, WA 57"
      }
    },
    {
      "type": "Feature",
      "geometry": {
        "type": "Point",
        "coordinates": [
          -120.18753,
          48.31322
        ]
      },
      "properties": {
        "name": "Lookout Mountain",
        "County": "Okanogan",
        "State": "WA",
        "Type": "Tower",
        "Status": "Standing",
        "NHLR/FFLOS": "NHLR US 363, WA 44"
      }
    },
    {
      "type": "Feature",
      "geometry": {
        "type": "Point",
        "coordinates": [
          -117.5112,
          47.81315
        ]
      },
      "properties": {
        "name": "Lookout Point",
        "County": "Spokane",
        "State": "WA",
        "Type": "Tower",
        "Status": "Standing",
        "NHLR/FFLOS": "NHLR US 326, WA 33"
      }
    },
    {
      "type": "Feature",
      "geometry": {
        "type": "Point",
        "coordinates": [
          -121.41154,
          46.01293
        ]
      },
      "properties": {
        "name": "Meadow Butte",
        "County": "Klickitat",
        "State": "WA",
        "Type": "Tree cab",
        "Status": "Standing",
        "NHLR/FFLOS": "NHLR US 1550, WA 80"
      }
    },
    {
      "type": "Feature",
      "geometry": {
        "type": "Point",
        "coordinates": [
          -120.77396,
          48.63729
        ]
      },
      "properties": {
        "name": "Mebee Pass",
        "County": "Okanogan/Skagit",
        "State": "WA",
        "Type": "Ground",
        "Status": "Standing",
        "NHLR/FFLOS": "NHLR US 1551, WA 81"
      }
    },
    {
      "type": "Feature",
      "geometry": {
        "type": "Point",
        "coordinates": [
          -121.02891,
          48.20709
        ]
      },
      "properties": {
        "name": "Miners Ridge",
        "County": "Snohomish",
        "State": "WA",
        "Type": "Tower",
        "Status": "Standing",
        "NHLR/FFLOS": "NHLR US 75, WA 6"
      }
    },
    {
      "type": "Feature",
      "geometry": {
        "type": "Point",
        "coordinates": [
          -120.64522,
          49.00021
        ]
      },
      "properties": {
        "name": "Monument 83",
        "County": "Okanogan",
        "State": "WA",
        "Type": "Tower/Ground",
        "Status": "Standing",
        "NHLR/FFLOS": "NHLR US 1552, WA 82"
      }
    },
    {
      "type": "Feature",
      "geometry": {
        "type": "Point",
        "coordinates": [
          -119.06126,
          48.37187
        ]
      },
      "properties": {
        "name": "Moses Mountain",
        "County": "Okanogan",
        "State": "WA",
        "Type": "Tower",
        "Status": "Standing",
        "NHLR/FFLOS": "NHLR US 1555, WA 83"
      }
    },
    {
      "type": "Feature",
      "geometry": {
        "type": "Point",
        "coordinates": [
          -121.60259,
          48.31815
        ]
      },
      "properties": {
        "name": "North Mountain",
        "County": "Skagit",
        "State": "WA",
        "Type": "Tower",
        "Status": "Standing",
        "NHLR/FFLOS": "NHLR US 1095, WA 61"
      }
    },
    {
      "type": "Feature",
      "geometry": {
        "type": "Point",
        "coordinates": [
          -124.07233,
          48.08442
        ]
      },
      "properties": {
        "name": "North Point",
        "County": "Clallam",
        "State": "WA",
        "Type": "Ground",
        "Status": "Standing",
        "NHLR/FFLOS": "NHLR US 1556, WA 84"
      }
    },
    {
      "type": "Feature",
      "geometry": {
        "type": "Point",
        "coordinates": [
          -120.06842,
          48.75112
        ]
      },
      "properties": {
        "name": "North Twentymile Peak",
        "County": "Okanogan",
        "State": "WA",
        "Type": "Tower/Ground",
        "Status": "Standing",
        "NHLR/FFLOS": "NHLR US 161, WA 21"
      }
    },
    {
      "type": "Feature",
      "geometry": {
        "type": "Point",
        "coordinates": [
          -119.30903,
          48.44934
        ]
      },
      "properties": {
        "name": "Omak Mountain",
        "County": "Okanogan",
        "State": "WA",
        "Type": "Tower",
        "Status": "Standing",
        "NHLR/FFLOS": "NHLR US 1557, WA 84"
      }
    },
    {
      "type": "Feature",
      "geometry": {
        "type": "Point",
        "coordinates": [
          -117.67936,
          46.10963
        ]
      },
      "properties": {
        "name": "Oregon Butte",
        "County": "Columbia",
        "State": "WA",
        "Type": "Ground",
        "Status": "Standing",
        "NHLR/FFLOS": "NHLR US 144, WA 18"
      }
    },
    {
      "type": "Feature",
      "geometry": {
        "type": "Point",
        "coordinates": [
          -121.85637,
          48.71656
        ]
      },
      "properties": {
        "name": "Park Butte",
        "County": "Whatcom",
        "State": "WA",
        "Type": "Ground",
        "Status": "Standing",
        "NHLR/FFLOS": "NHLR US 533, WA 52"
      }
    },
    {
      "type": "Feature",
      "geometry": {
        "type": "Point",
        "coordinates": [
          -121.7978,
          48.05796
        ]
      },
      "properties": {
        "name": "Pilchuck Mountain",
        "County": "Snohomish",
        "State": "WA",
        "Type": "Ground",
        "Status": "Standing",
        "NHLR/FFLOS": "NHLR US 62, WA 4"
      }
    },
    {
      "type": "Feature",
      "geometry": {
        "type": "Point",
        "coordinates": [
          -122.01716,
          46.83416
        ]
      },
      "properties": {
        "name": "Puyallup Ridge",
        "County": "Pierce",
        "State": "WA",
        "Type": "Tower",
        "Status": "Standing",
        "NHLR/FFLOS": "NHLR US 126, WA 14"
      }
    },
    {
      "type": "Feature",
      "geometry": {
        "type": "Point",
        "coordinates": [
          -121.82094,
          45.93489
        ]
      },
      "properties": {
        "name": "Red Mountain",
        "County": "Skamania",
        "State": "WA",
        "Type": "Tower",
        "Status": "Standing",
        "NHLR/FFLOS": "NHLR US 189, WA 24"
      }
    },
    {
      "type": "Feature",
      "geometry": {
        "type": "Point",
        "coordinates": [
          -120.76081,
          47.30172
        ]
      },
      "properties": {
        "name": "Red Top Mountain",
        "County": "Kittitas",
        "State": "WA",
        "Type": "Tower",
        "Status": "Standing",
        "NHLR/FFLOS": "NHLR US 225, WA 28"
      }
    },
    {
      "type": "Feature",
      "geometry": {
        "type": "Point",
        "coordinates": [
          -117.10309,
          48.96836
        ]
      },
      "properties": {
        "name": "Salmo Mountain",
        "County": "Pend Oreille",
        "State": "WA",
        "Type": "Tower",
        "Status": "Standing",
        "NHLR/FFLOS": "NHLR US 132, WA 16"
      }
    },
    {
      "type": "Feature",
      "geometry": {
        "type": "Point",
        "coordinates": [
          -120.75337,
          46.25742
        ]
      },
      "properties": {
        "name": "Satus Peak",
        "County": "Yakima",
        "State": "WA",
        "Type": "2-Story cab",
        "Status": "Standing",
        "NHLR/FFLOS": "NHLR US 1559, WA 86"
      }
    },
    {
      "type": "Feature",
      "geometry": {
        "type": "Point",
        "coordinates": [
          -121.53054,
          46.81362
        ]
      },
      "properties": {
        "name": "Shriner Peak",
        "County": "Pierce",
        "State": "WA",
        "Type": "2-Story cab",
        "Status": "Standing",
        "NHLR/FFLOS": "NHLR US 207, WA 26"
      }
    },
    {
      "type": "Feature",
      "geometry": {
        "type": "Point",
        "coordinates": [
          -121.13727,
          46.22708
        ]
      },
      "properties": {
        "name": "Signal Peak",
        "County": "Yakima",
        "State": "WA",
        "Type": "Tower",
        "Status": "Standing",
        "NHLR/FFLOS": "NHLR US 1560, WA 87"
      }
    },
    {
      "type": "Feature",
      "geometry": {
        "type": "Point",
        "coordinates": [
          -121.10936,
          48.74263
        ]
      },
      "properties": {
        "name": "Sourdough Mountain",
        "County": "Whatcom",
        "State": "WA",
        "Type": "Ground",
        "Status": "Standing",
        "NHLR/FFLOS": "NHLR US 208, WA 27"
      }
    },
    {
      "type": "Feature",
      "geometry": {
        "type": "Point",
        "coordinates": [
          -117.13752,
          48.42351
        ]
      },
      "properties": {
        "name": "South Baldy",
        "County": "Pend Oreille",
        "State": "WA",
        "Type": "Tower",
        "Status": "Standing",
        "NHLR/FFLOS": "NHLR US 143, WA 17"
      }
    },
    {
      "type": "Feature",
      "geometry": {
        "type": "Point",
        "coordinates": [
          -117.11224,
          47.9238
        ]
      },
      "properties": {
        "name": "Spokane, Mount (Vista House)",
        "County": "Spokane",
        "State": "WA",
        "Type": "2-Story",
        "Status": "Standing",
        "NHLR/FFLOS": "NHLR US 58, WA 2"
      }
    },
    {
      "type": "Feature",
      "geometry": {
        "type": "Point",
        "coordinates": [
          -120.34425,
          47.74062
        ]
      },
      "properties": {
        "name": "Steliko Point",
        "County": "Chelan",
        "State": "WA",
        "Type": "Tower",
        "Status": "Standing",
        "NHLR/FFLOS": "NHLR US 1096, WA 62"
      }
    },
    {
      "type": "Feature",
      "geometry": {
        "type": "Point",
        "coordinates": [
          -118.93748,
          48.45168
        ]
      },
      "properties": {
        "name": "Strawberry Mountain (Col BIA)",
        "County": "Okanogan",
        "State": "WA",
        "Type": "Tower",
        "Status": "Standing",
        "NHLR/FFLOS": "NHLR US 1561, WA 88"
      }
    },
    {
      "type": "Feature",
      "geometry": {
        "type": "Point",
        "coordinates": [
          -120.52793,
          47.75699
        ]
      },
      "properties": {
        "name": "Sugarloaf Mountain",
        "County": "Chelan",
        "State": "WA",
        "Type": "Ground",
        "Status": "Standing",
        "NHLR/FFLOS": "NHLR US 124, WA 12"
      }
    },
    {
      "type": "Feature",
      "geometry": {
        "type": "Point",
        "coordinates": [
          -117.24889,
          48.87773
        ]
      },
      "properties": {
        "name": "Sullivan Mountain",
        "County": "Pend Oreille",
        "State": "WA",
        "Type": "Tower",
        "Status": "Standing",
        "NHLR/FFLOS": "NHLR US 1403, WA 68"
      }
    },
    {
      "type": "Feature",
      "geometry": {
        "type": "Point",
        "coordinates": [
          -121.59649,
          47.041
        ]
      },
      "properties": {
        "name": "Suntop Mountain",
        "County": "Pierce",
        "State": "WA",
        "Type": "Ground",
        "Status": "Standing",
        "NHLR/FFLOS": "NHLR US 92, WA 7"
      }
    },
    {
      "type": "Feature",
      "geometry": {
        "type": "Point",
        "coordinates": [
          -117.91197,
          46.03102
        ]
      },
      "properties": {
        "name": "Table Rock",
        "County": "Columbia",
        "State": "WA",
        "Type": "2-Story cab",
        "Status": "Standing",
        "NHLR/FFLOS": "NHLR US 1097, WA 63"
      }
    },
    {
      "type": "Feature",
      "geometry": {
        "type": "Point",
        "coordinates": [
          -121.20857,
          47.37079
        ]
      },
      "properties": {
        "name": "Thorp Mountain",
        "County": "Kittitas",
        "State": "WA",
        "Type": "Ground",
        "Status": "Standing",
        "NHLR/FFLOS": "NHLR US 389, WA 48"
      }
    },
    {
      "type": "Feature",
      "geometry": {
        "type": "Point",
        "coordinates": [
          -121.68785,
          48.16989
        ]
      },
      "properties": {
        "name": "Three Fingers",
        "County": "Snohomish",
        "State": "WA",
        "Type": "Ground",
        "Status": "Standing",
        "NHLR/FFLOS": "NHLR US 68, WA 5"
      }
    },
    {
      "type": "Feature",
      "geometry": {
        "type": "Point",
        "coordinates": [
          -117.45273,
          48.52711
        ]
      },
      "properties": {
        "name": "Timber Mountain",
        "County": "Pend Oreille",
        "State": "WA",
        "Type": "Tower",
        "Status": "Standing",
        "NHLR/FFLOS": "NHLR US 150, WA 19"
      }
    },
    {
      "type": "Feature",
      "geometry": {
        "type": "Point",
        "coordinates": [
          -121.88087,
          46.95755
        ]
      },
      "properties": {
        "name": "Tolmie Peak",
        "County": "Pierce",
        "State": "WA",
        "Type": "2-Story cab",
        "Status": "Standing",
        "NHLR/FFLOS": "NHLR US 1562, WA 89"
      }
    },
    {
      "type": "Feature",
      "geometry": {
        "type": "Point",
        "coordinates": [
          -118.1472,
          47.98986
        ]
      },
      "properties": {
        "name": "Tower Mountain",
        "County": "Stevens",
        "State": "WA",
        "Type": "Tower",
        "Status": "Standing",
        "NHLR/FFLOS": "NHLR US 1287, WA 67"
      }
    },
    {
      "type": "Feature",
      "geometry": {
        "type": "Point",
        "coordinates": [
          -119.23625,
          48.54558
        ]
      },
      "properties": {
        "name": "Tunk Mountain",
        "County": "Okanogan",
        "State": "WA",
        "Type": "Tower",
        "Status": "Standing",
        "NHLR/FFLOS": "NHLR US 648, WA 56"
      }
    },
    {
      "type": "Feature",
      "geometry": {
        "type": "Point",
        "coordinates": [
          -120.47129,
          47.86421
        ]
      },
      "properties": {
        "name": "Tyee Mountain",
        "County": "Chelan",
        "State": "WA",
        "Type": "Ground",
        "Status": "Standing",
        "NHLR/FFLOS": "NHLR US 125, WA 13"
      }
    },
    {
      "type": "Feature",
      "geometry": {
        "type": "Point",
        "coordinates": [
          -121.98759,
          46.57087
        ]
      },
      "properties": {
        "name": "Watch Mountain",
        "County": "Lewis",
        "State": "WA",
        "Type": "Tower",
        "Status": "Standing",
        "NHLR/FFLOS": "NHLR US 552, WA 53"
      }
    },
    {
      "type": "Feature",
      "geometry": {
        "type": "Point",
        "coordinates": [
          -118.02086,
          47.88658
        ]
      },
      "properties": {
        "name": "Wellpinit Mountain",
        "County": "Stevens",
        "State": "WA",
        "Type": "Tower",
        "Status": "Standing",
        "NHLR/FFLOS": "NHLR US 1563, WA 90"
      }
    },
    {
      "type": "Feature",
      "geometry": {
        "type": "Point",
        "coordinates": [
          -118.50943,
          48.02173
        ]
      },
      "properties": {
        "name": "Whitestone Ridge",
        "County": "Ferry",
        "State": "WA",
        "Type": "Tower",
        "Status": "Standing",
        "NHLR/FFLOS": "NHLR US 1564, WA 91"
      }
    },
    {
      "type": "Feature",
      "geometry": {
        "type": "Point",
        "coordinates": [
          -119.24706,
          48.18018
        ]
      },
      "properties": {
        "name": "Whitmore Mountain",
        "County": "Okanogan",
        "State": "WA",
        "Type": "Tower",
        "Status": "Standing",
        "NHLR/FFLOS": "NHLR US 1565, WA 92"
      }
    },
    {
      "type": "Feature",
      "geometry": {
        "type": "Point",
        "coordinates": [
          -121.64306,
          48.95649
        ]
      },
      "properties": {
        "name": "Winchester Mountain",
        "County": "Whatcom",
        "State": "WA",
        "Type": "Ground",
        "Status": "Standing",
        "NHLR/FFLOS": "NHLR US 93, WA 8"
      }
    }
  ]
}
